GTIN Code;GTIN Name;Segmentation (GPC);GPC Segmentation Code;GPC Brick Code;GPC Class Code;GPC Family Code;GTIN Image;Brand Code;Brand;Brand Image;Brand Link;Brand Owner;Brand Owner Code;Brand Owner Link;Brand Owner Wikipedia Link;Brand Owner Image;GCP Code;GLN Code;Logistical Owner (GLN);GLN Country ISO Code;GLN City;GLN Postal Code;GLN Address2;GLN Address3;GLN Address4;GLN Last Change;GLN Return Code;Number of Units;Package Type Code;Package Type Name;Weight (g);Weight (oz);Volume (ml);Volume (fl oz);Alcohol by Volume;Alcohol by Weight;Registration;Registration Country ISO Code
0036144030535;Vanilla Pudding;;;;;;http://product.okfn.org.s3.amazonaws.com/images/gtin/gtin-003/0036144030535.jpg;;;;;;;;;;0036144;0036144000002;Gehl Foods, Inc.;US;Germantown;53022;N116 W15970 Main St;;WI;;0;1;;;;56.0;;;;;GS1 US;US
0036144500007;Iced Latte;;;;;;http://product.okfn.org.s3.amazonaws.com/images/gtin/gtin-003/0036144500007.jpg;;;;;;;;;;0036144;0036144000002;Gehl Foods, Inc.;US;Germantown;53022;N116 W15970 Main St;;WI;;0;1;;;;;325.0;11.0;;;GS1 US;US
0036144500038;Iced Cappuccino;;;;;;http://product.okfn.org.s3.amazonaws.com/images/gtin/gtin-003/0036144500038.jpg;;;;;;;;;;0036144;0036144000002;Gehl Foods, Inc.;US;Germantown;53022;N116 W15970 Main St;;WI;;0;1;;;;;325.0;11.0;;;GS1 US;US
0036155267838;Bassett Mirror Regency Chairside Chest;;;;;;http://product.okfn.org.s3.amazonaws.com/images/gtin/gtin-003/0036155267838.jpg;;;;;;;;;;0036155;0036155000015;Bassett Mirror Company, Inc.;US;Bassett;24055-0627;P O Box 627;;VA;;0;1;;;;;;;;;GS1 US;US
0036179000114;Professional Whitening Toothpaste Icy Mint;;;;;;http://product.okfn.org.s3.amazonaws.com/images/gtin/gtin-003/0036179000114.jpg;;;;;;;;;;0036179;0036179000008;Robell Research Inc.;US;New York;10022;635 Madison Avenue;;NY;;0;1;;;;4.2;;;;;GS1 US;US
0036179000305;Single Dose Powdered Mouth Rinse Just Add Water 60 Individual Packets;;;;;;http://product.okfn.org.s3.amazonaws.com/images/gtin/gtin-003/0036179000305.jpg;;;;;;;;;;0036179;0036179000008;Robell Research Inc.;US;New York;10022;635 Madison Avenue;;NY;;0;1;;;;;;;;;GS1 US;US
0036179000350;Liquid Oral Rinse;;;;;;http://product.okfn.org.s3.amazonaws.com/images/gtin/gtin-003/0036179000350.jpg;;;;;;;;;;0036179;0036179000008;Robell Research Inc.;US;New York;10022;635 Madison Avenue;;NY;;0;1;;;;18.5;;;;;GS1 US;US
0036179000411;45 Ergonomic Toothbrush Blue 1 Toothbursh 1 toothbrush;;;;;;http://product.okfn.org.s3.amazonaws.com/images/gtin/gtin-003/0036179000411.jpg;;;;;;;;;;0036179;0036179000008;Robell Research Inc.;US;New York;10022;635 Madison Avenue;;NY;;0;1;;;;;;;;;GS1 US;US
0036179000671;Ultimate Whitening System 1 Kit;;;;;;http://product.okfn.org.s3.amazonaws.com/images/gtin/gtin-003/0036179000671.jpg;;;;;;;;;;0036179;0036179000008;Robell Research Inc.;US;New York;10022;635 Madison Avenue;;NY;;0;1;;;;;;;;;GS1 US;US
0036179000923;Professional Whitening System 2 piece large kit;;;;;;http://product.okfn.org.s3.amazonaws.com/images/gtin/gtin-003/0036179000923.jpg;;;;;;;;;;0036179;0036179000008;Robell Research Inc.;US;New York;10022;635 Madison Avenue;;NY;;0;1;;;;;;;;;GS1 US;US
0036192114232;Organic Sparkling Beverage Ginger Ale Cans;Food - Beverage - Tobacco;50000000;;;;http://product.okfn.org.s3.amazonaws.com/images/gtin/gtin-003/0036192114232.jpg;3S2DN7;Santa Cruz;http://product.okfn.org.s3.amazonaws.com/images/brand/3S2DN7.jpg;http://www.santacruzorganic.com;;;;;;0036192;0036192000009;Santa Cruz Natural;US;Orrville;44667-0280;C-o THE J.M. SMUCKER COMPANY;One Strawberry Lane;OH;;0;1;;;;10.5;;;;;GS1 US;US
0036192114263;Organic Sparkling Beverage Pomegranate Limeade Cans;Food - Beverage - Tobacco;50000000;;;;http://product.okfn.org.s3.amazonaws.com/images/gtin/gtin-003/0036192114263.jpg;3S2DN7;Santa Cruz;http://product.okfn.org.s3.amazonaws.com/images/brand/3S2DN7.jpg;http://www.santacruzorganic.com;;;;;;0036192;0036192000009;Santa Cruz Natural;US;Orrville;44667-0280;C-o THE J.M. SMUCKER COMPANY;One Strawberry Lane;OH;;0;1;;;;10.5;;;;;GS1 US;US
0036192120776;Chocolate Flavored Syrup;Food - Beverage - Tobacco;50000000;;;;http://product.okfn.org.s3.amazonaws.com/images/gtin/gtin-003/0036192120776.jpg;3S2DN7;Santa Cruz;http://product.okfn.org.s3.amazonaws.com/images/brand/3S2DN7.jpg;http://www.santacruzorganic.com;;;;;;0036192;0036192000009;Santa Cruz Natural;US;Orrville;44667-0280;C-o THE J.M. SMUCKER COMPANY;One Strawberry Lane;OH;;0;1;;;;15.5;;;;;GS1 US;US
0036192121438;Sparkling Tangerine;Food - Beverage - Tobacco;50000000;;;;http://product.okfn.org.s3.amazonaws.com/images/gtin/gtin-003/0036192121438.jpg;3S2DN7;Santa Cruz;http://product.okfn.org.s3.amazonaws.com/images/brand/3S2DN7.jpg;http://www.santacruzorganic.com;;;;;;0036192;0036192000009;Santa Cruz Natural;US;Orrville;44667-0280;C-o THE J.M. SMUCKER COMPANY;One Strawberry Lane;OH;;0;1;;;;;750.0;;;;GS1 US;US
0036192122190;Tropical Fruit Sauce;Food - Beverage - Tobacco;50000000;;;;http://product.okfn.org.s3.amazonaws.com/images/gtin/gtin-003/0036192122190.jpg;3S2DN7;Santa Cruz;http://product.okfn.org.s3.amazonaws.com/images/brand/3S2DN7.jpg;http://www.santacruzorganic.com;;;;;;0036192;0036192000009;Santa Cruz Natural;US;Orrville;44667-0280;C-o THE J.M. SMUCKER COMPANY;One Strawberry Lane;OH;;0;1;;;;24.0;;;;;GS1 US;US
0036192122268;Organic Peach Lemonade;Food - Beverage - Tobacco;50000000;;;;http://product.okfn.org.s3.amazonaws.com/images/gtin/gtin-003/0036192122268.jpg;3S2DN7;Santa Cruz;http://product.okfn.org.s3.amazonaws.com/images/brand/3S2DN7.jpg;http://www.santacruzorganic.com;;;;;;0036192;0036192000009;Santa Cruz Natural;US;Orrville;44667-0280;C-o THE J.M. SMUCKER COMPANY;One Strawberry Lane;OH;;0;1;;;;;946.0;32.0;;;GS1 US;US
0036192122459;Juice Organic Lemonade;Food - Beverage - Tobacco;50000000;;;;http://product.okfn.org.s3.amazonaws.com/images/gtin/gtin-003/0036192122459.jpg;3S2DN7;Santa Cruz;http://product.okfn.org.s3.amazonaws.com/images/brand/3S2DN7.jpg;http://www.santacruzorganic.com;;;;;;0036192;0036192000009;Santa Cruz Natural;US;Orrville;44667-0280;C-o THE J.M. SMUCKER COMPANY;One Strawberry Lane;OH;;0;1;;;;;;32.0;;;GS1 US;US
0036192122732;Iced Tea Organic Mango 32;Food - Beverage - Tobacco;50000000;;;;http://product.okfn.org.s3.amazonaws.com/images/gtin/gtin-003/0036192122732.jpg;3S2DN7;Santa Cruz;http://product.okfn.org.s3.amazonaws.com/images/brand/3S2DN7.jpg;http://www.santacruzorganic.com;;;;;;0036192;0036192000009;Santa Cruz Natural;US;Orrville;44667-0280;C-o THE J.M. SMUCKER COMPANY;One Strawberry Lane;OH;;0;1;;;;;;;;;GS1 US;US
0036192122817;Apple Juice Organic;Food - Beverage - Tobacco;50000000;;;;http://product.okfn.org.s3.amazonaws.com/images/gtin/gtin-003/0036192122817.jpg;3S2DN7;Santa Cruz;http://product.okfn.org.s3.amazonaws.com/images/brand/3S2DN7.jpg;http://www.santacruzorganic.com;;;;;;0036192;0036192000009;Santa Cruz Natural;US;Orrville;44667-0280;C-o THE J.M. SMUCKER COMPANY;One Strawberry Lane;OH;;0;1;;;;;;128.0;;;GS1 US;US
0036192123012;Apple Blueberry Sauce;Food - Beverage - Tobacco;50000000;;;;http://product.okfn.org.s3.amazonaws.com/images/gtin/gtin-003/0036192123012.jpg;3S2DN7;Santa Cruz;http://product.okfn.org.s3.amazonaws.com/images/brand/3S2DN7.jpg;http://www.santacruzorganic.com;;;;;;0036192;0036192000009;Santa Cruz Natural;US;Orrville;44667-0280;C-o THE J.M. SMUCKER COMPANY;One Strawberry Lane;OH;;0;1;;;652.0;23.0;;;;;GS1 US;US
0036192126235;Juice Drink Boxes Tropical Each Pack Of;Food - Beverage - Tobacco;50000000;;;;http://product.okfn.org.s3.amazonaws.com/images/gtin/gtin-003/0036192126235.jpg;3S2DN7;Santa Cruz;http://product.okfn.org.s3.amazonaws.com/images/brand/3S2DN7.jpg;http://www.santacruzorganic.com;;;;;;0036192;0036192000009;Santa Cruz Natural;US;Orrville;44667-0280;C-o THE J.M. SMUCKER COMPANY;One Strawberry Lane;OH;;0;1;;;;;;8.0;;;GS1 US;US
0036200000502;Pasta Sauce Old World Style;Food - Beverage - Tobacco;50000000;;;;http://product.okfn.org.s3.amazonaws.com/images/gtin/gtin-003/0036200000502.jpg;QEL52R;Ragù;http://product.okfn.org.s3.amazonaws.com/images/brand/QEL52R.jpg;http://www.ragu.com;;;;;;0036200;0041000000003;Lipton;US;Lisle;60532;2200 Cabot Drive, Suite 200;;IL;;0;1;;;;14.0;;;;;GS1 US;US
0036200002803;Robusto! 7 Herb Tomato;Food - Beverage - Tobacco;50000000;;;;http://product.okfn.org.s3.amazonaws.com/images/gtin/gtin-003/0036200002803.jpg;QEL52R;Ragù;http://product.okfn.org.s3.amazonaws.com/images/brand/QEL52R.jpg;http://www.ragu.com;;;;;;0036200;0041000000003;Lipton;US;Lisle;60532;2200 Cabot Drive, Suite 200;;IL;;0;1;;;;;;;;;GS1 US;US
0036200003008;Smooth Flavored Pasta Sauce With Meat;Food - Beverage - Tobacco;50000000;;;;http://product.okfn.org.s3.amazonaws.com/images/gtin/gtin-003/0036200003008.jpg;QEL52R;Ragù;http://product.okfn.org.s3.amazonaws.com/images/brand/QEL52R.jpg;http://www.ragu.com;;;;;;0036200;0041000000003;Lipton;US;Lisle;60532;2200 Cabot Drive, Suite 200;;IL;;0;1;;;;26.0;;;;;GS1 US;US
0036200004418;Pasta Sauce;Food - Beverage - Tobacco;50000000;;;;http://product.okfn.org.s3.amazonaws.com/images/gtin/gtin-003/0036200004418.jpg;QEL52R;Ragù;http://product.okfn.org.s3.amazonaws.com/images/brand/QEL52R.jpg;http://www.ragu.com;;;;;;0036200;0041000000003;Lipton;US;Lisle;60532;2200 Cabot Drive, Suite 200;;IL;;0;1;;;;26.0;;;;;GS1 US;US
0036200004432;Pasta Sauce;Food - Beverage - Tobacco;50000000;;;;http://product.okfn.org.s3.amazonaws.com/images/gtin/gtin-003/0036200004432.jpg;QEL52R;Ragù;http://product.okfn.org.s3.amazonaws.com/images/brand/QEL52R.jpg;http://www.ragu.com;;;;;;0036200;0041000000003;Lipton;US;Lisle;60532;2200 Cabot Drive, Suite 200;;IL;;0;1;;;737.0;26.0;;;;;GS1 US;US
0036200004739;Marinara Sauce;Food - Beverage - Tobacco;50000000;;;;http://product.okfn.org.s3.amazonaws.com/images/gtin/gtin-003/0036200004739.jpg;8E39AN;Bertolli;http://product.okfn.org.s3.amazonaws.com/images/brand/8E39AN.jpg;http://www.bertolli.com;Unilever;000002;http://www.unilever.com;http://en.wikipedia.org/wiki/Unilever;http://product.okfn.org.s3.amazonaws.com/images/group/000002.jpg;0036200;0041000000003;Lipton;US;Lisle;60532;2200 Cabot Drive, Suite 200;;IL;;0;1;;;737.0;26.0;;;;;GS1 US;US
0036200004746;Pasta Sauce;Food - Beverage - Tobacco;50000000;;;;http://product.okfn.org.s3.amazonaws.com/images/gtin/gtin-003/0036200004746.jpg;8E39AN;Bertolli;http://product.okfn.org.s3.amazonaws.com/images/brand/8E39AN.jpg;http://www.bertolli.com;Unilever;000002;http://www.unilever.com;http://en.wikipedia.org/wiki/Unilever;http://product.okfn.org.s3.amazonaws.com/images/group/000002.jpg;0036200;0041000000003;Lipton;US;Lisle;60532;2200 Cabot Drive, Suite 200;;IL;;0;1;;;454.0;16.0;;;;;GS1 US;US
0036200004890;Pasta Sauce Classic Italian Meat;Food - Beverage - Tobacco;50000000;;;;http://product.okfn.org.s3.amazonaws.com/images/gtin/gtin-003/0036200004890.jpg;QEL52R;Ragù;http://product.okfn.org.s3.amazonaws.com/images/brand/QEL52R.jpg;http://www.ragu.com;;;;;;0036200;0041000000003;Lipton;US;Lisle;60532;2200 Cabot Drive, Suite 200;;IL;;0;1;;;737.0;26.0;;;;;GS1 US;US
0036200004913;Pasta Sauce Flavored With Italian Sausage Romano & Garlic;;;;;;http://product.okfn.org.s3.amazonaws.com/images/gtin/gtin-003/0036200004913.jpg;;;;;;;;;;0036200;0041000000003;Lipton;US;Lisle;60532;2200 Cabot Drive, Suite 200;;IL;;0;1;;;737.0;26.0;;;;;GS1 US;US
0036200004920;Pasta Sauce Creamy Garlic Alfredo;;;;;;http://product.okfn.org.s3.amazonaws.com/images/gtin/gtin-003/0036200004920.jpg;;;;;;;;;;0036200;0041000000003;Lipton;US;Lisle;60532;2200 Cabot Drive, Suite 200;;IL;;0;1;;;453.0;16.0;;;;;GS1 US;US
0036200005507;Pizza Sauce Homemade Style;Food - Beverage - Tobacco;50000000;;;;http://product.okfn.org.s3.amazonaws.com/images/gtin/gtin-003/0036200005507.jpg;QEL52R;Ragù;http://product.okfn.org.s3.amazonaws.com/images/brand/QEL52R.jpg;http://www.ragu.com;;;;;;0036200;0041000000003;Lipton;US;Lisle;60532;2200 Cabot Drive, Suite 200;;IL;;0;1;;;;14.0;;;;;GS1 US;US
0036200005804;Pizza Quick Traditional Sauce;Food - Beverage - Tobacco;50000000;;;;http://product.okfn.org.s3.amazonaws.com/images/gtin/gtin-003/0036200005804.jpg;QEL52R;Ragù;http://product.okfn.org.s3.amazonaws.com/images/brand/QEL52R.jpg;http://www.ragu.com;;;;;;0036200;0041000000003;Lipton;US;Lisle;60532;2200 Cabot Drive, Suite 200;;IL;;0;1;;;;14.0;;;;;GS1 US;US
0036200007068;Ravioli;Food - Beverage - Tobacco;50000000;;;;http://product.okfn.org.s3.amazonaws.com/images/gtin/gtin-003/0036200007068.jpg;8E39AN;Bertolli;http://product.okfn.org.s3.amazonaws.com/images/brand/8E39AN.jpg;http://www.bertolli.com;Unilever;000002;http://www.unilever.com;http://en.wikipedia.org/wiki/Unilever;http://product.okfn.org.s3.amazonaws.com/images/group/000002.jpg;0036200;0041000000003;Lipton;US;Lisle;60532;2200 Cabot Drive, Suite 200;;IL;;0;1;;;680.0;24.0;;;;;GS1 US;US
0036200018798;Traditional Basil Pesto With Extra Virgin Olive Oil;Food - Beverage - Tobacco;50000000;;;;http://product.okfn.org.s3.amazonaws.com/images/gtin/gtin-003/0036200018798.jpg;8E39AN;Bertolli;http://product.okfn.org.s3.amazonaws.com/images/brand/8E39AN.jpg;http://www.bertolli.com;Unilever;000002;http://www.unilever.com;http://en.wikipedia.org/wiki/Unilever;http://product.okfn.org.s3.amazonaws.com/images/group/000002.jpg;0036200;0041000000003;Lipton;US;Lisle;60532;2200 Cabot Drive, Suite 200;;IL;;0;1;;;226.0;8.0;;;;;GS1 US;US
0036200024171;Pasta Sauce;Food - Beverage - Tobacco;50000000;;;;http://product.okfn.org.s3.amazonaws.com/images/gtin/gtin-003/0036200024171.jpg;8E39AN;Bertolli;http://product.okfn.org.s3.amazonaws.com/images/brand/8E39AN.jpg;http://www.bertolli.com;Unilever;000002;http://www.unilever.com;http://en.wikipedia.org/wiki/Unilever;http://product.okfn.org.s3.amazonaws.com/images/group/000002.jpg;0036200;0041000000003;Lipton;US;Lisle;60532;2200 Cabot Drive, Suite 200;;IL;;0;1;;;;13.5;;;;;GS1 US;US
0036200024911;Lemon Herb Shrimp & Penne;Food - Beverage - Tobacco;50000000;;;;http://product.okfn.org.s3.amazonaws.com/images/gtin/gtin-003/0036200024911.jpg;8E39AN;Bertolli;http://product.okfn.org.s3.amazonaws.com/images/brand/8E39AN.jpg;http://www.bertolli.com;Unilever;000002;http://www.unilever.com;http://en.wikipedia.org/wiki/Unilever;http://product.okfn.org.s3.amazonaws.com/images/group/000002.jpg;0036200;0041000000003;Lipton;US;Lisle;60532;2200 Cabot Drive, Suite 200;;IL;;0;1;;;680.0;24.0;;;;;GS1 US;US
0036200038024;Pasta Sauce;Food - Beverage - Tobacco;50000000;;;;http://product.okfn.org.s3.amazonaws.com/images/gtin/gtin-003/0036200038024.jpg;QEL52R;Ragù;http://product.okfn.org.s3.amazonaws.com/images/brand/QEL52R.jpg;http://www.ragu.com;;;;;;0036200;0041000000003;Lipton;US;Lisle;60532;2200 Cabot Drive, Suite 200;;IL;;0;1;;;737.0;26.0;;;;;GS1 US;US
0036200057001;Chicken Alfredo & Fettuccine;Food - Beverage - Tobacco;50000000;;;;http://product.okfn.org.s3.amazonaws.com/images/gtin/gtin-003/0036200057001.jpg;8E39AN;Bertolli;http://product.okfn.org.s3.amazonaws.com/images/brand/8E39AN.jpg;http://www.bertolli.com;Unilever;000002;http://www.unilever.com;http://en.wikipedia.org/wiki/Unilever;http://product.okfn.org.s3.amazonaws.com/images/group/000002.jpg;0036200;0041000000003;Lipton;US;Lisle;60532;2200 Cabot Drive, Suite 200;;IL;;0;1;;;680.0;24.0;;;;;GS1 US;US
0036200057025;Shrimp Scampi & Linguine;Food - Beverage - Tobacco;50000000;;;;http://product.okfn.org.s3.amazonaws.com/images/gtin/gtin-003/0036200057025.jpg;8E39AN;Bertolli;http://product.okfn.org.s3.amazonaws.com/images/brand/8E39AN.jpg;http://www.bertolli.com;Unilever;000002;http://www.unilever.com;http://en.wikipedia.org/wiki/Unilever;http://product.okfn.org.s3.amazonaws.com/images/group/000002.jpg;0036200;0041000000003;Lipton;US;Lisle;60532;2200 Cabot Drive, Suite 200;;IL;;0;1;;;;24.0;;;;;GS1 US;US
0036200057148;Complete Skillet Meal For Two Chicken Florentine & Farfalle;Food - Beverage - Tobacco;50000000;;;;http://product.okfn.org.s3.amazonaws.com/images/gtin/gtin-003/0036200057148.jpg;8E39AN;Bertolli;http://product.okfn.org.s3.amazonaws.com/images/brand/8E39AN.jpg;http://www.bertolli.com;Unilever;000002;http://www.unilever.com;http://en.wikipedia.org/wiki/Unilever;http://product.okfn.org.s3.amazonaws.com/images/group/000002.jpg;0036200;0041000000003;Lipton;US;Lisle;60532;2200 Cabot Drive, Suite 200;;IL;;0;1;;;;24.0;;;;;GS1 US;US
0036200061343;Roasted Chicken Cannelloni;Food - Beverage - Tobacco;50000000;;;;http://product.okfn.org.s3.amazonaws.com/images/gtin/gtin-003/0036200061343.jpg;8E39AN;Bertolli;http://product.okfn.org.s3.amazonaws.com/images/brand/8E39AN.jpg;http://www.bertolli.com;Unilever;000002;http://www.unilever.com;http://en.wikipedia.org/wiki/Unilever;http://product.okfn.org.s3.amazonaws.com/images/group/000002.jpg;0036200;0041000000003;Lipton;US;Lisle;60532;2200 Cabot Drive, Suite 200;;IL;;0;1;;;595.0;21.0;;;;;GS1 US;US
0036200064061;Chili Seasoning Mix;Food - Beverage - Tobacco;50000000;;;;http://product.okfn.org.s3.amazonaws.com/images/gtin/gtin-003/0036200064061.jpg;T7US48;Lawrys;http://product.okfn.org.s3.amazonaws.com/images/brand/T7US48.jpg;http://www.lawrys.com;;;;;;0036200;0041000000003;Lipton;US;Lisle;60532;2200 Cabot Drive, Suite 200;;IL;;0;1;;;;1.3;;;;;GS1 US;US
0036200078051;Sweet And Sour Chicken;;;;;;http://product.okfn.org.s3.amazonaws.com/images/gtin/gtin-003/0036200078051.jpg;;;;;;;;;;0036200;0041000000003;Lipton;US;Lisle;60532;2200 Cabot Drive, Suite 200;;IL;;0;1;;;623.0;22.0;;;;;GS1 US;US
0036200078075;Orange Chicken;;;;;;http://product.okfn.org.s3.amazonaws.com/images/gtin/gtin-003/0036200078075.jpg;;;;;;;;;;0036200;0041000000003;Lipton;US;Lisle;60532;2200 Cabot Drive, Suite 200;;IL;;0;1;;;623.0;22.0;;;;;GS1 US;US
0036200083550;Tuscan-style Braised Beef With Gold Potatoes;Food - Beverage - Tobacco;50000000;;;;http://product.okfn.org.s3.amazonaws.com/images/gtin/gtin-003/0036200083550.jpg;8E39AN;Bertolli;http://product.okfn.org.s3.amazonaws.com/images/brand/8E39AN.jpg;http://www.bertolli.com;Unilever;000002;http://www.unilever.com;http://en.wikipedia.org/wiki/Unilever;http://product.okfn.org.s3.amazonaws.com/images/group/000002.jpg;0036200;0041000000003;Lipton;US;Lisle;60532;2200 Cabot Drive, Suite 200;;IL;;0;1;;;;24.0;;;;;GS1 US;US
0036200154960;Meal Starters Chicken Margherita;;;;;;http://product.okfn.org.s3.amazonaws.com/images/gtin/gtin-003/0036200154960.jpg;;;;;;;;;;0036200;0041000000003;Lipton;US;Lisle;60532;2200 Cabot Drive, Suite 200;;IL;;0;1;;;737.0;26.0;;;;;GS1 US;US
0036200211106;Skillet Meal For 2 Chicken Alla Vodka & Farfalle;Food - Beverage - Tobacco;50000000;;;;http://product.okfn.org.s3.amazonaws.com/images/gtin/gtin-003/0036200211106.jpg;8E39AN;Bertolli;http://product.okfn.org.s3.amazonaws.com/images/brand/8E39AN.jpg;http://www.bertolli.com;Unilever;000002;http://www.unilever.com;http://en.wikipedia.org/wiki/Unilever;http://product.okfn.org.s3.amazonaws.com/images/group/000002.jpg;0036200;0041000000003;Lipton;US;Lisle;60532;2200 Cabot Drive, Suite 200;;IL;;0;1;;;;24.0;;;;;GS1 US;US
0036200212158;Home Menu Pork & Leek Dumplings;;;;;;http://product.okfn.org.s3.amazonaws.com/images/gtin/gtin-003/0036200212158.jpg;;;;;;;;;;0036200;0041000000003;Lipton;US;Lisle;60532;2200 Cabot Drive, Suite 200;;IL;;0;1;;;;12.5;;;;;GS1 US;US
0036200219171;Sauce Mushroom And Roasted Garlic;Food - Beverage - Tobacco;50000000;;;;http://product.okfn.org.s3.amazonaws.com/images/gtin/gtin-003/0036200219171.jpg;8E39AN;Bertolli;http://product.okfn.org.s3.amazonaws.com/images/brand/8E39AN.jpg;http://www.bertolli.com;Unilever;000002;http://www.unilever.com;http://en.wikipedia.org/wiki/Unilever;http://product.okfn.org.s3.amazonaws.com/images/group/000002.jpg;0036200;0041000000003;Lipton;US;Lisle;60532;2200 Cabot Drive, Suite 200;;IL;;0;1;;;680.0;24.0;;;;;GS1 US;US
0036200219188;Sauce Mediterranean Olive With Sundried Tomatoes;Food - Beverage - Tobacco;50000000;;;;http://product.okfn.org.s3.amazonaws.com/images/gtin/gtin-003/0036200219188.jpg;8E39AN;Bertolli;http://product.okfn.org.s3.amazonaws.com/images/brand/8E39AN.jpg;http://www.bertolli.com;Unilever;000002;http://www.unilever.com;http://en.wikipedia.org/wiki/Unilever;http://product.okfn.org.s3.amazonaws.com/images/group/000002.jpg;0036200;0041000000003;Lipton;US;Lisle;60532;2200 Cabot Drive, Suite 200;;IL;;0;1;;;680.0;24.0;;;;;GS1 US;US
0036200219201;Sauce Flavored With Italian Sausage Garlic & Romano;Food - Beverage - Tobacco;50000000;;;;http://product.okfn.org.s3.amazonaws.com/images/gtin/gtin-003/0036200219201.jpg;8E39AN;Bertolli;http://product.okfn.org.s3.amazonaws.com/images/brand/8E39AN.jpg;http://www.bertolli.com;Unilever;000002;http://www.unilever.com;http://en.wikipedia.org/wiki/Unilever;http://product.okfn.org.s3.amazonaws.com/images/group/000002.jpg;0036200;0041000000003;Lipton;US;Lisle;60532;2200 Cabot Drive, Suite 200;;IL;;0;1;;;;;;;;;GS1 US;US
0036200219317;Sauce Tomato & Basil;Food - Beverage - Tobacco;50000000;;;;http://product.okfn.org.s3.amazonaws.com/images/gtin/gtin-003/0036200219317.jpg;8E39AN;Bertolli;http://product.okfn.org.s3.amazonaws.com/images/brand/8E39AN.jpg;http://www.bertolli.com;Unilever;000002;http://www.unilever.com;http://en.wikipedia.org/wiki/Unilever;http://product.okfn.org.s3.amazonaws.com/images/group/000002.jpg;0036200;0041000000003;Lipton;US;Lisle;60532;2200 Cabot Drive, Suite 200;;IL;;0;1;;;;24.0;;;;;GS1 US;US
0036200219324;Vineyard Premium Collections Sauce;Food - Beverage - Tobacco;50000000;;;;http://product.okfn.org.s3.amazonaws.com/images/gtin/gtin-003/0036200219324.jpg;8E39AN;Bertolli;http://product.okfn.org.s3.amazonaws.com/images/brand/8E39AN.jpg;http://www.bertolli.com;Unilever;000002;http://www.unilever.com;http://en.wikipedia.org/wiki/Unilever;http://product.okfn.org.s3.amazonaws.com/images/group/000002.jpg;0036200;0041000000003;Lipton;US;Lisle;60532;2200 Cabot Drive, Suite 200;;IL;;0;1;;;;24.0;;;;;GS1 US;US
0036200219331;Sauce Olive Oil & Garlic;Food - Beverage - Tobacco;50000000;;;;http://product.okfn.org.s3.amazonaws.com/images/gtin/gtin-003/0036200219331.jpg;8E39AN;Bertolli;http://product.okfn.org.s3.amazonaws.com/images/brand/8E39AN.jpg;http://www.bertolli.com;Unilever;000002;http://www.unilever.com;http://en.wikipedia.org/wiki/Unilever;http://product.okfn.org.s3.amazonaws.com/images/group/000002.jpg;0036200;0041000000003;Lipton;US;Lisle;60532;2200 Cabot Drive, Suite 200;;IL;;0;1;;;;24.0;;;;;GS1 US;US
0036200219348;Sauce Vodka;Food - Beverage - Tobacco;50000000;;;;http://product.okfn.org.s3.amazonaws.com/images/gtin/gtin-003/0036200219348.jpg;8E39AN;Bertolli;http://product.okfn.org.s3.amazonaws.com/images/brand/8E39AN.jpg;http://www.bertolli.com;Unilever;000002;http://www.unilever.com;http://en.wikipedia.org/wiki/Unilever;http://product.okfn.org.s3.amazonaws.com/images/group/000002.jpg;0036200;0041000000003;Lipton;US;Lisle;60532;2200 Cabot Drive, Suite 200;;IL;;0;1;;;;24.0;;;;;GS1 US;US
0036200230428;Pasta Sauce;Food - Beverage - Tobacco;50000000;;;;http://product.okfn.org.s3.amazonaws.com/images/gtin/gtin-003/0036200230428.jpg;QEL52R;Ragù;http://product.okfn.org.s3.amazonaws.com/images/brand/QEL52R.jpg;http://www.ragu.com;;;;;;0036200;0041000000003;Lipton;US;Lisle;60532;2200 Cabot Drive, Suite 200;;IL;;0;1;;;383.0;13.5;;;;;GS1 US;US
0036200256916;Garlic Shrimp Penne & Cherry Tomatoes;Food - Beverage - Tobacco;50000000;;;;http://product.okfn.org.s3.amazonaws.com/images/gtin/gtin-003/0036200256916.jpg;8E39AN;Bertolli;http://product.okfn.org.s3.amazonaws.com/images/brand/8E39AN.jpg;http://www.bertolli.com;Unilever;000002;http://www.unilever.com;http://en.wikipedia.org/wiki/Unilever;http://product.okfn.org.s3.amazonaws.com/images/group/000002.jpg;0036200;0041000000003;Lipton;US;Lisle;60532;2200 Cabot Drive, Suite 200;;IL;;0;1;;;;24.0;;;;;GS1 US;US
0036200256930;Chicken Rigatoni & Broccoli;Food - Beverage - Tobacco;50000000;;;;http://product.okfn.org.s3.amazonaws.com/images/gtin/gtin-003/0036200256930.jpg;8E39AN;Bertolli;http://product.okfn.org.s3.amazonaws.com/images/brand/8E39AN.jpg;http://www.bertolli.com;Unilever;000002;http://www.unilever.com;http://en.wikipedia.org/wiki/Unilever;http://product.okfn.org.s3.amazonaws.com/images/group/000002.jpg;0036200;0041000000003;Lipton;US;Lisle;60532;2200 Cabot Drive, Suite 200;;IL;;0;1;;;680.0;24.0;;;;;GS1 US;US
0036217070291;Quiche Spinach;;;;;;http://product.okfn.org.s3.amazonaws.com/images/gtin/gtin-003/0036217070291.jpg;;;;;;;;;;0036217;0036217000007;Hans Kissle Co., Inc.;US;Haverhill;01830;9 Creek Brook Drive;;MA;;0;1;;;340.0;12.0;;;;;GS1 US;US
0036217070369;Broccoli Quiche 24;;;;;;http://product.okfn.org.s3.amazonaws.com/images/gtin/gtin-003/0036217070369.jpg;;;;;;;;;;0036217;0036217000007;Hans Kissle Co., Inc.;US;Haverhill;01830;9 Creek Brook Drive;;MA;;0;1;;;;;;;;;GS1 US;US
0036232091509;Pecans Raw Medium Pieces Package Pack 30 lb;;;;;;http://product.okfn.org.s3.amazonaws.com/images/gtin/gtin-003/0036232091509.jpg;;;;;;;;;;0036232;0036232000006;Hickory Harvest Foods;US;Akron;44312-4724;900  Killian Road;;OH;;0;1;;;;;;;;;GS1 US;US
0036232095200;Corn Nuts Package Pack 25 lb;;;;;;http://product.okfn.org.s3.amazonaws.com/images/gtin/gtin-003/0036232095200.jpg;;;;;;;;;;0036232;0036232000006;Hickory Harvest Foods;US;Akron;44312-4724;900  Killian Road;;OH;;0;1;;;;;;;;;GS1 US;US
0036239052114;Litter Box Wipes 40 wipes;;;;;;http://product.okfn.org.s3.amazonaws.com/images/gtin/gtin-003/0036239052114.jpg;;;;;;;;;;0036239;0036239000009;Petkin Inc.;US;Marina Del Rey;90292;4052 Del Rey Ave Ste 105;;CA;;0;1;;;;;;;;;GS1 US;US
0036239052121;Kitty Ear Wipes 40 wipes;;;;;;http://product.okfn.org.s3.amazonaws.com/images/gtin/gtin-003/0036239052121.jpg;;;;;;;;;;0036239;0036239000009;Petkin Inc.;US;Marina Del Rey;90292;4052 Del Rey Ave Ste 105;;CA;;0;1;;;;;;;;;GS1 US;US
0036239053173;Tooth Wipes 40 wipes;;;;;;http://product.okfn.org.s3.amazonaws.com/images/gtin/gtin-003/0036239053173.jpg;;;;;;;;;;0036239;0036239000009;Petkin Inc.;US;Marina Del Rey;90292;4052 Del Rey Ave Ste 105;;CA;;0;1;;;;;;;;;GS1 US;US
0036239053180;Ear Wipes 30 wipes;;;;;;http://product.okfn.org.s3.amazonaws.com/images/gtin/gtin-003/0036239053180.jpg;;;;;;;;;;0036239;0036239000009;Petkin Inc.;US;Marina Del Rey;90292;4052 Del Rey Ave Ste 105;;CA;;0;1;;;;;;;;;GS1 US;US
0036239053272;Cage & Kennel Cleaner 40 wipes;;;;;;http://product.okfn.org.s3.amazonaws.com/images/gtin/gtin-003/0036239053272.jpg;;;;;;;;;;0036239;0036239000009;Petkin Inc.;US;Marina Del Rey;90292;4052 Del Rey Ave Ste 105;;CA;;0;1;;;;;;;;;GS1 US;US
0036239053630;Spa Shampoo;;;;;;http://product.okfn.org.s3.amazonaws.com/images/gtin/gtin-003/0036239053630.jpg;;;;;;;;;;0036239;0036239000009;Petkin Inc.;US;Marina Del Rey;90292;4052 Del Rey Ave Ste 105;;CA;;0;1;;;;;250.0;8.4;;;GS1 US;US
0036239053654;Waterless Spa Shampoo;;;;;;http://product.okfn.org.s3.amazonaws.com/images/gtin/gtin-003/0036239053654.jpg;;;;;;;;;;0036239;0036239000009;Petkin Inc.;US;Marina Del Rey;90292;4052 Del Rey Ave Ste 105;;CA;;0;1;;;;;250.0;8.4;;;GS1 US;US
0036239053661;Waterless Spa Shampoo;;;;;;http://product.okfn.org.s3.amazonaws.com/images/gtin/gtin-003/0036239053661.jpg;;;;;;;;;;0036239;0036239000009;Petkin Inc.;US;Marina Del Rey;90292;4052 Del Rey Ave Ste 105;;CA;;0;1;;;;;250.0;8.4;;;GS1 US;US
0036239053678;Waterless Spa Shampoo;;;;;;http://product.okfn.org.s3.amazonaws.com/images/gtin/gtin-003/0036239053678.jpg;;;;;;;;;;0036239;0036239000009;Petkin Inc.;US;Marina Del Rey;90292;4052 Del Rey Ave Ste 105;;CA;;0;1;;;;;250.0;8.4;;;GS1 US;US
0036239061048;Diaper Rash Spray;;;;;;http://product.okfn.org.s3.amazonaws.com/images/gtin/gtin-003/0036239061048.jpg;;;;;;;;;;0036239;0036239000009;Petkin Inc.;US;Marina Del Rey;90292;4052 Del Rey Ave Ste 105;;CA;;0;1;;;;;73.0;2.5;;;GS1 US;US
0036241046859;Professional Brand Ii Disinfectant Basin Tub & Tile Cleaner;Beauty - Personal Care - Hygiene;53000000;;;;http://product.okfn.org.s3.amazonaws.com/images/gtin/gtin-003/0036241046859.jpg;62BMLN;Lysol;http://product.okfn.org.s3.amazonaws.com/images/brand/62BMLN.jpg;http://www.lysol.com;;;;;;0036241;0319200000001;Reckitt Benckiser, Inc.;US;Parsippany;07054-0225;399 Interpace Parkway;;NJ;;0;1;;;;;946.0;32.0;;;GS1 US;US
0036241742973;Triple Action Floor Cleaner Bottles 6 Carton;;;;;;http://product.okfn.org.s3.amazonaws.com/images/gtin/gtin-003/0036241742973.jpg;;;;;;;;;;0036241;0319200000001;Reckitt Benckiser, Inc.;US;Parsippany;07054-0225;399 Interpace Parkway;;NJ;;0;1;;;;64.0;;;;;GS1 US;US
0036241743895;Professional No Rinse Sanitizer Concentrate;Beauty - Personal Care - Hygiene;53000000;;;;http://product.okfn.org.s3.amazonaws.com/images/gtin/gtin-003/0036241743895.jpg;62BMLN;Lysol;http://product.okfn.org.s3.amazonaws.com/images/brand/62BMLN.jpg;http://www.lysol.com;;;;;;0036241;0319200000001;Reckitt Benckiser, Inc.;US;Parsippany;07054-0225;399 Interpace Parkway;;NJ;;0;1;;;;;;128.0;;;GS1 US;US
0036241749835;Professional Quaternary Disinfectant Cleaner Concentrate;Beauty - Personal Care - Hygiene;53000000;;;;http://product.okfn.org.s3.amazonaws.com/images/gtin/gtin-003/0036241749835.jpg;62BMLN;Lysol;http://product.okfn.org.s3.amazonaws.com/images/brand/62BMLN.jpg;http://www.lysol.com;;;;;;0036241;0319200000001;Reckitt Benckiser, Inc.;US;Parsippany;07054-0225;399 Interpace Parkway;;NJ;;0;1;;;;;;128.0;;;GS1 US;US
0036241751166;Professional Easy Off Glass Cleaner Concentrate;;;;;;http://product.okfn.org.s3.amazonaws.com/images/gtin/gtin-003/0036241751166.jpg;;;;;;;;;;0036241;0319200000001;Reckitt Benckiser, Inc.;US;Parsippany;07054-0225;399 Interpace Parkway;;NJ;;0;1;;;;;;;;;GS1 US;US
0036269920025;Ultrasonic Dog Deterrent And Training Device;;;;;;http://product.okfn.org.s3.amazonaws.com/images/gtin/gtin-003/0036269920025.jpg;;;;;;;;;;0036269;0036269000000;K-Ii Enterprises;US;Camillus;13031;PO Box 306;;NY;;0;1;;;;;;;;;GS1 US;US
0036276442107;Candy & Jewelry Toys;Food - Beverage - Tobacco;50000000;;;;http://product.okfn.org.s3.amazonaws.com/images/gtin/gtin-003/0036276442107.jpg;6K6A8I;SilverPeak;http://product.okfn.org.s3.amazonaws.com/images/brand/6K6A8I.jpg;;;;;;;0036276;0036276000000;Tyll Industries, Ltd.;US;Mt. Clemens;48043;c/o 39649 Moravian;;MI;;0;1;;;28.35;1.5;;;;;GS1 US;US
0036339585055;Karcher K55 4.8V Cordless Electric Broom;;;;;;http://product.okfn.org.s3.amazonaws.com/images/gtin/gtin-003/0036339585055.jpg;;;;;;;;;;0036339;0036339000008;Karcher North America Inc.;US;Englewood;80121;750 W Hampden Ave Ste 400;;CO;;0;1;;;;;;;;;GS1 US;US
0036341795053;Hollywood For Men Eau De Toilette Spray;;;;;;http://product.okfn.org.s3.amazonaws.com/images/gtin/gtin-003/0036341795053.jpg;;;;;;;;;;0036341;0036341000003;Beach Haven Food Inc.;US;Philadelphia;19128;5830 Henry Avenue;;PA;;0;1;;;;;50.0;;;;GS1 US;US
0036348031420;Critter Ridder Animal Repellent 2.2 lb;;;;;;http://product.okfn.org.s3.amazonaws.com/images/gtin/gtin-003/0036348031420.jpg;;;;;;;;;;0036348;0072868000010;Woodstream Corporation;US;Lititz;17543;69 N Locust St;;PA;;0;1;;;;;;;;;GS1 US;US
0036348052500;Coropration 5250 Havahart Electronic Repellent Fr Deer;;;;;;http://product.okfn.org.s3.amazonaws.com/images/gtin/gtin-003/0036348052500.jpg;;;;;;;;;;0036348;0072868000010;Woodstream Corporation;US;Lititz;17543;69 N Locust St;;PA;;0;1;;;;;;;;;GS1 US;US
0036348700012;Havahart 5266 Spray Away Motion Activated Sprinkler Animal Repellent 2.0;;;;;;http://product.okfn.org.s3.amazonaws.com/images/gtin/gtin-003/0036348700012.jpg;;;;;;;;;;0036348;0072868000010;Woodstream Corporation;US;Lititz;17543;69 N Locust St;;PA;;0;1;;;;;;;;;GS1 US;US
0036351868013;Hydrazone Eye Contour Serum Cream Eye Care;Beauty - Personal Care - Hygiene;53000000;;;;http://product.okfn.org.s3.amazonaws.com/images/gtin/gtin-003/0036351868013.jpg;EZBVTW;Guinot;http://product.okfn.org.s3.amazonaws.com/images/brand/EZBVTW.jpg;http://www.guinot.com;;;;;;0036351;0036351000000;Modern Mouldings, Inc.;US;Huntington;46750-9305;565 E MARKLE RD;;IN;;0;1;;;;;15.0;0.5;;;GS1 US;US
0036382400381;Lanacane Anti-bacterial First Aid Spray Aerosol;;;;;;http://product.okfn.org.s3.amazonaws.com/images/gtin/gtin-003/0036382400381.jpg;;;;;;;;;;0036382;0036382000000;Pederson's Fryer Farms;US;Tacoma;98404-0183;2901 East 72nd Street;;WA;;0;1;;;;3.5;;;;;GS1 US;US
0036383008531;Thorlo Thick Cushion Ski Over-Calf Sock;Clothing;67000000;;;;http://product.okfn.org.s3.amazonaws.com/images/gtin/gtin-003/0036383008531.jpg;MFAJ75;Thorlo;http://product.okfn.org.s3.amazonaws.com/images/brand/MFAJ75.jpg;http://www.thorlo.com;;;;;;0036383;0036383000009;Thorlo, Inc.;US;Statesville;28687;P.O. Box 5399;;NC;;0;1;;;;;;;;;GS1 US;US
0036383008555;Thorlo Thick Cushion Ski Over-Calf Sock;Clothing;67000000;;;;http://product.okfn.org.s3.amazonaws.com/images/gtin/gtin-003/0036383008555.jpg;MFAJ75;Thorlo;http://product.okfn.org.s3.amazonaws.com/images/brand/MFAJ75.jpg;http://www.thorlo.com;;;;;;0036383;0036383000009;Thorlo, Inc.;US;Statesville;28687;P.O. Box 5399;;NC;;0;1;;;;;;;;;GS1 US;US
0036383008586;Thorlo Thick Cushion Ski Over-Calf Sock;Clothing;67000000;;;;http://product.okfn.org.s3.amazonaws.com/images/gtin/gtin-003/0036383008586.jpg;MFAJ75;Thorlo;http://product.okfn.org.s3.amazonaws.com/images/brand/MFAJ75.jpg;http://www.thorlo.com;;;;;;0036383;0036383000009;Thorlo, Inc.;US;Statesville;28687;P.O. Box 5399;;NC;;0;1;;;;;;;;;GS1 US;US
0036383008753;Thorlo Thin Cushion Ski Over-Calf Sock;Clothing;67000000;;;;http://product.okfn.org.s3.amazonaws.com/images/gtin/gtin-003/0036383008753.jpg;MFAJ75;Thorlo;http://product.okfn.org.s3.amazonaws.com/images/brand/MFAJ75.jpg;http://www.thorlo.com;;;;;;0036383;0036383000009;Thorlo, Inc.;US;Statesville;28687;P.O. Box 5399;;NC;;0;1;;;;;;;;;GS1 US;US
0036383008760;Thorlo Thin Cushion Ski Over-Calf Sock;Clothing;67000000;;;;http://product.okfn.org.s3.amazonaws.com/images/gtin/gtin-003/0036383008760.jpg;MFAJ75;Thorlo;http://product.okfn.org.s3.amazonaws.com/images/brand/MFAJ75.jpg;http://www.thorlo.com;;;;;;0036383;0036383000009;Thorlo, Inc.;US;Statesville;28687;P.O. Box 5399;;NC;;0;1;;;;;;;;;GS1 US;US
0036383018936;Thorlo Thick Cushion Hiking Crew Sock;Clothing;67000000;;;;http://product.okfn.org.s3.amazonaws.com/images/gtin/gtin-003/0036383018936.jpg;MFAJ75;Thorlo;http://product.okfn.org.s3.amazonaws.com/images/brand/MFAJ75.jpg;http://www.thorlo.com;;;;;;0036383;0036383000009;Thorlo, Inc.;US;Statesville;28687;P.O. Box 5399;;NC;;0;1;;;;;;;;;GS1 US;US
0036383020472;Thorlo Moderate Cushion Light Hiking Mini -Crew Sock;Clothing;67000000;;;;http://product.okfn.org.s3.amazonaws.com/images/gtin/gtin-003/0036383020472.jpg;MFAJ75;Thorlo;http://product.okfn.org.s3.amazonaws.com/images/brand/MFAJ75.jpg;http://www.thorlo.com;;;;;;0036383;0036383000009;Thorlo, Inc.;US;Statesville;28687;P.O. Box 5399;;NC;;0;1;;;;;;;;;GS1 US;US
0036383023961;Thorlo Moderate Cushion Light Hiking Mini-Crew Sock;Clothing;67000000;;;;http://product.okfn.org.s3.amazonaws.com/images/gtin/gtin-003/0036383023961.jpg;MFAJ75;Thorlo;http://product.okfn.org.s3.amazonaws.com/images/brand/MFAJ75.jpg;http://www.thorlo.com;;;;;;0036383;0036383000009;Thorlo, Inc.;US;Statesville;28687;P.O. Box 5399;;NC;;0;1;;;;;;;;;GS1 US;US
0036383026085;Thorlo Womens Thick Cushion Hiking Crew Sock;Clothing;67000000;;;;http://product.okfn.org.s3.amazonaws.com/images/gtin/gtin-003/0036383026085.jpg;MFAJ75;Thorlo;http://product.okfn.org.s3.amazonaws.com/images/brand/MFAJ75.jpg;http://www.thorlo.com;;;;;;0036383;0036383000009;Thorlo, Inc.;US;Statesville;28687;P.O. Box 5399;;NC;;0;1;;;;;;;;;GS1 US;US
0036383060720;Thorlo Thick Cushion Ski Over-Calf Sock;Clothing;67000000;;;;http://product.okfn.org.s3.amazonaws.com/images/gtin/gtin-003/0036383060720.jpg;MFAJ75;Thorlo;http://product.okfn.org.s3.amazonaws.com/images/brand/MFAJ75.jpg;http://www.thorlo.com;;;;;;0036383;0036383000009;Thorlo, Inc.;US;Statesville;28687;P.O. Box 5399;;NC;;0;1;;;;;;;;;GS1 US;US
0036383060744;Thorlo Thick Cushion Ski Over-Calf Sock;Clothing;67000000;;;;http://product.okfn.org.s3.amazonaws.com/images/gtin/gtin-003/0036383060744.jpg;MFAJ75;Thorlo;http://product.okfn.org.s3.amazonaws.com/images/brand/MFAJ75.jpg;http://www.thorlo.com;;;;;;0036383;0036383000009;Thorlo, Inc.;US;Statesville;28687;P.O. Box 5399;;NC;;0;1;;;;;;;;;GS1 US;US
0036383060775;Thorlo Thin Cushion Ski Over-Calf Sock;Clothing;67000000;;;;http://product.okfn.org.s3.amazonaws.com/images/gtin/gtin-003/0036383060775.jpg;MFAJ75;Thorlo;http://product.okfn.org.s3.amazonaws.com/images/brand/MFAJ75.jpg;http://www.thorlo.com;;;;;;0036383;0036383000009;Thorlo, Inc.;US;Statesville;28687;P.O. Box 5399;;NC;;0;1;;;;;;;;;GS1 US;US
0036383060799;Thorlo Thin Cushion Ski Over-Calf Sock;Clothing;67000000;;;;http://product.okfn.org.s3.amazonaws.com/images/gtin/gtin-003/0036383060799.jpg;MFAJ75;Thorlo;http://product.okfn.org.s3.amazonaws.com/images/brand/MFAJ75.jpg;http://www.thorlo.com;;;;;;0036383;0036383000009;Thorlo, Inc.;US;Statesville;28687;P.O. Box 5399;;NC;;0;1;;;;;;;;;GS1 US;US
0007015439306;Cool Water Wave Eau De Toilette Spray;Beauty - Personal Care - Hygiene;53000000;;;;http://product.okfn.org.s3.amazonaws.com/images/gtin/gtin-000/0007015439306.jpg;VMFHU4;Davidoff;http://product.okfn.org.s3.amazonaws.com/images/brand/VMFHU4.jpg;http://www.zinodavidoff.com;Coty;000017;http://www.coty.com;http://en.wikipedia.org/wiki/Coty,_Inc.;http://product.okfn.org.s3.amazonaws.com/images/group/000017.jpg;0007015;;;;;;;;;;2;1;;;;;30.0;;;;GS1 US;US
0007022101111;Swiss Milk Chocolate With Honey & Almond Nougat;Food - Beverage - Tobacco;50000000;;;;http://product.okfn.org.s3.amazonaws.com/images/gtin/gtin-000/0007022101111.jpg;N1UMIF;Toblerone;http://product.okfn.org.s3.amazonaws.com/images/brand/N1UMIF.jpg;http://www.toblerone.com;Kraft Foods;000003;http://www.kraftfoodscompany.com;http://en.wikipedia.org/wiki/Kraft_Foods;http://product.okfn.org.s3.amazonaws.com/images/group/000003.jpg;0007022;;;;;;;;;;2;1;;;;3.5;;;;;GS1 US;US
0007033981702;Teint Parfait Complexion Enhancer Oil Free No. 19;Beauty - Personal Care - Hygiene;53000000;;;;http://product.okfn.org.s3.amazonaws.com/images/gtin/gtin-000/0007033981702.jpg;ZG5JZ4;Yves Saint Laurent Beauté;http://product.okfn.org.s3.amazonaws.com/images/brand/ZG5JZ4.jpg;http://www.ysl.com;L'Oréal;000016;http://www.loreal.fr;http://en.wikipedia.org/wiki/L%27Oréal;http://product.okfn.org.s3.amazonaws.com/images/group/000016.jpg;0007033;;;;;;;;;;2;1;;;;;30.0;;;;GS1 US;US
0007036322465;Clip-On Dust Mop Frame, 24w x 5d, Black;;;;;;http://product.okfn.org.s3.amazonaws.com/images/gtin/gtin-000/0007036322465.jpg;;;;;;;;;;0007036;;;;;;;;;;2;1;;;;;;;;;GS1 US;US
0007124901732;L'or al True Match Super Blendable Concealer Light Medium Cool;Beauty - Personal Care - Hygiene;53000000;;;;http://product.okfn.org.s3.amazonaws.com/images/gtin/gtin-000/0007124901732.jpg;A2MHI8;L'Oréal Paris;http://product.okfn.org.s3.amazonaws.com/images/brand/A2MHI8.jpg;http://www.loreal-paris.fr;L'Oréal;000016;http://www.loreal.fr;http://en.wikipedia.org/wiki/L%27Oréal;http://product.okfn.org.s3.amazonaws.com/images/group/000016.jpg;0007124;;;;;;;;;;2;1;;;;;;;;;GS1 US;US
0007124910727;L'or al Pro Manicure Nail Polish Chicklette;Beauty - Personal Care - Hygiene;53000000;;;;http://product.okfn.org.s3.amazonaws.com/images/gtin/gtin-000/0007124910727.jpg;A2MHI8;L'Oréal Paris;http://product.okfn.org.s3.amazonaws.com/images/brand/A2MHI8.jpg;http://www.loreal-paris.fr;L'Oréal;000016;http://www.loreal.fr;http://en.wikipedia.org/wiki/L%27Oréal;http://product.okfn.org.s3.amazonaws.com/images/group/000016.jpg;0007124;;;;;;;;;;2;1;;;;;;;;;GS1 US;US
0007124910741;L'or al Pro Manicure Nail Polish Party Hop;Beauty - Personal Care - Hygiene;53000000;;;;http://product.okfn.org.s3.amazonaws.com/images/gtin/gtin-000/0007124910741.jpg;A2MHI8;L'Oréal Paris;http://product.okfn.org.s3.amazonaws.com/images/brand/A2MHI8.jpg;http://www.loreal-paris.fr;L'Oréal;000016;http://www.loreal.fr;http://en.wikipedia.org/wiki/L%27Oréal;http://product.okfn.org.s3.amazonaws.com/images/group/000016.jpg;0007124;;;;;;;;;;2;1;;;;;;;;;GS1 US;US
0007124912349;L'or al Bare Naturale Gentle Mineral Blush Shimmering Bronze;Beauty - Personal Care - Hygiene;53000000;;;;http://product.okfn.org.s3.amazonaws.com/images/gtin/gtin-000/0007124912349.jpg;A2MHI8;L'Oréal Paris;http://product.okfn.org.s3.amazonaws.com/images/brand/A2MHI8.jpg;http://www.loreal-paris.fr;L'Oréal;000016;http://www.loreal.fr;http://en.wikipedia.org/wiki/L%27Oréal;http://product.okfn.org.s3.amazonaws.com/images/group/000016.jpg;0007124;;;;;;;;;;2;1;;;;;;;;;GS1 US;US
0007124986401;L'or al Lash Out Lengthening And Separating Mascara Black;Beauty - Personal Care - Hygiene;53000000;;;;http://product.okfn.org.s3.amazonaws.com/images/gtin/gtin-000/0007124986401.jpg;A2MHI8;L'Oréal Paris;http://product.okfn.org.s3.amazonaws.com/images/brand/A2MHI8.jpg;http://www.loreal-paris.fr;L'Oréal;000016;http://www.loreal.fr;http://en.wikipedia.org/wiki/L%27Oréal;http://product.okfn.org.s3.amazonaws.com/images/group/000016.jpg;0007124;;;;;;;;;;2;1;;;;;;;;;GS1 US;US
0007218056690;;;;;;;http://product.okfn.org.s3.amazonaws.com/images/gtin/gtin-000/0007218056690.jpg;;;;;;;;;;0007218;;;;;;;;;;2;1;;;;;;;;;GS1 US;US
0007275823105;Fuel For Life Eau De Toilette Spray Fuel For Life;Beauty - Personal Care - Hygiene;53000000;;;;http://product.okfn.org.s3.amazonaws.com/images/gtin/gtin-000/0007275823105.jpg;MNE574;Diesel;http://product.okfn.org.s3.amazonaws.com/images/brand/MNE574.jpg;http://www.diesel.com;L'Oréal;000016;http://www.loreal.fr;http://en.wikipedia.org/wiki/L%27Oréal;http://product.okfn.org.s3.amazonaws.com/images/group/000016.jpg;0007275;;;;;;;;;;2;1;;;;;75.0;2.5;;;GS1 US;US
0007417004867;Creme Hair Remover Kit For Face Upper Lip & Chin;Beauty - Personal Care - Hygiene;53000000;;;;http://product.okfn.org.s3.amazonaws.com/images/gtin/gtin-000/0007417004867.jpg;E1UT82;Sally Hansen;http://product.okfn.org.s3.amazonaws.com/images/brand/E1UT82.jpg;http://www.sallyhansen.com;Coty;000017;http://www.coty.com;http://en.wikipedia.org/wiki/Coty,_Inc.;http://product.okfn.org.s3.amazonaws.com/images/group/000017.jpg;0007417;;;;;;;;;;2;1;;;;2.0;;;;;GS1 US;US
0007417006762;Dollardays International Sally Hansen Vitamin E Nail & Cuticle Oil 4000 I.u;Beauty - Personal Care - Hygiene;53000000;;;;http://product.okfn.org.s3.amazonaws.com/images/gtin/gtin-000/0007417006762.jpg;E1UT82;Sally Hansen;http://product.okfn.org.s3.amazonaws.com/images/brand/E1UT82.jpg;http://www.sallyhansen.com;Coty;000017;http://www.coty.com;http://en.wikipedia.org/wiki/Coty,_Inc.;http://product.okfn.org.s3.amazonaws.com/images/group/000017.jpg;0007417;;;;;;;;;;2;1;;;;0.45;;;;;GS1 US;US
0007417034123;Mega Shine Extended Wear Top Coat;Beauty - Personal Care - Hygiene;53000000;;;;http://product.okfn.org.s3.amazonaws.com/images/gtin/gtin-000/0007417034123.jpg;E1UT82;Sally Hansen;http://product.okfn.org.s3.amazonaws.com/images/brand/E1UT82.jpg;http://www.sallyhansen.com;Coty;000017;http://www.coty.com;http://en.wikipedia.org/wiki/Coty,_Inc.;http://product.okfn.org.s3.amazonaws.com/images/group/000017.jpg;0007417;;;;;;;;;;2;1;;;;0.43;;;;;GS1 US;US
0007417034222;Diamond Strength Diamond Shine Base & Top Coat Clear;Beauty - Personal Care - Hygiene;53000000;;;;http://product.okfn.org.s3.amazonaws.com/images/gtin/gtin-000/0007417034222.jpg;E1UT82;Sally Hansen;http://product.okfn.org.s3.amazonaws.com/images/brand/E1UT82.jpg;http://www.sallyhansen.com;Coty;000017;http://www.coty.com;http://en.wikipedia.org/wiki/Coty,_Inc.;http://product.okfn.org.s3.amazonaws.com/images/group/000017.jpg;0007417;;;;;;;;;;2;1;;;;0.45;;;;;GS1 US;US
0007577281702;Volume Effet Faux Cils Luxurious Mascara Burgundy;Beauty - Personal Care - Hygiene;53000000;;;;http://product.okfn.org.s3.amazonaws.com/images/gtin/gtin-000/0007577281702.jpg;ZG5JZ4;Yves Saint Laurent Beauté;http://product.okfn.org.s3.amazonaws.com/images/brand/ZG5JZ4.jpg;http://www.ysl.com;L'Oréal;000016;http://www.loreal.fr;http://en.wikipedia.org/wiki/L%27Oréal;http://product.okfn.org.s3.amazonaws.com/images/group/000016.jpg;0007577;;;;;;;;;;2;1;;;;;;;;;GS1 US;US
0007623307066;Fidji Eau De Toilette Spray Fidji;Beauty - Personal Care - Hygiene;53000000;;;;http://product.okfn.org.s3.amazonaws.com/images/gtin/gtin-000/0007623307066.jpg;A67A1Q;Guy Laroche;http://product.okfn.org.s3.amazonaws.com/images/brand/A67A1Q.jpg;http://www.guylaroche.com;;;;;;0007623;;;;;;;;;;2;1;;;;;50.0;;;;GS1 US;US
0007797508900;;;;;;;http://product.okfn.org.s3.amazonaws.com/images/gtin/gtin-000/0007797508900.jpg;;;;;;;;;;0007797;;;;;;;;;;2;1;;;;;;;;;GS1 US;US
0007851581702;Rouge Pure Shine Sheer Lipstick No. 97 Starry Dream Love Collection Ysl Lip Color Rouge Pure Shine Sheer Lipstick;Beauty - Personal Care - Hygiene;53000000;;;;http://product.okfn.org.s3.amazonaws.com/images/gtin/gtin-000/0007851581702.jpg;ZG5JZ4;Yves Saint Laurent Beauté;http://product.okfn.org.s3.amazonaws.com/images/brand/ZG5JZ4.jpg;http://www.ysl.com;L'Oréal;000016;http://www.loreal.fr;http://en.wikipedia.org/wiki/L%27Oréal;http://product.okfn.org.s3.amazonaws.com/images/group/000016.jpg;0007851;;;;;;;;;;2;1;;;3.4;;;;;;GS1 US;US
0007940081670;Max Hold Volumizing Mousse Max Hold 8;Beauty - Personal Care - Hygiene;53000000;;;;http://product.okfn.org.s3.amazonaws.com/images/gtin/gtin-000/0007940081670.jpg;ST9GV1;Suave;http://product.okfn.org.s3.amazonaws.com/images/brand/ST9GV1.jpg;http://www.suave.com;;;;;;0007940;;;;;;;;;;2;1;;;;9.0;;;;;GS1 US;US
0008061841105;;;;;;;http://product.okfn.org.s3.amazonaws.com/images/gtin/gtin-000/0008061841105.jpg;;;;;;;;;;0008061;0008061000007;Castle Sales Co. Inc.;US;Green Bay;54307-0417;P.O. Box 10417;;WI;;0;1;;;;;;;;;GS1 US;US
0008077102238;Hello Panda Milk Cream Biscuits (Large Box);Food - Beverage - Tobacco;50000000;;;;http://product.okfn.org.s3.amazonaws.com/images/gtin/gtin-000/0008077102238.jpg;BZP9RB;Meiji;http://product.okfn.org.s3.amazonaws.com/images/brand/BZP9RB.jpg;http://www.meiji.com;;;;;;0008077;0008077000008;Ritenour Enterprises Diversified, Inc.;US;Leesburg;20175;20 W Market St, Ste A;;VA;;0;1;;;;9.1;;;;;GS1 US;US
0008100006205;BlastfLipstick, Lipcolor;Beauty - Personal Care - Hygiene;53000000;;;;http://product.okfn.org.s3.amazonaws.com/images/gtin/gtin-000/0008100006205.jpg;SI198J;Covergirl;http://product.okfn.org.s3.amazonaws.com/images/brand/SI198J.jpg;http://www.covergirl.com;P&G - Procter & Gamble;000001;http://www.pg.com;http://en.wikipedia.org/wiki/Procter_%26_Gamble;http://product.okfn.org.s3.amazonaws.com/images/group/000001.jpg;0008100;0322700000006;Procter & Gamble, Cosmetic & Frag. Prod.;US;Cockeysville;21030-2005;11050 York Road;;MD;;0;1;;;;0.134;;;;;GS1 US;US
0008100006212;BlastfLipstick, Lipcolor;Beauty - Personal Care - Hygiene;53000000;;;;http://product.okfn.org.s3.amazonaws.com/images/gtin/gtin-000/0008100006212.jpg;SI198J;Covergirl;http://product.okfn.org.s3.amazonaws.com/images/brand/SI198J.jpg;http://www.covergirl.com;P&G - Procter & Gamble;000001;http://www.pg.com;http://en.wikipedia.org/wiki/Procter_%26_Gamble;http://product.okfn.org.s3.amazonaws.com/images/group/000001.jpg;0008100;0322700000006;Procter & Gamble, Cosmetic & Frag. Prod.;US;Cockeysville;21030-2005;11050 York Road;;MD;;0;1;;;;0.134;;;;;GS1 US;US
0008100006274;BlastfLipstick, Lipcolor;Beauty - Personal Care - Hygiene;53000000;;;;http://product.okfn.org.s3.amazonaws.com/images/gtin/gtin-000/0008100006274.jpg;SI198J;Covergirl;http://product.okfn.org.s3.amazonaws.com/images/brand/SI198J.jpg;http://www.covergirl.com;P&G - Procter & Gamble;000001;http://www.pg.com;http://en.wikipedia.org/wiki/Procter_%26_Gamble;http://product.okfn.org.s3.amazonaws.com/images/group/000001.jpg;0008100;0322700000006;Procter & Gamble, Cosmetic & Frag. Prod.;US;Cockeysville;21030-2005;11050 York Road;;MD;;0;1;;;;0.134;;;;;GS1 US;US
0008123281702;Teint Compact Hydra Feel Spf10 Refill # 05 Amber Ysl Complexion Teint Compact Hydra Feel Spf10 Refill;Beauty - Personal Care - Hygiene;53000000;;;;http://product.okfn.org.s3.amazonaws.com/images/gtin/gtin-000/0008123281702.jpg;ZG5JZ4;Yves Saint Laurent Beauté;http://product.okfn.org.s3.amazonaws.com/images/brand/ZG5JZ4.jpg;http://www.ysl.com;L'Oréal;000016;http://www.loreal.fr;http://en.wikipedia.org/wiki/L%27Oréal;http://product.okfn.org.s3.amazonaws.com/images/group/000016.jpg;0008123;0008123000006;Automatic Garage Door Co.;US;Champlin;55316;8900 109th Ave. N.;;MN;;0;1;;;8.5;;;;;;GS1 US;US
0008178900993;Stiff Eng Clean Twist Wire-Syn 1/4B;;;;;;http://product.okfn.org.s3.amazonaws.com/images/gtin/gtin-000/0008178900993.jpg;;;;;;;;;;0008178;0008178000006;Portage Distributing, Inc.;US;Seward;99664-1991;P O Box 1991;;AK;;0;1;;;;;;;;;GS1 US;US
0008338484202;Rouge Interdit Shine Ultra Shiny Lipstick # 01 Sweet Shine;Beauty - Personal Care - Hygiene;53000000;;;;http://product.okfn.org.s3.amazonaws.com/images/gtin/gtin-000/0008338484202.jpg;252MSG;Givenchy;http://product.okfn.org.s3.amazonaws.com/images/brand/252MSG.jpg;http://www.givenchy.com;;;;;;0008338;0008338000006;Consumer Advantage Reference Services, Inc.;US;Harrison Township;48045;29022 Thistle Lane;;MI;;0;1;;;3.5;;;;;;GS1 US;US
0008346015405;Meal Options Meal On-the-go-bar;Food - Beverage - Tobacco;50000000;;;;http://product.okfn.org.s3.amazonaws.com/images/gtin/gtin-000/0008346015405.jpg;HI8N7I;Slim-Fast;http://product.okfn.org.s3.amazonaws.com/images/brand/HI8N7I.jpg;http://www.slim-fast.com;;;;;;0008346;0008346000005;Slim-Fast Foods Company;US;Englewood;07631;P O Box 6065;;NJ;;0;1;;;56.0;1.97;;;;;GS1 US;US
0008346016150;Healthy Ready To Mix Meal Chocolate Malt;Food - Beverage - Tobacco;50000000;;;;http://product.okfn.org.s3.amazonaws.com/images/gtin/gtin-000/0008346016150.jpg;HI8N7I;Slim-Fast;http://product.okfn.org.s3.amazonaws.com/images/brand/HI8N7I.jpg;http://www.slim-fast.com;;;;;;0008346;0008346000005;Slim-Fast Foods Company;US;Englewood;07631;P O Box 6065;;NJ;;0;1;;;425.0;15.0;;;;;GS1 US;US
0008346016211;Healthy Ready To Mix Meal Vanilla;Food - Beverage - Tobacco;50000000;;;;http://product.okfn.org.s3.amazonaws.com/images/gtin/gtin-000/0008346016211.jpg;HI8N7I;Slim-Fast;http://product.okfn.org.s3.amazonaws.com/images/brand/HI8N7I.jpg;http://www.slim-fast.com;;;;;;0008346;0008346000005;Slim-Fast Foods Company;US;Englewood;07631;P O Box 6065;;NJ;;0;1;;;425.0;15.0;;;;;GS1 US;US
0008346016310;Ready To Mix Meal With Soy Protein;Food - Beverage - Tobacco;50000000;;;;http://product.okfn.org.s3.amazonaws.com/images/gtin/gtin-000/0008346016310.jpg;HI8N7I;Slim-Fast;http://product.okfn.org.s3.amazonaws.com/images/brand/HI8N7I.jpg;http://www.slim-fast.com;;;;;;0008346;0008346000005;Slim-Fast Foods Company;US;Englewood;07631;P O Box 6065;;NJ;;0;1;;;528.0;18.62;;;;;GS1 US;US
0008346016501;Healthy Ready To Mix Meal Chocolate Malt Ultra Powder;Food - Beverage - Tobacco;50000000;;;;http://product.okfn.org.s3.amazonaws.com/images/gtin/gtin-000/0008346016501.jpg;HI8N7I;Slim-Fast;http://product.okfn.org.s3.amazonaws.com/images/brand/HI8N7I.jpg;http://www.slim-fast.com;;;;;;0008346;0008346000005;Slim-Fast Foods Company;US;Englewood;07631;P O Box 6065;;NJ;;0;1;;;425.0;15.0;;;;;GS1 US;US
0008346017447;Ready To Drink Meal Cappuccino Delight;Food - Beverage - Tobacco;50000000;;;;http://product.okfn.org.s3.amazonaws.com/images/gtin/gtin-000/0008346017447.jpg;HI8N7I;Slim-Fast;http://product.okfn.org.s3.amazonaws.com/images/brand/HI8N7I.jpg;http://www.slim-fast.com;;;;;;0008346;0008346000005;Slim-Fast Foods Company;US;Englewood;07631;P O Box 6065;;NJ;;0;1;;;;;325.0;11.0;;;GS1 US;US
0008346019519;Chewy Granola Meal Bar;Food - Beverage - Tobacco;50000000;;;;http://product.okfn.org.s3.amazonaws.com/images/gtin/gtin-000/0008346019519.jpg;HI8N7I;Slim-Fast;http://product.okfn.org.s3.amazonaws.com/images/brand/HI8N7I.jpg;http://www.slim-fast.com;;;;;;0008346;0008346000005;Slim-Fast Foods Company;US;Englewood;07631;P O Box 6065;;NJ;;0;1;;;56.0;1.97;;;;;GS1 US;US
0008346026395;Dual Axle For Hes Sentra Extra Heavy Duty Wheelchair With Dual Cross Brace;Food - Beverage - Tobacco;50000000;;;;http://product.okfn.org.s3.amazonaws.com/images/gtin/gtin-000/0008346026395.jpg;HI8N7I;Slim-Fast;http://product.okfn.org.s3.amazonaws.com/images/brand/HI8N7I.jpg;http://www.slim-fast.com;;;;;;0008346;0008346000005;Slim-Fast Foods Company;US;Englewood;07631;P O Box 6065;;NJ;;0;1;;;;12.83;;;;;GS1 US;US
0008346033300;High Protein Meal Bar;Food - Beverage - Tobacco;50000000;;;;http://product.okfn.org.s3.amazonaws.com/images/gtin/gtin-000/0008346033300.jpg;HI8N7I;Slim-Fast;http://product.okfn.org.s3.amazonaws.com/images/brand/HI8N7I.jpg;http://www.slim-fast.com;;;;;;0008346;0008346000005;Slim-Fast Foods Company;US;Englewood;07631;P O Box 6065;;NJ;;0;1;;;;1.9;;;;;GS1 US;US
0008346033317;High Protein Meal Bar;Food - Beverage - Tobacco;50000000;;;;http://product.okfn.org.s3.amazonaws.com/images/gtin/gtin-000/0008346033317.jpg;HI8N7I;Slim-Fast;http://product.okfn.org.s3.amazonaws.com/images/brand/HI8N7I.jpg;http://www.slim-fast.com;;;;;;0008346;0008346000005;Slim-Fast Foods Company;US;Englewood;07631;P O Box 6065;;NJ;;0;1;;;;1.9;;;;;GS1 US;US
0008346033331;High Protein Meal Bar;Food - Beverage - Tobacco;50000000;;;;http://product.okfn.org.s3.amazonaws.com/images/gtin/gtin-000/0008346033331.jpg;HI8N7I;Slim-Fast;http://product.okfn.org.s3.amazonaws.com/images/brand/HI8N7I.jpg;http://www.slim-fast.com;;;;;;0008346;0008346000005;Slim-Fast Foods Company;US;Englewood;07631;P O Box 6065;;NJ;;0;1;;;;1.9;;;;;GS1 US;US
0008346036905;Meal Bar;Food - Beverage - Tobacco;50000000;;;;http://product.okfn.org.s3.amazonaws.com/images/gtin/gtin-000/0008346036905.jpg;HI8N7I;Slim-Fast;http://product.okfn.org.s3.amazonaws.com/images/brand/HI8N7I.jpg;http://www.slim-fast.com;;;;;;0008346;0008346000005;Slim-Fast Foods Company;US;Englewood;07631;P O Box 6065;;NJ;;0;1;;;56.0;1.97;;;;;GS1 US;US
0008346037209;Muffin Bars;Food - Beverage - Tobacco;50000000;;;;http://product.okfn.org.s3.amazonaws.com/images/gtin/gtin-000/0008346037209.jpg;HI8N7I;Slim-Fast;http://product.okfn.org.s3.amazonaws.com/images/brand/HI8N7I.jpg;http://www.slim-fast.com;;;;;;0008346;0008346000005;Slim-Fast Foods Company;US;Englewood;07631;P O Box 6065;;NJ;;0;1;;;204.0;7.19;;;;;GS1 US;US
0008346037315;Meal Bars;Food - Beverage - Tobacco;50000000;;;;http://product.okfn.org.s3.amazonaws.com/images/gtin/gtin-000/0008346037315.jpg;HI8N7I;Slim-Fast;http://product.okfn.org.s3.amazonaws.com/images/brand/HI8N7I.jpg;http://www.slim-fast.com;;;;;;0008346;0008346000005;Slim-Fast Foods Company;US;Englewood;07631;P O Box 6065;;NJ;;0;1;;;336.0;11.85;;;;;GS1 US;US
0008346037322;Meal Bars;Food - Beverage - Tobacco;50000000;;;;http://product.okfn.org.s3.amazonaws.com/images/gtin/gtin-000/0008346037322.jpg;HI8N7I;Slim-Fast;http://product.okfn.org.s3.amazonaws.com/images/brand/HI8N7I.jpg;http://www.slim-fast.com;;;;;;0008346;0008346000005;Slim-Fast Foods Company;US;Englewood;07631;P O Box 6065;;NJ;;0;1;;;336.0;11.85;;;;;GS1 US;US
0008346037384;Black Corporate Executives Labor And Social Change;Food - Beverage - Tobacco;50000000;;;;http://product.okfn.org.s3.amazonaws.com/images/gtin/gtin-000/0008346037384.jpg;HI8N7I;Slim-Fast;http://product.okfn.org.s3.amazonaws.com/images/brand/HI8N7I.jpg;http://www.slim-fast.com;;;;;;0008346;0008346000005;Slim-Fast Foods Company;US;Englewood;07631;P O Box 6065;;NJ;;0;1;;;;;325.0;11.0;;;GS1 US;US
0008346037414;Meal Shake French Vanilla;Food - Beverage - Tobacco;50000000;;;;http://product.okfn.org.s3.amazonaws.com/images/gtin/gtin-000/0008346037414.jpg;HI8N7I;Slim-Fast;http://product.okfn.org.s3.amazonaws.com/images/brand/HI8N7I.jpg;http://www.slim-fast.com;;;;;;0008346;0008346000005;Slim-Fast Foods Company;US;Englewood;07631;P O Box 6065;;NJ;;0;1;;;;;325.0;11.0;;;GS1 US;US
0008346037438;Meal Shake;Food - Beverage - Tobacco;50000000;;;;http://product.okfn.org.s3.amazonaws.com/images/gtin/gtin-000/0008346037438.jpg;HI8N7I;Slim-Fast;http://product.okfn.org.s3.amazonaws.com/images/brand/HI8N7I.jpg;http://www.slim-fast.com;;;;;;0008346;0008346000005;Slim-Fast Foods Company;US;Englewood;07631;P O Box 6065;;NJ;;0;1;;;;;325.0;11.0;;;GS1 US;US
0008346037704;Meal Bar;Food - Beverage - Tobacco;50000000;;;;http://product.okfn.org.s3.amazonaws.com/images/gtin/gtin-000/0008346037704.jpg;HI8N7I;Slim-Fast;http://product.okfn.org.s3.amazonaws.com/images/brand/HI8N7I.jpg;http://www.slim-fast.com;;;;;;0008346;0008346000005;Slim-Fast Foods Company;US;Englewood;07631;P O Box 6065;;NJ;;0;1;;;56.0;1.97;;;;;GS1 US;US
0008346037711;Meal Bar;Food - Beverage - Tobacco;50000000;;;;http://product.okfn.org.s3.amazonaws.com/images/gtin/gtin-000/0008346037711.jpg;HI8N7I;Slim-Fast;http://product.okfn.org.s3.amazonaws.com/images/brand/HI8N7I.jpg;http://www.slim-fast.com;;;;;;0008346;0008346000005;Slim-Fast Foods Company;US;Englewood;07631;P O Box 6065;;NJ;;0;1;;;56.0;1.97;;;;;GS1 US;US
0008346037728;Meal Bar;Food - Beverage - Tobacco;50000000;;;;http://product.okfn.org.s3.amazonaws.com/images/gtin/gtin-000/0008346037728.jpg;HI8N7I;Slim-Fast;http://product.okfn.org.s3.amazonaws.com/images/brand/HI8N7I.jpg;http://www.slim-fast.com;;;;;;0008346;0008346000005;Slim-Fast Foods Company;US;Englewood;07631;P O Box 6065;;NJ;;0;1;;;56.0;1.97;;;;;GS1 US;US
0008346038039;Meal Bars;Food - Beverage - Tobacco;50000000;;;;http://product.okfn.org.s3.amazonaws.com/images/gtin/gtin-000/0008346038039.jpg;HI8N7I;Slim-Fast;http://product.okfn.org.s3.amazonaws.com/images/brand/HI8N7I.jpg;http://www.slim-fast.com;;;;;;0008346;0008346000005;Slim-Fast Foods Company;US;Englewood;07631;P O Box 6065;;NJ;;0;1;;;264.0;9.31;;;;;GS1 US;US
0008346038824;Snack Bar;Food - Beverage - Tobacco;50000000;;;;http://product.okfn.org.s3.amazonaws.com/images/gtin/gtin-000/0008346038824.jpg;HI8N7I;Slim-Fast;http://product.okfn.org.s3.amazonaws.com/images/brand/HI8N7I.jpg;http://www.slim-fast.com;;;;;;0008346;0008346000005;Slim-Fast Foods Company;US;Englewood;07631;P O Box 6065;;NJ;;0;1;;;28.0;1.0;;;;;GS1 US;US
0008346045495;Meal Shake;Food - Beverage - Tobacco;50000000;;;;http://product.okfn.org.s3.amazonaws.com/images/gtin/gtin-000/0008346045495.jpg;HI8N7I;Slim-Fast;http://product.okfn.org.s3.amazonaws.com/images/brand/HI8N7I.jpg;http://www.slim-fast.com;;;;;;0008346;0008346000005;Slim-Fast Foods Company;US;Englewood;07631;P O Box 6065;;NJ;;0;1;;;;;340.0;;;;GS1 US;US
0008346045723;Low Carb Meal Bar;Food - Beverage - Tobacco;50000000;;;;http://product.okfn.org.s3.amazonaws.com/images/gtin/gtin-000/0008346045723.jpg;HI8N7I;Slim-Fast;http://product.okfn.org.s3.amazonaws.com/images/brand/HI8N7I.jpg;http://www.slim-fast.com;;;;;;0008346;0008346000005;Slim-Fast Foods Company;US;Englewood;07631;P O Box 6065;;NJ;;0;1;;;50.0;1.76;;;;;GS1 US;US
0008346049547;Snack Bars;Food - Beverage - Tobacco;50000000;;;;http://product.okfn.org.s3.amazonaws.com/images/gtin/gtin-000/0008346049547.jpg;HI8N7I;Slim-Fast;http://product.okfn.org.s3.amazonaws.com/images/brand/HI8N7I.jpg;http://www.slim-fast.com;;;;;;0008346;0008346000005;Slim-Fast Foods Company;US;Englewood;07631;P O Box 6065;;NJ;;0;1;;;552.0;19.47;;;;;GS1 US;US
0008346069583;Extra Strength Precision Brush-on Hair Remover;Beauty - Personal Care - Hygiene;53000000;;;;http://product.okfn.org.s3.amazonaws.com/images/gtin/gtin-000/0008346069583.jpg;E1UT82;Sally Hansen;http://product.okfn.org.s3.amazonaws.com/images/brand/E1UT82.jpg;http://www.sallyhansen.com;Coty;000017;http://www.coty.com;http://en.wikipedia.org/wiki/Coty,_Inc.;http://product.okfn.org.s3.amazonaws.com/images/group/000017.jpg;0008346;0008346000005;Slim-Fast Foods Company;US;Englewood;07631;P O Box 6065;;NJ;;0;1;;;;;;;;;GS1 US;US
0008346070527;321 Plan Meal Bars Chewy Chocolate Crisp;Food - Beverage - Tobacco;50000000;;;;http://product.okfn.org.s3.amazonaws.com/images/gtin/gtin-000/0008346070527.jpg;HI8N7I;Slim-Fast;http://product.okfn.org.s3.amazonaws.com/images/brand/HI8N7I.jpg;http://www.slim-fast.com;;;;;;0008346;0008346000005;Slim-Fast Foods Company;US;Englewood;07631;P O Box 6065;;NJ;;0;1;;;;;;;;;GS1 US;US
0008346070572;Meal Bar;Food - Beverage - Tobacco;50000000;;;;http://product.okfn.org.s3.amazonaws.com/images/gtin/gtin-000/0008346070572.jpg;HI8N7I;Slim-Fast;http://product.okfn.org.s3.amazonaws.com/images/brand/HI8N7I.jpg;http://www.slim-fast.com;;;;;;0008346;0008346000005;Slim-Fast Foods Company;US;Englewood;07631;P O Box 6065;;NJ;;0;1;;;47.0;1.65;;;;;GS1 US;US
0008346070602;Meal Bar;Food - Beverage - Tobacco;50000000;;;;http://product.okfn.org.s3.amazonaws.com/images/gtin/gtin-000/0008346070602.jpg;HI8N7I;Slim-Fast;http://product.okfn.org.s3.amazonaws.com/images/brand/HI8N7I.jpg;http://www.slim-fast.com;;;;;;0008346;0008346000005;Slim-Fast Foods Company;US;Englewood;07631;P O Box 6065;;NJ;;0;1;;;50.0;1.76;;;;;GS1 US;US
0008346070619;Meal Bars;Food - Beverage - Tobacco;50000000;;;;http://product.okfn.org.s3.amazonaws.com/images/gtin/gtin-000/0008346070619.jpg;HI8N7I;Slim-Fast;http://product.okfn.org.s3.amazonaws.com/images/brand/HI8N7I.jpg;http://www.slim-fast.com;;;;;;0008346;0008346000005;Slim-Fast Foods Company;US;Englewood;07631;P O Box 6065;;NJ;;0;1;;;45.0;1.58;;;;;GS1 US;US
0008346075911;Snack Bar;Food - Beverage - Tobacco;50000000;;;;http://product.okfn.org.s3.amazonaws.com/images/gtin/gtin-000/0008346075911.jpg;HI8N7I;Slim-Fast;http://product.okfn.org.s3.amazonaws.com/images/brand/HI8N7I.jpg;http://www.slim-fast.com;;;;;;0008346;0008346000005;Slim-Fast Foods Company;US;Englewood;07631;P O Box 6065;;NJ;;0;1;;;32.0;1.12;;;;;GS1 US;US
0008346075928;Snack Bar;Food - Beverage - Tobacco;50000000;;;;http://product.okfn.org.s3.amazonaws.com/images/gtin/gtin-000/0008346075928.jpg;HI8N7I;Slim-Fast;http://product.okfn.org.s3.amazonaws.com/images/brand/HI8N7I.jpg;http://www.slim-fast.com;;;;;;0008346;0008346000005;Slim-Fast Foods Company;US;Englewood;07631;P O Box 6065;;NJ;;0;1;;;32.0;1.12;;;;;GS1 US;US
0008346085910;Snack Bars;Food - Beverage - Tobacco;50000000;;;;http://product.okfn.org.s3.amazonaws.com/images/gtin/gtin-000/0008346085910.jpg;HI8N7I;Slim-Fast;http://product.okfn.org.s3.amazonaws.com/images/brand/HI8N7I.jpg;http://www.slim-fast.com;;;;;;0008346;0008346000005;Slim-Fast Foods Company;US;Englewood;07631;P O Box 6065;;NJ;;0;1;;;192.0;6.77;;;;;GS1 US;US
0008346089512;Chewy Granola Meal Bars;Food - Beverage - Tobacco;50000000;;;;http://product.okfn.org.s3.amazonaws.com/images/gtin/gtin-000/0008346089512.jpg;HI8N7I;Slim-Fast;http://product.okfn.org.s3.amazonaws.com/images/brand/HI8N7I.jpg;http://www.slim-fast.com;;;;;;0008346;0008346000005;Slim-Fast Foods Company;US;Englewood;07631;P O Box 6065;;NJ;;0;1;;;;1.97;;;;;GS1 US;US
0008346095940;Snack Bars;Food - Beverage - Tobacco;50000000;;;;http://product.okfn.org.s3.amazonaws.com/images/gtin/gtin-000/0008346095940.jpg;HI8N7I;Slim-Fast;http://product.okfn.org.s3.amazonaws.com/images/brand/HI8N7I.jpg;http://www.slim-fast.com;;;;;;0008346;0008346000005;Slim-Fast Foods Company;US;Englewood;07631;P O Box 6065;;NJ;;0;1;;;240.0;8.4;;;;;GS1 US;US
0008346107377;Meal Bar;Food - Beverage - Tobacco;50000000;;;;http://product.okfn.org.s3.amazonaws.com/images/gtin/gtin-000/0008346107377.jpg;HI8N7I;Slim-Fast;http://product.okfn.org.s3.amazonaws.com/images/brand/HI8N7I.jpg;http://www.slim-fast.com;;;;;;0008346;0008346000005;Slim-Fast Foods Company;US;Englewood;07631;P O Box 6065;;NJ;;0;1;;;336.0;11.85;;;;;GS1 US;US
0008346122011;3-2-1 Plan;Food - Beverage - Tobacco;50000000;;;;http://product.okfn.org.s3.amazonaws.com/images/gtin/gtin-000/0008346122011.jpg;HI8N7I;Slim-Fast;http://product.okfn.org.s3.amazonaws.com/images/brand/HI8N7I.jpg;http://www.slim-fast.com;;;;;;0008346;0008346000005;Slim-Fast Foods Company;US;Englewood;07631;P O Box 6065;;NJ;;0;1;;;;;;;;;GS1 US;US
0008346122042;3-2-1 Plan Ready To Drink Shake Creamy Milk Chocolate Each;Food - Beverage - Tobacco;50000000;;;;http://product.okfn.org.s3.amazonaws.com/images/gtin/gtin-000/0008346122042.jpg;HI8N7I;Slim-Fast;http://product.okfn.org.s3.amazonaws.com/images/brand/HI8N7I.jpg;http://www.slim-fast.com;;;;;;0008346;0008346000005;Slim-Fast Foods Company;US;Englewood;07631;P O Box 6065;;NJ;;0;1;;;;10.0;;;;;GS1 US;US
0008346123278;200 Calorie Meal Bar Chocolate Chip Cookie Dough;Food - Beverage - Tobacco;50000000;;;;http://product.okfn.org.s3.amazonaws.com/images/gtin/gtin-000/0008346123278.jpg;HI8N7I;Slim-Fast;http://product.okfn.org.s3.amazonaws.com/images/brand/HI8N7I.jpg;http://www.slim-fast.com;;;;;;0008346;0008346000005;Slim-Fast Foods Company;US;Englewood;07631;P O Box 6065;;NJ;;0;1;;;624.0;22.01;;;;;GS1 US;US
0008346137442;Fast 3-2-1 Plan Cappuccino Delight Shakes;Food - Beverage - Tobacco;50000000;;;;http://product.okfn.org.s3.amazonaws.com/images/gtin/gtin-000/0008346137442.jpg;HI8N7I;Slim-Fast;http://product.okfn.org.s3.amazonaws.com/images/brand/HI8N7I.jpg;http://www.slim-fast.com;;;;;;0008346;0008346000005;Slim-Fast Foods Company;US;Englewood;07631;P O Box 6065;;NJ;;0;1;;;;;;;;;GS1 US;US
0008346138418;Slim.fast! Ready To Drink Shake French Vanilla;Food - Beverage - Tobacco;50000000;;;;http://product.okfn.org.s3.amazonaws.com/images/gtin/gtin-000/0008346138418.jpg;HI8N7I;Slim-Fast;http://product.okfn.org.s3.amazonaws.com/images/brand/HI8N7I.jpg;http://www.slim-fast.com;;;;;;0008346;0008346000005;Slim-Fast Foods Company;US;Englewood;07631;P O Box 6065;;NJ;;0;1;;;;;;132.0;;;GS1 US;US
0008346145386;Low Carb Meals Shake;Food - Beverage - Tobacco;50000000;;;;http://product.okfn.org.s3.amazonaws.com/images/gtin/gtin-000/0008346145386.jpg;HI8N7I;Slim-Fast;http://product.okfn.org.s3.amazonaws.com/images/brand/HI8N7I.jpg;http://www.slim-fast.com;;;;;;0008346;0008346000005;Slim-Fast Foods Company;US;Englewood;07631;P O Box 6065;;NJ;;0;1;;;;;;11.0;;;GS1 US;US
0008346167388;Meal On-the-go Shakes;Food - Beverage - Tobacco;50000000;;;;http://product.okfn.org.s3.amazonaws.com/images/gtin/gtin-000/0008346167388.jpg;HI8N7I;Slim-Fast;http://product.okfn.org.s3.amazonaws.com/images/brand/HI8N7I.jpg;http://www.slim-fast.com;;;;;;0008346;0008346000005;Slim-Fast Foods Company;US;Englewood;07631;P O Box 6065;;NJ;;0;1;;;;;;88.0;;;GS1 US;US
0008346167494;Meal On-the-go Shakes;Food - Beverage - Tobacco;50000000;;;;http://product.okfn.org.s3.amazonaws.com/images/gtin/gtin-000/0008346167494.jpg;HI8N7I;Slim-Fast;http://product.okfn.org.s3.amazonaws.com/images/brand/HI8N7I.jpg;http://www.slim-fast.com;;;;;;0008346;0008346000005;Slim-Fast Foods Company;US;Englewood;07631;P O Box 6065;;NJ;;0;1;;;;;;88.0;;;GS1 US;US
0008346185931;Snack Bars;Food - Beverage - Tobacco;50000000;;;;http://product.okfn.org.s3.amazonaws.com/images/gtin/gtin-000/0008346185931.jpg;HI8N7I;Slim-Fast;http://product.okfn.org.s3.amazonaws.com/images/brand/HI8N7I.jpg;http://www.slim-fast.com;;;;;;0008346;0008346000005;Slim-Fast Foods Company;US;Englewood;07631;P O Box 6065;;NJ;;0;1;;;170.0;6.0;;;;;GS1 US;US
0008346185948;Snack Bar;Food - Beverage - Tobacco;50000000;;;;http://product.okfn.org.s3.amazonaws.com/images/gtin/gtin-000/0008346185948.jpg;HI8N7I;Slim-Fast;http://product.okfn.org.s3.amazonaws.com/images/brand/HI8N7I.jpg;http://www.slim-fast.com;;;;;;0008346;0008346000005;Slim-Fast Foods Company;US;Englewood;07631;P O Box 6065;;NJ;;0;1;;;;1.05;;;;;GS1 US;US
0008346185955;Snack Bar;Food - Beverage - Tobacco;50000000;;;;http://product.okfn.org.s3.amazonaws.com/images/gtin/gtin-000/0008346185955.jpg;HI8N7I;Slim-Fast;http://product.okfn.org.s3.amazonaws.com/images/brand/HI8N7I.jpg;http://www.slim-fast.com;;;;;;0008346;0008346000005;Slim-Fast Foods Company;US;Englewood;07631;P O Box 6065;;NJ;;0;1;;;180.0;6.34;;;;;GS1 US;US
0008346185962;Snack Bar;Food - Beverage - Tobacco;50000000;;;;http://product.okfn.org.s3.amazonaws.com/images/gtin/gtin-000/0008346185962.jpg;HI8N7I;Slim-Fast;http://product.okfn.org.s3.amazonaws.com/images/brand/HI8N7I.jpg;http://www.slim-fast.com;;;;;;0008346;0008346000005;Slim-Fast Foods Company;US;Englewood;07631;P O Box 6065;;NJ;;0;1;;;170.0;6.0;;;;;GS1 US;US
0008346209606;Meal Bars;Food - Beverage - Tobacco;50000000;;;;http://product.okfn.org.s3.amazonaws.com/images/gtin/gtin-000/0008346209606.jpg;HI8N7I;Slim-Fast;http://product.okfn.org.s3.amazonaws.com/images/brand/HI8N7I.jpg;http://www.slim-fast.com;;;;;;0008346;0008346000005;Slim-Fast Foods Company;US;Englewood;07631;P O Box 6065;;NJ;;0;1;;;240.0;8.46;;;;;GS1 US;US
0008346210015;Meal Bars;Food - Beverage - Tobacco;50000000;;;;http://product.okfn.org.s3.amazonaws.com/images/gtin/gtin-000/0008346210015.jpg;HI8N7I;Slim-Fast;http://product.okfn.org.s3.amazonaws.com/images/brand/HI8N7I.jpg;http://www.slim-fast.com;;;;;;0008346;0008346000005;Slim-Fast Foods Company;US;Englewood;07631;P O Box 6065;;NJ;;0;1;;;288.0;10.15;;;;;GS1 US;US
0008346210145;Meal Bars;Food - Beverage - Tobacco;50000000;;;;http://product.okfn.org.s3.amazonaws.com/images/gtin/gtin-000/0008346210145.jpg;HI8N7I;Slim-Fast;http://product.okfn.org.s3.amazonaws.com/images/brand/HI8N7I.jpg;http://www.slim-fast.com;;;;;;0008346;0008346000005;Slim-Fast Foods Company;US;Englewood;07631;P O Box 6065;;NJ;;0;1;;;288.0;10.15;;;;;GS1 US;US
0008346210824;Shakes;Food - Beverage - Tobacco;50000000;;;;http://product.okfn.org.s3.amazonaws.com/images/gtin/gtin-000/0008346210824.jpg;HI8N7I;Slim-Fast;http://product.okfn.org.s3.amazonaws.com/images/brand/HI8N7I.jpg;http://www.slim-fast.com;;;;;;0008346;0008346000005;Slim-Fast Foods Company;US;Englewood;07631;P O Box 6065;;NJ;;0;1;;;;;;44.0;;;GS1 US;US
0008346215423;Meal On-the-go Bar 12 bars;Food - Beverage - Tobacco;50000000;;;;http://product.okfn.org.s3.amazonaws.com/images/gtin/gtin-000/0008346215423.jpg;HI8N7I;Slim-Fast;http://product.okfn.org.s3.amazonaws.com/images/brand/HI8N7I.jpg;http://www.slim-fast.com;;;;;;0008346;0008346000005;Slim-Fast Foods Company;US;Englewood;07631;P O Box 6065;;NJ;;0;1;;;;;;;;;GS1 US;US
0008346226450;Protein Snack Bars;Food - Beverage - Tobacco;50000000;;;;http://product.okfn.org.s3.amazonaws.com/images/gtin/gtin-000/0008346226450.jpg;HI8N7I;Slim-Fast;http://product.okfn.org.s3.amazonaws.com/images/brand/HI8N7I.jpg;http://www.slim-fast.com;;;;;;0008346;0008346000005;Slim-Fast Foods Company;US;Englewood;07631;P O Box 6065;;NJ;;0;1;;;141.7;5.0;;;;;GS1 US;US
0008346232970;Optima Ready To Drink Shake Cans;Food - Beverage - Tobacco;50000000;;;;http://product.okfn.org.s3.amazonaws.com/images/gtin/gtin-000/0008346232970.jpg;HI8N7I;Slim-Fast;http://product.okfn.org.s3.amazonaws.com/images/brand/HI8N7I.jpg;http://www.slim-fast.com;;;;;;0008346;0008346000005;Slim-Fast Foods Company;US;Englewood;07631;P O Box 6065;;NJ;;0;1;;;;11.0;;;;;GS1 US;US
0008346245703;Meal Bars;Food - Beverage - Tobacco;50000000;;;;http://product.okfn.org.s3.amazonaws.com/images/gtin/gtin-000/0008346245703.jpg;HI8N7I;Slim-Fast;http://product.okfn.org.s3.amazonaws.com/images/brand/HI8N7I.jpg;http://www.slim-fast.com;;;;;;0008346;0008346000005;Slim-Fast Foods Company;US;Englewood;07631;P O Box 6065;;NJ;;0;1;;;;1.76;;;;;GS1 US;US
0008346629596;Healthy Ready To Drink Meal With Soy Protein;Food - Beverage - Tobacco;50000000;;;;http://product.okfn.org.s3.amazonaws.com/images/gtin/gtin-000/0008346629596.jpg;HI8N7I;Slim-Fast;http://product.okfn.org.s3.amazonaws.com/images/brand/HI8N7I.jpg;http://www.slim-fast.com;;;;;;0008346;0008346000005;Slim-Fast Foods Company;US;Englewood;07631;P O Box 6065;;NJ;;0;1;;;;;;11.5;;;GS1 US;US
0008346629602;Healthy Ready To Drink Meal With Soy Protein;Food - Beverage - Tobacco;50000000;;;;http://product.okfn.org.s3.amazonaws.com/images/gtin/gtin-000/0008346629602.jpg;HI8N7I;Slim-Fast;http://product.okfn.org.s3.amazonaws.com/images/brand/HI8N7I.jpg;http://www.slim-fast.com;;;;;;0008346;0008346000005;Slim-Fast Foods Company;US;Englewood;07631;P O Box 6065;;NJ;;0;1;;;;;;11.5;;;GS1 US;US
0008346630417;Healthy Ready To Drink Meals;Food - Beverage - Tobacco;50000000;;;;http://product.okfn.org.s3.amazonaws.com/images/gtin/gtin-000/0008346630417.jpg;HI8N7I;Slim-Fast;http://product.okfn.org.s3.amazonaws.com/images/brand/HI8N7I.jpg;http://www.slim-fast.com;;;;;;0008346;0008346000005;Slim-Fast Foods Company;US;Englewood;07631;P O Box 6065;;NJ;;0;1;;;;;;66.0;;;GS1 US;US
0008346630493;Healthy Ready To Drink Meal;Food - Beverage - Tobacco;50000000;;;;http://product.okfn.org.s3.amazonaws.com/images/gtin/gtin-000/0008346630493.jpg;HI8N7I;Slim-Fast;http://product.okfn.org.s3.amazonaws.com/images/brand/HI8N7I.jpg;http://www.slim-fast.com;;;;;;0008346;0008346000005;Slim-Fast Foods Company;US;Englewood;07631;P O Box 6065;;NJ;;0;1;;;;;;66.0;;;GS1 US;US
0008346630530;Ready To Drink Meals;Food - Beverage - Tobacco;50000000;;;;http://product.okfn.org.s3.amazonaws.com/images/gtin/gtin-000/0008346630530.jpg;HI8N7I;Slim-Fast;http://product.okfn.org.s3.amazonaws.com/images/brand/HI8N7I.jpg;http://www.slim-fast.com;;;;;;0008346;0008346000005;Slim-Fast Foods Company;US;Englewood;07631;P O Box 6065;;NJ;;0;1;;;;;;11.0;;;GS1 US;US
0008372500203;Pepto-Bismol® Tablets, 25 Two-Packs/Box;;;;;;http://product.okfn.org.s3.amazonaws.com/images/gtin/gtin-000/0008372500203.jpg;;;;;;;;;;0008372;0008372000000;C.B.A. Distributing, Inc.;US;Kenner;70065;126 CHATEAU LATOUR;;LA;;0;1;;;;;;;;;GS1 US;US
0008563094269;;;;;;;http://product.okfn.org.s3.amazonaws.com/images/gtin/gtin-000/0008563094269.jpg;;;;;;;;;;0008563;0008563000000;Biscuiterie Poppies N.V.;BE;8690 Moorslede;;Passendalestraat 7A;;;;0;1;;;;;;;;;GS1 US;US
0008576320133;Vandoren Alto Sax Reed Case;;;;;;http://product.okfn.org.s3.amazonaws.com/images/gtin/gtin-000/0008576320133.jpg;H97Q9X;Vandoren;http://product.okfn.org.s3.amazonaws.com/images/brand/H97Q9X.jpg;http://www.vandoren.fr;;;;;;0008576;0008576000004;Vandoren;FR;75018 Paris;;56 Rue Lepic;;;;0;1;;;;;;;;;GS1 US;US
0008640393056;Cool Water Eau De Toilette Natural Spray;Beauty - Personal Care - Hygiene;53000000;;;;http://product.okfn.org.s3.amazonaws.com/images/gtin/gtin-000/0008640393056.jpg;VMFHU4;Davidoff;http://product.okfn.org.s3.amazonaws.com/images/brand/VMFHU4.jpg;http://www.zinodavidoff.com;Coty;000017;http://www.coty.com;http://en.wikipedia.org/wiki/Coty,_Inc.;http://product.okfn.org.s3.amazonaws.com/images/group/000017.jpg;0008640;0657467000007;Virtual Effects Hairware, Inc.;US;Chatsworth;91311;21037 Superior Street;;CA;;0;1;;;;;125.0;4.2;;;GS1 US;US
0008722251144;Serie Expert Absolut Repair Shampoo For Very Damaged Hair;Beauty - Personal Care - Hygiene;53000000;;;;http://product.okfn.org.s3.amazonaws.com/images/gtin/gtin-000/0008722251144.jpg;A2MHI8;L'Oréal Paris;http://product.okfn.org.s3.amazonaws.com/images/brand/A2MHI8.jpg;http://www.loreal-paris.fr;L'Oréal;000016;http://www.loreal.fr;http://en.wikipedia.org/wiki/L%27Oréal;http://product.okfn.org.s3.amazonaws.com/images/group/000016.jpg;0008722;0008722000001;May's Drug Stores, Inc.;US;Tulsa;74133;6705 E. 81st St., Suite 155;;OK;;0;1;;;;;250.0;;;;GS1 US;US
0008742093144;S Factor Smoothing Conditioner;Beauty - Personal Care - Hygiene;53000000;;;;http://product.okfn.org.s3.amazonaws.com/images/gtin/gtin-000/0008742093144.jpg;WAIAA6;TIGI;http://product.okfn.org.s3.amazonaws.com/images/brand/WAIAA6.jpg;http://www.tigiprofessional.com;;;;;;0008742;0008742000005;Jade Isle Product, Inc.;US;Middlesex;08846;121 William Street;;NJ;;0;1;;;;;750.0;;;;GS1 US;US
0008811201722;At Last!;;;;;;http://product.okfn.org.s3.amazonaws.com/images/gtin/gtin-000/0008811201722.jpg;;;;;;;;;;0008811;0076731000008;MCA Records, Inc.;US;Santa Monica;90404;2220 Colorado Ave;;CA;;0;1;;;;;;;;;GS1 US;US
0008825005965;PCMD All-Metal Projector Ceiling Mount with 8 Extension for NEC NP410;;;;;;http://product.okfn.org.s3.amazonaws.com/images/gtin/gtin-000/0008825005965.jpg;;;;;;;;;;0008825;0008825000007;Cajun Seafood Pies By Mr. Bob;US;Jefferson;70121;549 Carol Drive;;LA;;0;1;;;;;;;;;GS1 US;US
0008888166733;;;;;;;http://product.okfn.org.s3.amazonaws.com/images/gtin/gtin-000/0008888166733.jpg;;;;;;;;;;0008888;0008888000006;Ubisoft, Inc.;FR;Cedex-Paris;;1, voie Felix Ebove;;;;0;1;;;;;;;;;GS1 US;US
0008915120004;Tablemate | Tablemate Helium-Quality 12 Assorted Latex Balloons, Solid Colors, 144 Balloons/pack;;;;;;http://product.okfn.org.s3.amazonaws.com/images/gtin/gtin-000/0008915120004.jpg;;;;;;;;;;0008915;0008915000009;Party Paks U.S.A., Inc.;US;San Antonio;92618;7 Autry;;TX;;0;1;;;;;;;;;GS1 US;US
0000054016040;Yaourt à boire Gervais fraise;Food - Beverage - Tobacco;50000000;10000278;50132100;50130000;http://product.okfn.org.s3.amazonaws.com/images/gtin/gtin-000/0000054016040.jpg;XHPBS3;Gervais;http://product.okfn.org.s3.amazonaws.com/images/brand/XHPBS3.jpg;http://www.gervais.fr;;;;;;0000054;5410218000009;JOHN MARTIN S.A.;BE;GENVAL;1332;Rue du Cerf 191;;;2013-08-25;0;4;;;100.0;;;;;;GS1 US;US
0000194003894;Lm Aluminum Guyline Adjuster - 10 Pack;Sports Equipment;71000000;;;;http://product.okfn.org.s3.amazonaws.com/images/gtin/gtin-000/0000194003894.jpg;I1VISX;Liberty Mountain;http://product.okfn.org.s3.amazonaws.com/images/brand/I1VISX.jpg;http://www.libertymountain.com;;;;;;0000194;0000194000008;Liberty Mountain Sports, LLC;US;Salt Lake City;84104;4375 W 1980 S Ste 100;;UT;;0;1;;;;;;;;;GS1 US;US
0000010111604;;;;;;;http://product.okfn.org.s3.amazonaws.com/images/gtin/gtin-000/0000010111604.jpg;;;;;;;;;;0000010;;;;;;;;;;2;1;;;;;;;;;GS1 US;US
0000012302284;;;;;;;http://product.okfn.org.s3.amazonaws.com/images/gtin/gtin-000/0000012302284.jpg;;;;;;;;;;0000012;;;;;;;;;;2;1;;;;;;;;;GS1 US;US
0000004905004;;;;;;;http://product.okfn.org.s3.amazonaws.com/images/gtin/gtin-000/0000004905004.jpg;;;;;;;;;;0000004;;;;;;;;;;5;1;;;;;;;;;GS1 US;US
0000011029090;;;;;;;http://product.okfn.org.s3.amazonaws.com/images/gtin/gtin-000/0000011029090.jpg;;;;;;;;;;0000011;;;;;;;;;;2;1;;;;;;;;;GS1 US;US
0000014085451;;;;;;;http://product.okfn.org.s3.amazonaws.com/images/gtin/gtin-000/0000014085451.jpg;;;;;;;;;;0000014;;;;;;;;;;5;1;;;;;;;;;GS1 US;US
0000020247157;;;;;;;http://product.okfn.org.s3.amazonaws.com/images/gtin/gtin-000/0000020247157.jpg;;;;;;;;;;0000020;;;;;;;;;;5;1;;;;;;;;;GS1 US;US
0000004425816;;;;;;;http://product.okfn.org.s3.amazonaws.com/images/gtin/gtin-000/0000004425816.jpg;;;;;;;;;;0000004;;;;;;;;;;5;1;;;;;;;;;GS1 US;US
0000000010085;;;;;;;http://product.okfn.org.s3.amazonaws.com/images/gtin/gtin-000/0000000010085.jpg;;;;;;;;;;0000000;;;;;;;;;;2;1;;;;;;;;;GS1 US;US
0000000015462;;;;;;;http://product.okfn.org.s3.amazonaws.com/images/gtin/gtin-000/0000000015462.jpg;;;;;;;;;;0000000;;;;;;;;;;2;1;;;;;;;;;GS1 US;US
0000000000017;;;;;;;http://product.okfn.org.s3.amazonaws.com/images/gtin/gtin-000/0000000000017.jpg;;;;;;;;;;0000000;;;;;;;;;;2;1;;;;;;;;;GS1 US;US
0000050375301;;;;;;;http://product.okfn.org.s3.amazonaws.com/images/gtin/gtin-000/0000050375301.jpg;;;;;;;;;;0000050;5010441000007;Numark Limited;GB;Tamworth;B77 4RP;Numark House;4-5 Fairway Court Amber Close;Tamworth Business Park;2013-01-29;99;1;;;;;;;;;GS1 US;US
0000194000275;Gsi 148368 Camp Gourmet Kitchen with Wire Hanging Rack Over Sink;;;;;;http://product.okfn.org.s3.amazonaws.com/images/gtin/gtin-000/0000194000275.jpg;;;;;;;;;;0000194;0000194000008;Liberty Mountain Sports, LLC;US;Salt Lake City;84104;4375 W 1980 S Ste 100;;UT;;0;1;;;;;;;;;GS1 US;US
0000100012965;;;;;;;http://product.okfn.org.s3.amazonaws.com/images/gtin/gtin-000/0000100012965.jpg;;;;;;;;;;0000100;0084898000007;Fortier Associates;US;Sacramento;95826;8155 Belvedere Ave. Suite 110;;CA;;0;1;;;;;;;;;GS1 US;US
0000078930162;|;;;;;;http://product.okfn.org.s3.amazonaws.com/images/gtin/gtin-000/0000078930162.jpg;;;;;;;;;;0000078;;;;;;;;;;2;1;;;;;;;;;GS1 US;US
0000078026520;;;;;;;http://product.okfn.org.s3.amazonaws.com/images/gtin/gtin-000/0000078026520.jpg;;;;;;;;;;0000078;;;;;;;;;;2;1;;;;;;;;;GS1 US;US
0000090169069;;;;;;;http://product.okfn.org.s3.amazonaws.com/images/gtin/gtin-000/0000090169069.jpg;;;;;;;;;;0000090;;;;;;;;;;2;1;;;;;;;;;GS1 US;US
0000090280443;;;;;;;http://product.okfn.org.s3.amazonaws.com/images/gtin/gtin-000/0000090280443.jpg;;;;;;;;;;0000090;;;;;;;;;;2;1;;;;;;;;;GS1 US;US
0001204434240;High Endurance Deodorant Stick Original;Beauty - Personal Care - Hygiene;53000000;;;;http://product.okfn.org.s3.amazonaws.com/images/gtin/gtin-000/0001204434240.jpg;QCATTJ;Old Spice;http://product.okfn.org.s3.amazonaws.com/images/brand/QCATTJ.jpg;http://www.oldspice.com;P&G - Procter & Gamble;000001;http://www.pg.com;http://en.wikipedia.org/wiki/Procter_%26_Gamble;http://product.okfn.org.s3.amazonaws.com/images/group/000001.jpg;0001204;;;;;;;;;;2;1;;;;2.6;;;;;GS1 US;US
0001496005975;Enrich Coarse Hair;Beauty - Personal Care - Hygiene;53000000;;;;http://product.okfn.org.s3.amazonaws.com/images/gtin/gtin-000/0001496005975.jpg;H3TRIU;Wella;http://product.okfn.org.s3.amazonaws.com/images/brand/H3TRIU.jpg;http://www.wella.com;P&G - Procter & Gamble;000001;http://www.pg.com;http://en.wikipedia.org/wiki/Procter_%26_Gamble;http://product.okfn.org.s3.amazonaws.com/images/group/000001.jpg;0001496;;;;;;;;;;2;1;;;;;;;;;GS1 US;US
0001200003068;Throwback Cola;Food - Beverage - Tobacco;50000000;;;;http://product.okfn.org.s3.amazonaws.com/images/gtin/gtin-000/0001200003068.jpg;N6X9AD;Pepsi;http://product.okfn.org.s3.amazonaws.com/images/brand/N6X9AD.jpg;http://www.pepsiusa.com;Pepsico;000012;http://www.pepsico.com;http://en.wikipedia.org/wiki/Pepsico;http://product.okfn.org.s3.amazonaws.com/images/group/000012.jpg;0001200;;;;;;;;;;2;1;;;;;;;;;GS1 US;US
0000842094212;Training Treats for Dogs (Chicken & Chicken Liver Flavor) Small;;;;;;http://product.okfn.org.s3.amazonaws.com/images/gtin/gtin-000/0000842094212.jpg;PBDV4U;Obey;http://product.okfn.org.s3.amazonaws.com/images/brand/PBDV4U.jpg;http://stewartpet.com;;;;;;0000842;0000842000008;Miraclecorp Products, Inc.;US;Dayton;45439;2425 W Dorothy Lane;;OH;;0;1;;;;;;;;;GS1 US;US
0000934681450;Freedom Alert II Newest Dect Model 600 Foot Range-FreedomAlert (60 day return policy);;;;;;http://product.okfn.org.s3.amazonaws.com/images/gtin/gtin-000/0000934681450.jpg;;;;;;;;;;0000934;0000934000008;Alegre Distributors Inc.;US;Kansas City;66115;1401 Fairfax Trafficway, A-138;;KS;;0;1;;;;;;;;;GS1 US;US
0000783135005;"32"" Grab Bar White Latex Free 1/BX";;;;;;http://product.okfn.org.s3.amazonaws.com/images/gtin/gtin-000/0000783135005.jpg;;;;;;;;;;0000783;0000783000006;Cinnamon Twist Bakeries, Ltd.;US;Mesa;85203;410 N. Hunt;;AZ;;0;1;;;;;;;;;GS1 US;US
0000784435005;;;;;;;http://product.okfn.org.s3.amazonaws.com/images/gtin/gtin-000/0000784435005.jpg;;;;;;;;;;0000784;0000784000005;Hillian Interlog, Usa;US;Troy;27371;105 Spencer Street;P.O. Box 842;NC;;0;1;;;;;;;;;GS1 US;US
0000912000006;;;;;;;http://product.okfn.org.s3.amazonaws.com/images/gtin/gtin-000/0000912000006.jpg;;;;;;;;;;0000912;0000912000006;E & E Sales, Inc.;US;Johnson City;37603-5272;P O Box 5272;;TN;;0;1;;;;;;;;;GS1 US;US
0000870000032;;;;;;;http://product.okfn.org.s3.amazonaws.com/images/gtin/gtin-000/0000870000032.jpg;;;;;;;;;;0000870;0811276000003;Vector Tobacco, Inc.;US;Morrisville;27560;PO Box 2010;;NC;;0;1;;;;;;;;;GS1 US;US
0001325633157;;Food - Beverage - Tobacco;50000000;;;;http://product.okfn.org.s3.amazonaws.com/images/gtin/gtin-000/0001325633157.jpg;6VUTXP;No1;http://product.okfn.org.s3.amazonaws.com/images/brand/6VUTXP.jpg;;;;;;;0001325;;;;;;;;;;2;1;;;;;;;;;GS1 US;US
0000346397291;Bosch PS31B 12V Max Cordless Lithium-Ion 3/8-in Drill Driver (Tool Only);Tools - Equipment - Power;82000000;;;;http://product.okfn.org.s3.amazonaws.com/images/gtin/gtin-000/0000346397291.jpg;BK7T7X;Bosch;http://product.okfn.org.s3.amazonaws.com/images/brand/BK7T7X.jpg;http://www.bosch.fr;;;;;;0000346;0000346000016;Robert Bosch Tool Corporation;US;Mount Prospect;60056;1800 West Central;;IL;;0;1;;;;;;;;;GS1 US;US
0000346392548;Bosch PS70B 12V Cordless Lithium-Ion 18-Gauge Metal Shear (Tool Only);Tools - Equipment - Power;82000000;;;;http://product.okfn.org.s3.amazonaws.com/images/gtin/gtin-000/0000346392548.jpg;BK7T7X;Bosch;http://product.okfn.org.s3.amazonaws.com/images/brand/BK7T7X.jpg;http://www.bosch.fr;;;;;;0000346;0000346000016;Robert Bosch Tool Corporation;US;Mount Prospect;60056;1800 West Central;;IL;;0;1;;;;;;;;;GS1 US;US
0000772054249;Trunki Carrying Case (Tote) for Travel Essential - Red;Toys - Games;86000000;;;;http://product.okfn.org.s3.amazonaws.com/images/gtin/gtin-000/0000772054249.jpg;X8GVT7;Melissa & Doug;http://product.okfn.org.s3.amazonaws.com/images/brand/X8GVT7.jpg;http://www.melissaanddoug.com;;;;;;0000772;0000772000000;Melissa & Doug, LLC;US;Wilton;06897;141 Danbury Rd.;;CT;;0;1;;;;;;;;;GS1 US;US
0000346393033;Bosch GTL2 Laser Level Square;Tools - Equipment - Power;82000000;;;;http://product.okfn.org.s3.amazonaws.com/images/gtin/gtin-000/0000346393033.jpg;BK7T7X;Bosch;http://product.okfn.org.s3.amazonaws.com/images/brand/BK7T7X.jpg;http://www.bosch.fr;;;;;;0000346;0000346000016;Robert Bosch Tool Corporation;US;Mount Prospect;60056;1800 West Central;;IL;;0;1;;;;;;;;;GS1 US;US
0000772005289;40-piece Wooden Beginner Pattern Blocks;Toys - Games;86000000;;;;http://product.okfn.org.s3.amazonaws.com/images/gtin/gtin-000/0000772005289.jpg;X8GVT7;Melissa & Doug;http://product.okfn.org.s3.amazonaws.com/images/brand/X8GVT7.jpg;http://www.melissaanddoug.com;;;;;;0000772;0000772000000;Melissa & Doug, LLC;US;Wilton;06897;141 Danbury Rd.;;CT;;0;1;;;;;;;;;GS1 US;US
0000772004947;Wooden Take-Along 24-piece Tool Kit;Toys - Games;86000000;;;;http://product.okfn.org.s3.amazonaws.com/images/gtin/gtin-000/0000772004947.jpg;X8GVT7;Melissa & Doug;http://product.okfn.org.s3.amazonaws.com/images/brand/X8GVT7.jpg;http://www.melissaanddoug.com;;;;;;0000772;0000772000000;Melissa & Doug, LLC;US;Wilton;06897;141 Danbury Rd.;;CT;;0;1;;;;;;;;;GS1 US;US
0000381260635;Burris Scope Cover Waterproof 626063;Sports Equipment;71000000;;;;http://product.okfn.org.s3.amazonaws.com/images/gtin/gtin-000/0000381260635.jpg;4L81GM;Burris;http://product.okfn.org.s3.amazonaws.com/images/brand/4L81GM.jpg;http://www.burrisoptics.com;;;;;;0000381;0000381000002;Burris Company, Inc.;US;Greeley;80632;P.O. Box 1747;;CO;;0;1;;;;;;;;;GS1 US;US
0000772037815;Lace and Trace Farm Animals;Toys - Games;86000000;;;;http://product.okfn.org.s3.amazonaws.com/images/gtin/gtin-000/0000772037815.jpg;X8GVT7;Melissa & Doug;http://product.okfn.org.s3.amazonaws.com/images/brand/X8GVT7.jpg;http://www.melissaanddoug.com;;;;;;0000772;0000772000000;Melissa & Doug, LLC;US;Wilton;06897;141 Danbury Rd.;;CT;;0;1;;;;;;;;;GS1 US;US
0000435857606;IBM 39V1063 Infoprint 1572 MFP Black;;;;;;http://product.okfn.org.s3.amazonaws.com/images/gtin/gtin-000/0000435857606.jpg;1Q9U9Y;IBM;http://product.okfn.org.s3.amazonaws.com/images/brand/1Q9U9Y.jpg;http://www.ibm.com;;;;;;0000435;0000435000002;Ibm United Kingdom Limited;GB;Greenock;6 0AH;P.O. Box 30;;PA1;;0;1;;;;;;;;;GS1 US;US
0000781635002;;;;;;;http://product.okfn.org.s3.amazonaws.com/images/gtin/gtin-000/0000781635002.jpg;;;;;;;;;;0000781;;;;;;;;;;2;1;;;;;;;;;GS1 US;US
0003626880902;me Star Bronzer Magic Brush For Body And Face For Women No. 01 Cuivre;Beauty - Personal Care - Hygiene;53000000;;;;http://product.okfn.org.s3.amazonaws.com/images/gtin/gtin-000/0003626880902.jpg;MPMT3V;Lancôme;http://product.okfn.org.s3.amazonaws.com/images/brand/MPMT3V.jpg;http://www.lancome.fr;L'Oréal;000016;http://www.loreal.fr;http://en.wikipedia.org/wiki/L%27Oréal;http://product.okfn.org.s3.amazonaws.com/images/group/000016.jpg;0003626;;;;;;;;;;2;1;;;;0.105;;;;;GS1 US;US
0002900007226;Maxwell House Lite Ground Coffee Cannister;Food - Beverage - Tobacco;50000000;;;;http://product.okfn.org.s3.amazonaws.com/images/gtin/gtin-000/0002900007226.jpg;NI7JCK;Maxwell House;http://product.okfn.org.s3.amazonaws.com/images/brand/NI7JCK.jpg;http://www.maxwellhouse.fr;Kraft Foods;000003;http://www.kraftfoodscompany.com;http://en.wikipedia.org/wiki/Kraft_Foods;http://product.okfn.org.s3.amazonaws.com/images/group/000003.jpg;0002900;;;;;;;;;;2;1;;;;33.0;;;;;GS1 US;US
0003054481702;Ombre Vibration Duo #15 Sable Or Blanc;Beauty - Personal Care - Hygiene;53000000;;;;http://product.okfn.org.s3.amazonaws.com/images/gtin/gtin-000/0003054481702.jpg;ZG5JZ4;Yves Saint Laurent Beauté;http://product.okfn.org.s3.amazonaws.com/images/brand/ZG5JZ4.jpg;http://www.ysl.com;L'Oréal;000016;http://www.loreal.fr;http://en.wikipedia.org/wiki/L%27Oréal;http://product.okfn.org.s3.amazonaws.com/images/group/000016.jpg;0003054;;;;;;;;;;2;1;;;3.5;;;;;;GS1 US;US
0002900007325;Regular Dry Roasted Peanuts;Food - Beverage - Tobacco;50000000;;;;http://product.okfn.org.s3.amazonaws.com/images/gtin/gtin-000/0002900007325.jpg;P7IQL7;Planters;http://product.okfn.org.s3.amazonaws.com/images/brand/P7IQL7.jpg;http://www.planters.com;Kraft Foods;000003;http://www.kraftfoodscompany.com;http://en.wikipedia.org/wiki/Kraft_Foods;http://product.okfn.org.s3.amazonaws.com/images/group/000003.jpg;0002900;;;;;;;;;;2;1;;;;16.0;;;;;GS1 US;US
0002900007745;Deluxe Lightly Salted Whole Cashews;Food - Beverage - Tobacco;50000000;;;;http://product.okfn.org.s3.amazonaws.com/images/gtin/gtin-000/0002900007745.jpg;P7IQL7;Planters;http://product.okfn.org.s3.amazonaws.com/images/brand/P7IQL7.jpg;http://www.planters.com;Kraft Foods;000003;http://www.kraftfoodscompany.com;http://en.wikipedia.org/wiki/Kraft_Foods;http://product.okfn.org.s3.amazonaws.com/images/group/000003.jpg;0002900;;;;;;;;;;2;1;;;;;;;;;GS1 US;US
0002900001088;Stadium Peanuts;Food - Beverage - Tobacco;50000000;;;;http://product.okfn.org.s3.amazonaws.com/images/gtin/gtin-000/0002900001088.jpg;P7IQL7;Planters;http://product.okfn.org.s3.amazonaws.com/images/brand/P7IQL7.jpg;http://www.planters.com;Kraft Foods;000003;http://www.kraftfoodscompany.com;http://en.wikipedia.org/wiki/Kraft_Foods;http://product.okfn.org.s3.amazonaws.com/images/group/000003.jpg;0002900;;;;;;;;;;2;1;;;;;;;;;GS1 US;US
0002840005597;All Natural Chunky Salsa Mild;Food - Beverage - Tobacco;50000000;;;;http://product.okfn.org.s3.amazonaws.com/images/gtin/gtin-000/0002840005597.jpg;PETUNG;Tostitos;http://product.okfn.org.s3.amazonaws.com/images/brand/PETUNG.jpg;http://www.fritolay.com;;;;;;0002840;;;;;;;;;;2;1;;;;15.5;;;;;GS1 US;US
0002100003356;Queso Blanco Loaf;Food - Beverage - Tobacco;50000000;;;;http://product.okfn.org.s3.amazonaws.com/images/gtin/gtin-000/0002100003356.jpg;MERXI5;Velveeta;http://product.okfn.org.s3.amazonaws.com/images/brand/MERXI5.jpg;http://www.kraftcanada.com;;;;;;0002100;;;;;;;;;;2;1;;;;32.0;;;;;GS1 US;US
0002100074462;The Twin Pack Light;;;;;;http://product.okfn.org.s3.amazonaws.com/images/gtin/gtin-000/0002100074462.jpg;;;;;;;;;;0002100;;;;;;;;;;2;1;;;;;;;;;GS1 US;US
0001834115113;;;;;;;http://product.okfn.org.s3.amazonaws.com/images/gtin/gtin-000/0001834115113.jpg;;;;;;;;;;0001834;;;;;;;;;;2;1;;;;;;;;;GS1 US;US
0000346277869;Carbide-Tipped Plunge Cutting Straight Router Bits - 1/2 c.t. straight router bit 2-flutes 1/;Tools - Equipment - Power;82000000;;;;http://product.okfn.org.s3.amazonaws.com/images/gtin/gtin-000/0000346277869.jpg;BK7T7X;Bosch;http://product.okfn.org.s3.amazonaws.com/images/brand/BK7T7X.jpg;http://www.bosch.fr;;;;;;0000346;0000346000016;Robert Bosch Tool Corporation;US;Mount Prospect;60056;1800 West Central;;IL;;0;1;;;;;;;;;GS1 US;US
0000194207605;7in. Phatty Ultralight Peg - 6 Pack;Sports Equipment;71000000;;;;http://product.okfn.org.s3.amazonaws.com/images/gtin/gtin-000/0000194207605.jpg;I1VISX;Liberty Mountain;http://product.okfn.org.s3.amazonaws.com/images/brand/I1VISX.jpg;http://www.libertymountain.com;;;;;;0000194;0000194000008;Liberty Mountain Sports, LLC;US;Salt Lake City;84104;4375 W 1980 S Ste 100;;UT;;0;1;;;;;;;;;GS1 US;US
0000194348315;Cmi Cmi Rescue 8 Black Nfpa Al;Sports Equipment;71000000;;;;http://product.okfn.org.s3.amazonaws.com/images/gtin/gtin-000/0000194348315.jpg;I1VISX;Liberty Mountain;http://product.okfn.org.s3.amazonaws.com/images/brand/I1VISX.jpg;http://www.libertymountain.com;;;;;;0000194;0000194000008;Liberty Mountain Sports, LLC;US;Salt Lake City;84104;4375 W 1980 S Ste 100;;UT;;0;1;;;;;;;;;GS1 US;US
0000346279665;X 8 SDS-plus S4 Rotary Hammer Bit (Set of 3);Tools - Equipment - Power;82000000;;;;http://product.okfn.org.s3.amazonaws.com/images/gtin/gtin-000/0000346279665.jpg;BK7T7X;Bosch;http://product.okfn.org.s3.amazonaws.com/images/brand/BK7T7X.jpg;http://www.bosch.fr;;;;;;0000346;0000346000016;Robert Bosch Tool Corporation;US;Mount Prospect;60056;1800 West Central;;IL;;0;1;;;;;;;;;GS1 US;US
0000194207636;Stake Nylon Bag - Black;Sports Equipment;71000000;;;;http://product.okfn.org.s3.amazonaws.com/images/gtin/gtin-000/0000194207636.jpg;I1VISX;Liberty Mountain;http://product.okfn.org.s3.amazonaws.com/images/brand/I1VISX.jpg;http://www.libertymountain.com;;;;;;0000194;0000194000008;Liberty Mountain Sports, LLC;US;Salt Lake City;84104;4375 W 1980 S Ste 100;;UT;;0;1;;;;;;;;;GS1 US;US
0000194230085;6ft. x 8Nylon Tarp;Sports Equipment;71000000;;;;http://product.okfn.org.s3.amazonaws.com/images/gtin/gtin-000/0000194230085.jpg;I1VISX;Liberty Mountain;http://product.okfn.org.s3.amazonaws.com/images/brand/I1VISX.jpg;http://www.libertymountain.com;;;;;;0000194;0000194000008;Liberty Mountain Sports, LLC;US;Salt Lake City;84104;4375 W 1980 S Ste 100;;UT;;0;1;;;;;;;;;GS1 US;US
0000194004051;Lm Campers Cup;Sports Equipment;71000000;;;;http://product.okfn.org.s3.amazonaws.com/images/gtin/gtin-000/0000194004051.jpg;I1VISX;Liberty Mountain;http://product.okfn.org.s3.amazonaws.com/images/brand/I1VISX.jpg;http://www.libertymountain.com;;;;;;0000194;0000194000008;Liberty Mountain Sports, LLC;US;Salt Lake City;84104;4375 W 1980 S Ste 100;;UT;;0;1;;;;;;;;;GS1 US;US
0000346313055;16186 2.25 HP Router Motor;Tools - Equipment - Power;82000000;;;;http://product.okfn.org.s3.amazonaws.com/images/gtin/gtin-000/0000346313055.jpg;BK7T7X;Bosch;http://product.okfn.org.s3.amazonaws.com/images/brand/BK7T7X.jpg;http://www.bosch.fr;;;;;;0000346;0000346000016;Robert Bosch Tool Corporation;US;Mount Prospect;60056;1800 West Central;;IL;;0;1;;;;;;;;;GS1 US;US
0000194201016;Easton  6in. Nano Tent Stake - Blue;;;;;;http://product.okfn.org.s3.amazonaws.com/images/gtin/gtin-000/0000194201016.jpg;;;;;;;;;;0000194;0000194000008;Liberty Mountain Sports, LLC;US;Salt Lake City;84104;4375 W 1980 S Ste 100;;UT;;0;1;;;;;;;;;GS1 US;US
0000251750075;WD 2 Way Mini Switch On/On DPDT - Chrome;;;;;;http://product.okfn.org.s3.amazonaws.com/images/gtin/gtin-000/0000251750075.jpg;;;;;;;;;;0000251;0000251000002;Deacero, S.A. De C.V.;MX;Nuevo Leon 64000;;P.O. Box 270;;;;0;1;;;;;;;;;GS1 US;US
0000050143306;;;;;;;http://product.okfn.org.s3.amazonaws.com/images/gtin/gtin-000/0000050143306.jpg;;;;;;;;;;0000050;5010441000007;Numark Limited;GB;Tamworth;B77 4RP;Numark House;4-5 Fairway Court Amber Close;Tamworth Business Park;2013-01-29;99;1;;;;;;;;;GS1 US;US
0000030071704;;;;;;;http://product.okfn.org.s3.amazonaws.com/images/gtin/gtin-000/0000030071704.jpg;;;;;;;;;;0000030;3015375800107;JEAN HENAFF S A S;FR;POULDREUZIC;29710;KER HASTELL;;;2013-02-26;0;1;;;;;;;;;GS1 US;US
0000020327194;;;;;;;http://product.okfn.org.s3.amazonaws.com/images/gtin/gtin-000/0000020327194.jpg;;;;;;;;;;0000020;;;;;;;;;;5;1;;;;;;;;;GS1 US;US
0000024631297;;;;;;;http://product.okfn.org.s3.amazonaws.com/images/gtin/gtin-000/0000024631297.jpg;;;;;;;;;;0000024;;;;;;;;;;5;1;;;;;;;;;GS1 US;US
0000042014874;;;;;;;http://product.okfn.org.s3.amazonaws.com/images/gtin/gtin-000/0000042014874.jpg;;;;;;;;;;0000042;;;;;;;;;;2;1;;;;;;;;;GS1 US;US
0000029004713;;;;;;;http://product.okfn.org.s3.amazonaws.com/images/gtin/gtin-000/0000029004713.jpg;;;;;;;;;;0000029;;;;;;;;;;5;1;;;;;;;;;GS1 US;US
0000029019137;;;;;;;http://product.okfn.org.s3.amazonaws.com/images/gtin/gtin-000/0000029019137.jpg;;;;;;;;;;0000029;;;;;;;;;;5;1;;;;;;;;;GS1 US;US
0000029036547;;;;;;;http://product.okfn.org.s3.amazonaws.com/images/gtin/gtin-000/0000029036547.jpg;;;;;;;;;;0000029;;;;;;;;;;5;1;;;;;;;;;GS1 US;US
0000042186755;;;;;;;http://product.okfn.org.s3.amazonaws.com/images/gtin/gtin-000/0000042186755.jpg;;;;;;;;;;0000042;;;;;;;;;;2;1;;;;;;;;;GS1 US;US
0000042240259;;;;;;;http://product.okfn.org.s3.amazonaws.com/images/gtin/gtin-000/0000042240259.jpg;;;;;;;;;;0000042;;;;;;;;;;2;1;;;;;;;;;GS1 US;US
0005795980902;Color Ideal Precise Match Skin Perfecting Makeup Spf15 # 04 Beige Nature;Beauty - Personal Care - Hygiene;53000000;;;;http://product.okfn.org.s3.amazonaws.com/images/gtin/gtin-000/0005795980902.jpg;MPMT3V;Lancôme;http://product.okfn.org.s3.amazonaws.com/images/brand/MPMT3V.jpg;http://www.lancome.fr;L'Oréal;000016;http://www.loreal.fr;http://en.wikipedia.org/wiki/L%27Oréal;http://product.okfn.org.s3.amazonaws.com/images/group/000016.jpg;0005795;;;;;;;;;;2;1;;;;;30.0;;;;GS1 US;US
0006033327213;Color Touch Shine Intensive Mildly Oxidising Semi-permanent Color 7 73 Warm Golden S, 50 mg,1 count;Beauty - Personal Care - Hygiene;53000000;;;;http://product.okfn.org.s3.amazonaws.com/images/gtin/gtin-000/0006033327213.jpg;H3TRIU;Wella;http://product.okfn.org.s3.amazonaws.com/images/brand/H3TRIU.jpg;http://www.wella.com;P&G - Procter & Gamble;000001;http://www.pg.com;http://en.wikipedia.org/wiki/Procter_%26_Gamble;http://product.okfn.org.s3.amazonaws.com/images/group/000001.jpg;0006033;;;;;;;;;;2;1;;;;;;;;;GS1 US;US
0005215270002;Intensive Care Renew & Protect Moisturizing Lotion;Beauty - Personal Care - Hygiene;53000000;;;;http://product.okfn.org.s3.amazonaws.com/images/gtin/gtin-000/0005215270002.jpg;X9WABN;Vaseline;http://product.okfn.org.s3.amazonaws.com/images/brand/X9WABN.jpg;http://www.vaseline.com;Unilever;000002;http://www.unilever.com;http://en.wikipedia.org/wiki/Unilever;http://product.okfn.org.s3.amazonaws.com/images/group/000002.jpg;0005215;;;;;;;;;;2;1;;;;;;;;;GS1 US;US
0005216714000;Delicate Skin With Sunscreen Age Defying Lotion;Beauty - Personal Care - Hygiene;53000000;;;;http://product.okfn.org.s3.amazonaws.com/images/gtin/gtin-000/0005216714000.jpg;9W76GX;Pond's;http://product.okfn.org.s3.amazonaws.com/images/brand/9W76GX.jpg;http://www.ponds.com;Unilever;000002;http://www.unilever.com;http://en.wikipedia.org/wiki/Unilever;http://product.okfn.org.s3.amazonaws.com/images/group/000002.jpg;0005216;;;;;;;;;;2;1;;;;;;;;;GS1 US;US
0004818630114;Giant Pencil Coffret 3x Matt Giant Lipstick Pencil + 3x Shiny Giant Lipstick Pencil Lip Color Giant Pencil Coffret 6x1;Beauty - Personal Care - Hygiene;53000000;;;;http://product.okfn.org.s3.amazonaws.com/images/gtin/gtin-000/0004818630114.jpg;I2VFL8;Pierre Cardin;http://product.okfn.org.s3.amazonaws.com/images/brand/I2VFL8.jpg;http://www.pierrecardin.com;Coty;000017;http://www.coty.com;http://en.wikipedia.org/wiki/Coty,_Inc.;http://product.okfn.org.s3.amazonaws.com/images/group/000017.jpg;0004818;;;;;;;;;;2;1;;;1.95;;;;;;GS1 US;US
0004682281702;Dessin Du Regard Haute Tenue Long-lasting Eye Pencil Eye Liners;Beauty - Personal Care - Hygiene;53000000;;;;http://product.okfn.org.s3.amazonaws.com/images/gtin/gtin-000/0004682281702.jpg;ZG5JZ4;Yves Saint Laurent Beauté;http://product.okfn.org.s3.amazonaws.com/images/brand/ZG5JZ4.jpg;http://www.ysl.com;L'Oréal;000016;http://www.loreal.fr;http://en.wikipedia.org/wiki/L%27Oréal;http://product.okfn.org.s3.amazonaws.com/images/group/000016.jpg;0004682;;;;;;;;;;2;1;;;1.14;;;;;;GS1 US;US
0004762991101;Help Me Retinol Night Treatment;Beauty - Personal Care - Hygiene;53000000;;;;http://product.okfn.org.s3.amazonaws.com/images/gtin/gtin-000/0004762991101.jpg;ZGUELF;Philosophy;http://product.okfn.org.s3.amazonaws.com/images/brand/ZGUELF.jpg;http://www.philosophy.com;Coty;000017;http://www.coty.com;http://en.wikipedia.org/wiki/Coty,_Inc.;http://product.okfn.org.s3.amazonaws.com/images/group/000017.jpg;0004762;;;;;;;;;;2;1;;;30.0;;;;;;GS1 US;US
0005213884003;Intensive Care Foaming Botanical Garden Enriched With Aloe Creme Bath;Beauty - Personal Care - Hygiene;53000000;;;;http://product.okfn.org.s3.amazonaws.com/images/gtin/gtin-000/0005213884003.jpg;X9WABN;Vaseline;http://product.okfn.org.s3.amazonaws.com/images/brand/X9WABN.jpg;http://www.vaseline.com;Unilever;000002;http://www.unilever.com;http://en.wikipedia.org/wiki/Unilever;http://product.okfn.org.s3.amazonaws.com/images/group/000002.jpg;0005213;;;;;;;;;;2;1;;;;;;;;;GS1 US;US
0004740011548;Sensor Excel Shaving Cartridges 10 ea;Beauty - Personal Care - Hygiene;53000000;;;;http://product.okfn.org.s3.amazonaws.com/images/gtin/gtin-000/0004740011548.jpg;IZMQQG;Gillette;http://product.okfn.org.s3.amazonaws.com/images/brand/IZMQQG.jpg;http://www.gillette.com;P&G - Procter & Gamble;000001;http://www.pg.com;http://en.wikipedia.org/wiki/Procter_%26_Gamble;http://product.okfn.org.s3.amazonaws.com/images/group/000001.jpg;0004740;;;;;;;;;;2;1;;;;;;;;;GS1 US;US
0005210942003;Skin Moisturizer For Oily To Normal Skin Clear Solutions;Beauty - Personal Care - Hygiene;53000000;;;;http://product.okfn.org.s3.amazonaws.com/images/gtin/gtin-000/0005210942003.jpg;9W76GX;Pond's;http://product.okfn.org.s3.amazonaws.com/images/brand/9W76GX.jpg;http://www.ponds.com;Unilever;000002;http://www.unilever.com;http://en.wikipedia.org/wiki/Unilever;http://product.okfn.org.s3.amazonaws.com/images/group/000002.jpg;0005210;;;;;;;;;;2;1;;;;;;;;;GS1 US;US
0005200050633;Vitamin Enhanced Water Beverage Berry;Food - Beverage - Tobacco;50000000;;;;http://product.okfn.org.s3.amazonaws.com/images/gtin/gtin-000/0005200050633.jpg;JNVD3E;Propel;http://product.okfn.org.s3.amazonaws.com/images/brand/JNVD3E.jpg;http://www.propelwater.com;Pepsico;000012;http://www.pepsico.com;http://en.wikipedia.org/wiki/Pepsico;http://product.okfn.org.s3.amazonaws.com/images/group/000012.jpg;0005200;;;;;;;;;;2;1;;;;;;;;;GS1 US;US
0004719584202;Eye Fly Mascara # 12 Fly In Brown Mascara Eye Fly Mascara;Beauty - Personal Care - Hygiene;53000000;;;;http://product.okfn.org.s3.amazonaws.com/images/gtin/gtin-000/0004719584202.jpg;252MSG;Givenchy;http://product.okfn.org.s3.amazonaws.com/images/brand/252MSG.jpg;http://www.givenchy.com;;;;;;0004719;;;;;;;;;;2;1;;;6.0;;;;;;GS1 US;US
0005210605007;Foaming Silky Smooth Skin Waterfresh Breeze Bath & Shower Gel;Beauty - Personal Care - Hygiene;53000000;;;;http://product.okfn.org.s3.amazonaws.com/images/gtin/gtin-000/0005210605007.jpg;FF4HRY;Caress;http://product.okfn.org.s3.amazonaws.com/images/brand/FF4HRY.jpg;http://www.caressskin.com;;;;;;0005210;;;;;;;;;;2;1;;;;;;;;;GS1 US;US
0004800100687;Natural Creamy Peanut Butter;Pet Care - Food;10000000;;;;http://product.okfn.org.s3.amazonaws.com/images/gtin/gtin-000/0004800100687.jpg;NX4BZP;Skippy;http://product.okfn.org.s3.amazonaws.com/images/brand/NX4BZP.jpg;http://www.skippydog.com;;;;;;0004800;;;;;;;;;;2;1;;;;;;;;;GS1 US;US
0004300000333;Beverage Mix;Food - Beverage - Tobacco;50000000;;;;http://product.okfn.org.s3.amazonaws.com/images/gtin/gtin-000/0004300000333.jpg;NI7JCK;Maxwell House;http://product.okfn.org.s3.amazonaws.com/images/brand/NI7JCK.jpg;http://www.maxwellhouse.fr;Kraft Foods;000003;http://www.kraftfoodscompany.com;http://en.wikipedia.org/wiki/Kraft_Foods;http://product.okfn.org.s3.amazonaws.com/images/group/000003.jpg;0004300;;;;;;;;;;2;1;;;239.0;8.4;;;;;GS1 US;US
0004343576703;Deo Pure Antiperspirant Cream;Beauty - Personal Care - Hygiene;53000000;;;;http://product.okfn.org.s3.amazonaws.com/images/gtin/gtin-000/0004343576703.jpg;9YWEKX;Biotherm;http://product.okfn.org.s3.amazonaws.com/images/brand/9YWEKX.jpg;http://www.biotherm.fr;L'Oréal;000016;http://www.loreal.fr;http://en.wikipedia.org/wiki/L%27Oréal;http://product.okfn.org.s3.amazonaws.com/images/group/000016.jpg;0004343;;;;;;;;;;2;1;;;;;75.0;2.53;;;GS1 US;US
0004155452943;Turbo Volum' Express Washable Mascara Very Black;Beauty - Personal Care - Hygiene;53000000;;;;http://product.okfn.org.s3.amazonaws.com/images/gtin/gtin-000/0004155452943.jpg;NCE742;Maybelline New York;http://product.okfn.org.s3.amazonaws.com/images/brand/NCE742.jpg;http://www.maybelline.com;L'Oréal;000016;http://www.loreal.fr;http://en.wikipedia.org/wiki/L%27Oréal;http://product.okfn.org.s3.amazonaws.com/images/group/000016.jpg;0004155;;;;;;;;;;2;1;;;;0.34;;;;;GS1 US;US
0004332881702;Rouge Personnel #09 Frivolous Pink;Beauty - Personal Care - Hygiene;53000000;;;;http://product.okfn.org.s3.amazonaws.com/images/gtin/gtin-000/0004332881702.jpg;ZG5JZ4;Yves Saint Laurent Beauté;http://product.okfn.org.s3.amazonaws.com/images/brand/ZG5JZ4.jpg;http://www.ysl.com;L'Oréal;000016;http://www.loreal.fr;http://en.wikipedia.org/wiki/L%27Oréal;http://product.okfn.org.s3.amazonaws.com/images/group/000016.jpg;0004332;;;;;;;;;;2;1;;;3.3;;;;;;GS1 US;US
0004630881701;Temps Majeur Nutri-creme;Beauty - Personal Care - Hygiene;53000000;;;;http://product.okfn.org.s3.amazonaws.com/images/gtin/gtin-000/0004630881701.jpg;ZG5JZ4;Yves Saint Laurent Beauté;http://product.okfn.org.s3.amazonaws.com/images/brand/ZG5JZ4.jpg;http://www.ysl.com;L'Oréal;000016;http://www.loreal.fr;http://en.wikipedia.org/wiki/L%27Oréal;http://product.okfn.org.s3.amazonaws.com/images/group/000016.jpg;0004630;;;;;;;;;;2;1;;;;;50.0;;;;GS1 US;US
0004155454817;Expert Eyes Twin Brow & Eye Pencils Black;Beauty - Personal Care - Hygiene;53000000;;;;http://product.okfn.org.s3.amazonaws.com/images/gtin/gtin-000/0004155454817.jpg;NCE742;Maybelline New York;http://product.okfn.org.s3.amazonaws.com/images/brand/NCE742.jpg;http://www.maybelline.com;L'Oréal;000016;http://www.loreal.fr;http://en.wikipedia.org/wiki/L%27Oréal;http://product.okfn.org.s3.amazonaws.com/images/group/000016.jpg;0004155;;;;;;;;;;2;1;;;;;;;;;GS1 US;US
0004154807485;Fun Flavors Ice Cream Double Fudge Brownie;Food - Beverage - Tobacco;50000000;;;;http://product.okfn.org.s3.amazonaws.com/images/gtin/gtin-000/0004154807485.jpg;BLEAG9;Edy's;http://product.okfn.org.s3.amazonaws.com/images/brand/BLEAG9.jpg;http://www.edys.com;;;;;;0004154;;;;;;;;;;2;1;;;;48.0;;;;;GS1 US;US
0003663203627;Danimals Crushcup Strawberry Banana Siam Yogurt;Food - Beverage - Tobacco;50000000;;;;http://product.okfn.org.s3.amazonaws.com/images/gtin/gtin-000/0003663203627.jpg;4QEQHU;Dannon;http://product.okfn.org.s3.amazonaws.com/images/brand/4QEQHU.jpg;http://www.dannon.com;;;;;;0003663;;;;;;;;;;2;1;;;;;;;;;GS1 US;US
0004154873886;Slow Churned Light Chocolate Ice Cream;Food - Beverage - Tobacco;50000000;;;;http://product.okfn.org.s3.amazonaws.com/images/gtin/gtin-000/0004154873886.jpg;BLEAG9;Edy's;http://product.okfn.org.s3.amazonaws.com/images/brand/BLEAG9.jpg;http://www.edys.com;;;;;;0004154;;;;;;;;;;2;1;;;;;;;;;GS1 US;US
0004400004552;Easy Cheese Pasteurized Cheese Snack American Flavored;;;;;;http://product.okfn.org.s3.amazonaws.com/images/gtin/gtin-000/0004400004552.jpg;;;;;;;;;;0004400;;;;;;;;;;2;1;;;;8.0;;;;;GS1 US;US
0006794580902;Cils Design Pro Custom Design Double Mascara # 010 Noir & Noir Intense Mascara Cils Design Pro Double Mascara 2x4g;Beauty - Personal Care - Hygiene;53000000;;;;http://product.okfn.org.s3.amazonaws.com/images/gtin/gtin-000/0006794580902.jpg;MPMT3V;Lancôme;http://product.okfn.org.s3.amazonaws.com/images/brand/MPMT3V.jpg;http://www.lancome.fr;L'Oréal;000016;http://www.loreal.fr;http://en.wikipedia.org/wiki/L%27Oréal;http://product.okfn.org.s3.amazonaws.com/images/group/000016.jpg;0006794;;;;;;;;;;2;1;;;4.0;;;;;;GS1 US;US
0006683199901;Erase Eye Gel Eye Care;Beauty - Personal Care - Hygiene;53000000;;;;http://product.okfn.org.s3.amazonaws.com/images/gtin/gtin-000/0006683199901.jpg;UJHNA3;DDF;http://product.okfn.org.s3.amazonaws.com/images/brand/UJHNA3.jpg;http://www.ddfskincare.com;P&G - Procter & Gamble;000001;http://www.pg.com;http://en.wikipedia.org/wiki/Procter_%26_Gamble;http://product.okfn.org.s3.amazonaws.com/images/group/000001.jpg;0006683;;;;;;;;;;2;1;;;;;15.0;0.5;;;GS1 US;US
0007035380701;Secret De Purete Cleansing Milk;Beauty - Personal Care - Hygiene;53000000;;;;http://product.okfn.org.s3.amazonaws.com/images/gtin/gtin-000/0007035380701.jpg;94SMGB;Guerlain;http://product.okfn.org.s3.amazonaws.com/images/brand/94SMGB.jpg;http://www.guerlain.com;LVMH;000015;http://www.lvmh.fr;http://en.wikipedia.org/wiki/LVMH;http://product.okfn.org.s3.amazonaws.com/images/group/000015.jpg;0007035;;;;;;;;;;2;1;;;;;200.0;;;;GS1 US;US
0006702811210;Texture Line Curl Memory Shampoo;Beauty - Personal Care - Hygiene;53000000;;;;http://product.okfn.org.s3.amazonaws.com/images/gtin/gtin-000/0006702811210.jpg;KWYJXH;Artec;http://product.okfn.org.s3.amazonaws.com/images/brand/KWYJXH.jpg;;;;;;;0006702;;;;;;;;;;2;1;;;;;400.0;;;;GS1 US;US
0006457000518;Bcy B500 Bowstring Material Black;;;;;;http://product.okfn.org.s3.amazonaws.com/images/gtin/gtin-000/0006457000518.jpg;;;;;;;;;;0006457;;;;;;;;;;2;1;;;;;;;;;GS1 US;US
0006457201427;Bcy 8125 Bowstring Material White;;;;;;http://product.okfn.org.s3.amazonaws.com/images/gtin/gtin-000/0006457201427.jpg;;;;;;;;;;0006457;;;;;;;;;;2;1;;;;;;;;;GS1 US;US
0006731200283;;;;;;;http://product.okfn.org.s3.amazonaws.com/images/gtin/gtin-000/0006731200283.jpg;;;;;;;;;;0006731;;;;;;;;;;2;1;;;;;;;;;GS1 US;US
0021248104022;Black Pepper;Food - Beverage - Tobacco;50000000;;;;http://product.okfn.org.s3.amazonaws.com/images/gtin/gtin-002/0021248104022.jpg;DSUDX4;Olde Thompson;http://product.okfn.org.s3.amazonaws.com/images/brand/DSUDX4.jpg;http://www.oldethompson.com;;;;;;0021248;0021248000003;Olde Thompson, Inc.;US;Oxnard;93030;3250 Camino Del Sol;;CA;;0;1;;;68.0;2.4;;;;;GS1 US;US
0021248104060;Sea Salt;Food - Beverage - Tobacco;50000000;;;;http://product.okfn.org.s3.amazonaws.com/images/gtin/gtin-002/0021248104060.jpg;DSUDX4;Olde Thompson;http://product.okfn.org.s3.amazonaws.com/images/brand/DSUDX4.jpg;http://www.oldethompson.com;;;;;;0021248;0021248000003;Olde Thompson, Inc.;US;Oxnard;93030;3250 Camino Del Sol;;CA;;0;1;;;127.6;4.5;;;;;GS1 US;US
0021248104077;Garlic Pepper;Food - Beverage - Tobacco;50000000;;;;http://product.okfn.org.s3.amazonaws.com/images/gtin/gtin-002/0021248104077.jpg;DSUDX4;Olde Thompson;http://product.okfn.org.s3.amazonaws.com/images/brand/DSUDX4.jpg;http://www.oldethompson.com;;;;;;0021248;0021248000003;Olde Thompson, Inc.;US;Oxnard;93030;3250 Camino Del Sol;;CA;;0;1;;;90.7;3.2;;;;;GS1 US;US
0021248104169;Chipoltle Seasoning Grinders;Food - Beverage - Tobacco;50000000;;;;http://product.okfn.org.s3.amazonaws.com/images/gtin/gtin-002/0021248104169.jpg;DSUDX4;Olde Thompson;http://product.okfn.org.s3.amazonaws.com/images/brand/DSUDX4.jpg;http://www.oldethompson.com;;;;;;0021248;0021248000003;Olde Thompson, Inc.;US;Oxnard;93030;3250 Camino Del Sol;;CA;;0;1;;;76.0;2.67;;;;;GS1 US;US
0021248140044;Lemon Pepper;Food - Beverage - Tobacco;50000000;;;;http://product.okfn.org.s3.amazonaws.com/images/gtin/gtin-002/0021248140044.jpg;DSUDX4;Olde Thompson;http://product.okfn.org.s3.amazonaws.com/images/brand/DSUDX4.jpg;http://www.oldethompson.com;;;;;;0021248;0021248000003;Olde Thompson, Inc.;US;Oxnard;93030;3250 Camino Del Sol;;CA;;0;1;;;;11.9;;;;;GS1 US;US
0021248140242;Garlic Minced California;Food - Beverage - Tobacco;50000000;;;;http://product.okfn.org.s3.amazonaws.com/images/gtin/gtin-002/0021248140242.jpg;DSUDX4;Olde Thompson;http://product.okfn.org.s3.amazonaws.com/images/brand/DSUDX4.jpg;http://www.oldethompson.com;;;;;;0021248;0021248000003;Olde Thompson, Inc.;US;Oxnard;93030;3250 Camino Del Sol;;CA;;0;1;;;269.3;9.5;;;;;GS1 US;US
0021248140556;Garlic Pepper;Food - Beverage - Tobacco;50000000;;;;http://product.okfn.org.s3.amazonaws.com/images/gtin/gtin-002/0021248140556.jpg;DSUDX4;Olde Thompson;http://product.okfn.org.s3.amazonaws.com/images/brand/DSUDX4.jpg;http://www.oldethompson.com;;;;;;0021248;0021248000003;Olde Thompson, Inc.;US;Oxnard;93030;3250 Camino Del Sol;;CA;;0;1;;;300.0;10.6;;;;;GS1 US;US
0021248150227;Onion California Chopped;Food - Beverage - Tobacco;50000000;;;;http://product.okfn.org.s3.amazonaws.com/images/gtin/gtin-002/0021248150227.jpg;DSUDX4;Olde Thompson;http://product.okfn.org.s3.amazonaws.com/images/brand/DSUDX4.jpg;http://www.oldethompson.com;;;;;;0021248;0021248000003;Olde Thompson, Inc.;US;Oxnard;93030;3250 Camino Del Sol;;CA;;0;1;;;;1.85;;;;;GS1 US;US
0021248150241;Inc. California Garlic Minced;Food - Beverage - Tobacco;50000000;;;;http://product.okfn.org.s3.amazonaws.com/images/gtin/gtin-002/0021248150241.jpg;DSUDX4;Olde Thompson;http://product.okfn.org.s3.amazonaws.com/images/brand/DSUDX4.jpg;http://www.oldethompson.com;;;;;;0021248;0021248000003;Olde Thompson, Inc.;US;Oxnard;93030;3250 Camino Del Sol;;CA;;0;1;;;82.2;2.9;;;;;GS1 US;US
0021248221132;Black Pepper;Food - Beverage - Tobacco;50000000;;;;http://product.okfn.org.s3.amazonaws.com/images/gtin/gtin-002/0021248221132.jpg;DSUDX4;Olde Thompson;http://product.okfn.org.s3.amazonaws.com/images/brand/DSUDX4.jpg;http://www.oldethompson.com;;;;;;0021248;0021248000003;Olde Thompson, Inc.;US;Oxnard;93030;3250 Camino Del Sol;;CA;;0;1;;;318.0;11.2;;;;;GS1 US;US
0021248221149;Garlic Pepper;Food - Beverage - Tobacco;50000000;;;;http://product.okfn.org.s3.amazonaws.com/images/gtin/gtin-002/0021248221149.jpg;DSUDX4;Olde Thompson;http://product.okfn.org.s3.amazonaws.com/images/brand/DSUDX4.jpg;http://www.oldethompson.com;;;;;;0021248;0021248000003;Olde Thompson, Inc.;US;Oxnard;93030;3250 Camino Del Sol;;CA;;0;1;;;460.0;16.2;;;;;GS1 US;US
0021248256011;Black Carousel Spice Rack;Food - Beverage - Tobacco;50000000;;;;http://product.okfn.org.s3.amazonaws.com/images/gtin/gtin-002/0021248256011.jpg;DSUDX4;Olde Thompson;http://product.okfn.org.s3.amazonaws.com/images/brand/DSUDX4.jpg;http://www.oldethompson.com;;;;;;0021248;0021248000003;Olde Thompson, Inc.;US;Oxnard;93030;3250 Camino Del Sol;;CA;;0;1;;;;;;;;;GS1 US;US
0021248256202;Olde Thompson 20-jar Square Stainless Steel Spice Set;;;;;;http://product.okfn.org.s3.amazonaws.com/images/gtin/gtin-002/0021248256202.jpg;;;;;;;;;;0021248;0021248000003;Olde Thompson, Inc.;US;Oxnard;93030;3250 Camino Del Sol;;CA;;0;1;;;;;;;;;GS1 US;US
0021273100150;Gunter's Clover Squeeze Jars;;;;;;http://product.okfn.org.s3.amazonaws.com/images/gtin/gtin-002/0021273100150.jpg;;;;;;;;;;0021273;0021273000009;Gunter Apiaries;US;Front Royal;22630;208 East 17 Street;;VA;;0;1;;;;12.0;;;;;GS1 US;US
0021273200164;Pure Honey Wildflower;;;;;;http://product.okfn.org.s3.amazonaws.com/images/gtin/gtin-002/0021273200164.jpg;;;;;;;;;;0021273;0021273000009;Gunter Apiaries;US;Front Royal;22630;208 East 17 Street;;VA;;0;1;;;;16.0;;;;;GS1 US;US
0021273210163;Honey Buckwheat;;;;;;http://product.okfn.org.s3.amazonaws.com/images/gtin/gtin-002/0021273210163.jpg;;;;;;;;;;0021273;0021273000009;Gunter Apiaries;US;Front Royal;22630;208 East 17 Street;;VA;;0;1;;;;16.0;;;;;GS1 US;US
0021290880004;Colby Jack Cheese Sliced 0.5 lb;;;;;;http://product.okfn.org.s3.amazonaws.com/images/gtin/gtin-002/0021290880004.jpg;;;;;;;;;;0021290;;;;;;;;;;2;1;;;;;;;;;GS1 US;US
0021291001866;Hunters Specialies Wheeze Deer Call;;;;;;http://product.okfn.org.s3.amazonaws.com/images/gtin/gtin-002/0021291001866.jpg;;;;;;;;;;0021291;0021291000005;Hunter's Specialties Inc.;US;Cedar Rapids;52402;6000 Huntington Court, N.E.;;IA;;0;1;;;;;;;;;GS1 US;US
0021292000226;Prestige Lanc 100 In Each;;;;;;http://product.okfn.org.s3.amazonaws.com/images/gtin/gtin-002/0021292000226.jpg;;;;;;;;;;0021292;0021292000004;Nipro Diagnostics, Inc.;US;Fort Lauderdale;33309;2400 NW 55th Court;;FL;;0;1;;;28.0;;;;;;GS1 US;US
0021292001438;Test Strips 50 strips;Healthcare;51000000;;;;http://product.okfn.org.s3.amazonaws.com/images/gtin/gtin-002/0021292001438.jpg;C9BHFA;Walgreens;http://product.okfn.org.s3.amazonaws.com/images/brand/C9BHFA.jpg;http://www.walgreens.com;;;;;;0021292;0021292000004;Nipro Diagnostics, Inc.;US;Fort Lauderdale;33309;2400 NW 55th Court;;FL;;0;1;;;;;;;;;GS1 US;US
0021292550103;Blood Glucose Test Strips 100 test strips;Beauty - Personal Care - Hygiene;53000000;;;;http://product.okfn.org.s3.amazonaws.com/images/gtin/gtin-002/0021292550103.jpg;KVJD1G;Prestige;http://product.okfn.org.s3.amazonaws.com/images/brand/KVJD1G.jpg;http://www.prestigecosmetics.com;;;;;;0021292;0021292000004;Nipro Diagnostics, Inc.;US;Fort Lauderdale;33309;2400 NW 55th Court;;FL;;0;1;;;;;;;;;GS1 US;US
0021292550509;Test Strips 50 test strips;Beauty - Personal Care - Hygiene;53000000;;;;http://product.okfn.org.s3.amazonaws.com/images/gtin/gtin-002/0021292550509.jpg;KVJD1G;Prestige;http://product.okfn.org.s3.amazonaws.com/images/brand/KVJD1G.jpg;http://www.prestigecosmetics.com;;;;;;0021292;0021292000004;Nipro Diagnostics, Inc.;US;Fort Lauderdale;33309;2400 NW 55th Court;;FL;;0;1;;;;;;;;;GS1 US;US
0021292561017;Glucose Control Solution;Beauty - Personal Care - Hygiene;53000000;;;;http://product.okfn.org.s3.amazonaws.com/images/gtin/gtin-002/0021292561017.jpg;KVJD1G;Prestige;http://product.okfn.org.s3.amazonaws.com/images/brand/KVJD1G.jpg;http://www.prestigecosmetics.com;;;;;;0021292;0021292000004;Nipro Diagnostics, Inc.;US;Fort Lauderdale;33309;2400 NW 55th Court;;FL;;0;1;;;;;2.0;;;;GS1 US;US
0021296604673;Chablis;;;;;;http://product.okfn.org.s3.amazonaws.com/images/gtin/gtin-002/0021296604673.jpg;;;;;;;;;;0021296;0082100000005;Canandaigua Wine Co., Inc.;US;Canandaigua;14424;235 North Bloomfield Road;;NY;;0;1;;;;;;50.7;;;GS1 US;US
0021299146682;PRO 3 AAT;Communications;66000000;10001467;68010700;68010000;http://product.okfn.org.s3.amazonaws.com/images/gtin/gtin-002/0021299146682.jpg;MZN8NV;Koss;http://product.okfn.org.s3.amazonaws.com/images/brand/MZN8NV.jpg;http://www.koss.com;;;;;;0021299;0021299000007;Koss Corporation;US;Milwaukee;53212;4129 N. Port Washington Ave.;;WI;;0;1;;;;;;;;;GS1 US;US
0021299155172;HB 79 IR;Communications;66000000;10001467;68010700;68010000;http://product.okfn.org.s3.amazonaws.com/images/gtin/gtin-002/0021299155172.jpg;MZN8NV;Koss;http://product.okfn.org.s3.amazonaws.com/images/brand/MZN8NV.jpg;http://www.koss.com;;;;;;0021299;0021299000007;Koss Corporation;US;Milwaukee;53212;4129 N. Port Washington Ave.;;WI;;0;1;;;;;;;;;GS1 US;US
0021299168486;PATHFINDER;Communications;66000000;10001467;68010700;68010000;http://product.okfn.org.s3.amazonaws.com/images/gtin/gtin-002/0021299168486.jpg;MZN8NV;Koss;http://product.okfn.org.s3.amazonaws.com/images/brand/MZN8NV.jpg;http://www.koss.com;;;;;;0021299;0021299000007;Koss Corporation;US;Milwaukee;53212;4129 N. Port Washington Ave.;;WI;;0;1;;;;;;;;;GS1 US;US
0021299176269;KEB 40;Communications;66000000;10001467;68010700;68010000;http://product.okfn.org.s3.amazonaws.com/images/gtin/gtin-002/0021299176269.jpg;MZN8NV;Koss;http://product.okfn.org.s3.amazonaws.com/images/brand/MZN8NV.jpg;http://www.koss.com;;;;;;0021299;0021299000007;Koss Corporation;US;Milwaukee;53212;4129 N. Port Washington Ave.;;WI;;0;1;;;;;;;;;GS1 US;US
0021300140791;Yellow Cling Sliced Peaches In Heavy Syrup;Food - Beverage - Tobacco;50000000;;;;http://product.okfn.org.s3.amazonaws.com/images/gtin/gtin-002/0021300140791.jpg;64UNGK;Libby's;http://product.okfn.org.s3.amazonaws.com/images/brand/64UNGK.jpg;http://www.verybestbaking.com;;;;;;0021300;0037100000005;Seneca Foods Corporation;US;Marion;14505;3736 S Main St;;NY;;0;1;;;432.0;15.25;;;;;GS1 US;US
0021300149114;Fruit Mix Chunky In Pear Juices Concentrate Cans;Food - Beverage - Tobacco;50000000;;;;http://product.okfn.org.s3.amazonaws.com/images/gtin/gtin-002/0021300149114.jpg;64UNGK;Libby's;http://product.okfn.org.s3.amazonaws.com/images/brand/64UNGK.jpg;http://www.verybestbaking.com;;;;;;0021300;0037100000005;Seneca Foods Corporation;US;Marion;14505;3736 S Main St;;NY;;0;1;;;;15.0;;;;;GS1 US;US
0021300168696;Pears Sliced In Pear Juices Concentrate Cans;Food - Beverage - Tobacco;50000000;;;;http://product.okfn.org.s3.amazonaws.com/images/gtin/gtin-002/0021300168696.jpg;64UNGK;Libby's;http://product.okfn.org.s3.amazonaws.com/images/brand/64UNGK.jpg;http://www.verybestbaking.com;;;;;;0021300;0037100000005;Seneca Foods Corporation;US;Marion;14505;3736 S Main St;;NY;;0;1;;;;15.0;;;;;GS1 US;US
0021300500267;Peach Slices In Lite Syrup;Food - Beverage - Tobacco;50000000;;;;http://product.okfn.org.s3.amazonaws.com/images/gtin/gtin-002/0021300500267.jpg;64UNGK;Libby's;http://product.okfn.org.s3.amazonaws.com/images/brand/64UNGK.jpg;http://www.verybestbaking.com;;;;;;0021300;0037100000005;Seneca Foods Corporation;US;Marion;14505;3736 S Main St;;NY;;0;1;;;;24.5;;;;;GS1 US;US
0021300501028;Splenda Fruit Medley Jars;Food - Beverage - Tobacco;50000000;;;;http://product.okfn.org.s3.amazonaws.com/images/gtin/gtin-002/0021300501028.jpg;64UNGK;Libby's;http://product.okfn.org.s3.amazonaws.com/images/brand/64UNGK.jpg;http://www.verybestbaking.com;;;;;;0021300;0037100000005;Seneca Foods Corporation;US;Marion;14505;3736 S Main St;;NY;;0;1;;;;23.5;;;;;GS1 US;US
0021300501103;Libby's Splenda Pear Halves Cans;Food - Beverage - Tobacco;50000000;;;;http://product.okfn.org.s3.amazonaws.com/images/gtin/gtin-002/0021300501103.jpg;64UNGK;Libby's;http://product.okfn.org.s3.amazonaws.com/images/brand/64UNGK.jpg;http://www.verybestbaking.com;;;;;;0021300;0037100000005;Seneca Foods Corporation;US;Marion;14505;3736 S Main St;;NY;;0;1;;;;14.75;;;;;GS1 US;US
0021306210191;Styling Gel;;;;;;http://product.okfn.org.s3.amazonaws.com/images/gtin/gtin-002/0021306210191.jpg;;;;;;;;;;0021306;0074704000000;Murray's Worldwide Inc.;US;Oak Park;48237;21841 Wyoming St;;MI;;0;1;;;170.1;6.0;;;;;GS1 US;US
0021306210290;Neutralizing Shampoo;;;;;;http://product.okfn.org.s3.amazonaws.com/images/gtin/gtin-002/0021306210290.jpg;;;;;;;;;;0021306;0074704000000;Murray's Worldwide Inc.;US;Oak Park;48237;21841 Wyoming St;;MI;;0;1;;;;8.0;;;;;GS1 US;US
0021306210405;Oil Sheen Light Hair Spray;;;;;;http://product.okfn.org.s3.amazonaws.com/images/gtin/gtin-002/0021306210405.jpg;;;;;;;;;;0021306;0074704000000;Murray's Worldwide Inc.;US;Oak Park;48237;21841 Wyoming St;;MI;;0;1;;;416.75;14.7;;;;;GS1 US;US
0021306210504;Oil Sheen Hair Spray;;;;;;http://product.okfn.org.s3.amazonaws.com/images/gtin/gtin-002/0021306210504.jpg;;;;;;;;;;0021306;0074704000000;Murray's Worldwide Inc.;US;Oak Park;48237;21841 Wyoming St;;MI;;0;1;;;;7.0;;;;;GS1 US;US
0021306211389;24 Hour Holding Spray;;;;;;http://product.okfn.org.s3.amazonaws.com/images/gtin/gtin-002/0021306211389.jpg;;;;;;;;;;0021306;0074704000000;Murray's Worldwide Inc.;US;Oak Park;48237;21841 Wyoming St;;MI;;0;1;;;354.38;12.5;;;;;GS1 US;US
0021306211563;Hormone Hair Food;;;;;;http://product.okfn.org.s3.amazonaws.com/images/gtin/gtin-002/0021306211563.jpg;;;;;;;;;;0021306;0074704000000;Murray's Worldwide Inc.;US;Oak Park;48237;21841 Wyoming St;;MI;;0;1;;;;5.25;;;;;GS1 US;US
0021306211754;Pressing Silk Oil;;;;;;http://product.okfn.org.s3.amazonaws.com/images/gtin/gtin-002/0021306211754.jpg;;;;;;;;;;0021306;0074704000000;Murray's Worldwide Inc.;US;Oak Park;48237;21841 Wyoming St;;MI;;0;1;;;148.83;5.25;;;;;GS1 US;US
0021306211761;Conditioner Deep Penetrating Chemical Repair System;;;;;;http://product.okfn.org.s3.amazonaws.com/images/gtin/gtin-002/0021306211761.jpg;;;;;;;;;;0021306;0074704000000;Murray's Worldwide Inc.;US;Oak Park;48237;21841 Wyoming St;;MI;;0;1;;;;;237.0;8.0;;;GS1 US;US
0021306211839;Spritz Designing And Holding Extra Hold;;;;;;http://product.okfn.org.s3.amazonaws.com/images/gtin/gtin-002/0021306211839.jpg;;;;;;;;;;0021306;0074704000000;Murray's Worldwide Inc.;US;Oak Park;48237;21841 Wyoming St;;MI;;0;1;;;;;;10.0;;;GS1 US;US
0021306211938;Super Hold Spritz;;;;;;http://product.okfn.org.s3.amazonaws.com/images/gtin/gtin-002/0021306211938.jpg;;;;;;;;;;0021306;0074704000000;Murray's Worldwide Inc.;US;Oak Park;48237;21841 Wyoming St;;MI;;0;1;;;;;296.0;10.0;;;GS1 US;US
0021306214113;Cucumber Massage Conditioner;;;;;;http://product.okfn.org.s3.amazonaws.com/images/gtin/gtin-002/0021306214113.jpg;;;;;;;;;;0021306;0074704000000;Murray's Worldwide Inc.;US;Oak Park;48237;21841 Wyoming St;;MI;;0;1;;;113.4;4.0;;;;;GS1 US;US
0021306214250;Relaxer System 1 application;;;;;;http://product.okfn.org.s3.amazonaws.com/images/gtin/gtin-002/0021306214250.jpg;;;;;;;;;;0021306;0074704000000;Murray's Worldwide Inc.;US;Oak Park;48237;21841 Wyoming St;;MI;;0;1;;;;;;;;;GS1 US;US
0021306217039;Conditioning Styling Gel;;;;;;http://product.okfn.org.s3.amazonaws.com/images/gtin/gtin-002/0021306217039.jpg;;;;;;;;;;0021306;0074704000000;Murray's Worldwide Inc.;US;Oak Park;48237;21841 Wyoming St;;MI;;0;1;;;;3.5;;;;;GS1 US;US
0021306217046;Hair & Scalp Oil Light & Natural;;;;;;http://product.okfn.org.s3.amazonaws.com/images/gtin/gtin-002/0021306217046.jpg;;;;;;;;;;0021306;0074704000000;Murray's Worldwide Inc.;US;Oak Park;48237;21841 Wyoming St;;MI;;0;1;;;;3.5;;;;;GS1 US;US
0021306218104;Private Collection Light Pomade With Shea Butter;;;;;;http://product.okfn.org.s3.amazonaws.com/images/gtin/gtin-002/0021306218104.jpg;;;;;;;;;;0021306;0074704000000;Murray's Worldwide Inc.;US;Oak Park;48237;21841 Wyoming St;;MI;;0;1;;;99.0;;;;;;GS1 US;US
0021331131393;;;;;;;http://product.okfn.org.s3.amazonaws.com/images/gtin/gtin-002/0021331131393.jpg;;;;;;;;;;0021331;0021331000002;Sakar International, Inc.;US;Edison;08817;195 Carter Drive;;NJ;;0;1;;;;;;;;;GS1 US;US
0021331199645;Victorious Microphone Stand 19964;;;;;;http://product.okfn.org.s3.amazonaws.com/images/gtin/gtin-002/0021331199645.jpg;;;;;;;;;;0021331;0021331000002;Sakar International, Inc.;US;Edison;08817;195 Carter Drive;;NJ;;0;1;;;;;;;;;GS1 US;US
0021331228499;Gf-0001 Digital Wrist Blood Pressure Monitor Black;;;;;;http://product.okfn.org.s3.amazonaws.com/images/gtin/gtin-002/0021331228499.jpg;;;;;;;;;;0021331;0021331000002;Sakar International, Inc.;US;Edison;08817;195 Carter Drive;;NJ;;0;1;;;;;;;;;GS1 US;US
0021331502322;Gnc Acculndex Gs-7004 Weight And Body Mass Index Bathroom Scale;;;;;;http://product.okfn.org.s3.amazonaws.com/images/gtin/gtin-002/0021331502322.jpg;;;;;;;;;;0021331;0021331000002;Sakar International, Inc.;US;Edison;08817;195 Carter Drive;;NJ;;0;1;;;;;;;;;GS1 US;US
0021331653925;EA ACTIVE 3-PACK RESISTANCE    ACCSBANDS;;;;;;http://product.okfn.org.s3.amazonaws.com/images/gtin/gtin-002/0021331653925.jpg;;;;;;;;;;0021331;0021331000002;Sakar International, Inc.;US;Edison;08817;195 Carter Drive;;NJ;;0;1;;;;;;;;;GS1 US;US
0021331663610;Victorious Cd Karaoke System;;;;;;http://product.okfn.org.s3.amazonaws.com/images/gtin/gtin-002/0021331663610.jpg;;;;;;;;;;0021331;0021331000002;Sakar International, Inc.;US;Edison;08817;195 Carter Drive;;NJ;;0;1;;;;;;;;;GS1 US;US
0021340480000;Filet Mignon 1 filet;;;;;;http://product.okfn.org.s3.amazonaws.com/images/gtin/gtin-002/0021340480000.jpg;;;;;;;;;;0021340;;;;;;;;;;2;1;;;;;;;;;GS1 US;US
0021348321015;;;;;;;http://product.okfn.org.s3.amazonaws.com/images/gtin/gtin-002/0021348321015.jpg;;;;;;;;;;0021348;0021348000002;Tai Wing Wah Restaurant;HK;Yuen Long, N.T.;;2-4 On Ning Road;;;;0;1;;;;;;;;;GS1 US;US
0021355491046;A Yard Of Licorice;;;;;;http://product.okfn.org.s3.amazonaws.com/images/gtin/gtin-002/0021355491046.jpg;;;;;;;;;;0021355;0021355000002;Sahagian & Associates, Inc.;US;Oak Park;60303-0997;P.O. Box 997;;IL;;0;1;;;737.0;26.0;;;;;GS1 US;US
0021357000260;Beef 'n Cheese;;;;;;http://product.okfn.org.s3.amazonaws.com/images/gtin/gtin-002/0021357000260.jpg;;;;;;;;;;0021357;0021357001007;Hickory Farms, Inc.;US;Maumee;43537;P.O. Box 219;;OH;;0;1;;;1.0;;;;;;GS1 US;US
0021357098113;Beef And More;;;;;;http://product.okfn.org.s3.amazonaws.com/images/gtin/gtin-002/0021357098113.jpg;;;;;;;;;;0021357;0021357001007;Hickory Farms, Inc.;US;Maumee;43537;P.O. Box 219;;OH;;0;1;;;1.0;;;;;;GS1 US;US
0021357190046;Beef Summer Sausage Roasted Garlic Recipe;;;;;;http://product.okfn.org.s3.amazonaws.com/images/gtin/gtin-002/0021357190046.jpg;;;;;;;;;;0021357;0021357001007;Hickory Farms, Inc.;US;Maumee;43537;P.O. Box 219;;OH;;0;1;;;453.0;16.0;;;;;GS1 US;US
0021357907101;Snack Sticks Beef Original Recipe;;;;;;http://product.okfn.org.s3.amazonaws.com/images/gtin/gtin-002/0021357907101.jpg;;;;;;;;;;0021357;0021357001007;Hickory Farms, Inc.;US;Maumee;43537;P.O. Box 219;;OH;;0;1;;;;4.5;;;;;GS1 US;US
0021357916219;Jalpeno & Cheddar Blend;;;;;;http://product.okfn.org.s3.amazonaws.com/images/gtin/gtin-002/0021357916219.jpg;;;;;;;;;;0021357;0021357001007;Hickory Farms, Inc.;US;Maumee;43537;P.O. Box 219;;OH;;0;1;;;340.0;12.0;;;;;GS1 US;US
0021357926485;Party Bites;;;;;;http://product.okfn.org.s3.amazonaws.com/images/gtin/gtin-002/0021357926485.jpg;;;;;;;;;;0021357;0021357001007;Hickory Farms, Inc.;US;Maumee;43537;P.O. Box 219;;OH;;0;1;;;;11.0;;;;;GS1 US;US
0021357931229;Meat & Cheese Snack Platter 22;;;;;;http://product.okfn.org.s3.amazonaws.com/images/gtin/gtin-002/0021357931229.jpg;;;;;;;;;;0021357;0021357001007;Hickory Farms, Inc.;US;Maumee;43537;P.O. Box 219;;OH;;0;1;;;;;;;;;GS1 US;US
0021357941587;Pepperoni;;;;;;http://product.okfn.org.s3.amazonaws.com/images/gtin/gtin-002/0021357941587.jpg;;;;;;;;;;0021357;0021357001007;Hickory Farms, Inc.;US;Maumee;43537;P.O. Box 219;;OH;;0;1;;;170.0;6.0;;;;;GS1 US;US
0021363000346;Chia Pets Chia Elephant;;;;;;http://product.okfn.org.s3.amazonaws.com/images/gtin/gtin-002/0021363000346.jpg;;;;;;;;;;0021363;0021363000018;Joseph Enterprises Inc.;US;San Francisco;94104;425 California St Ste 300;;CA;;0;1;;;;;;;;;GS1 US;US
0021363003606;Obama Handmade Decorative Planter Determined;;;;;;http://product.okfn.org.s3.amazonaws.com/images/gtin/gtin-002/0021363003606.jpg;;;;;;;;;;0021363;0021363000018;Joseph Enterprises Inc.;US;San Francisco;94104;425 California St Ste 300;;CA;;0;1;;;;;;;;;GS1 US;US
0021363003668;Obama Handmade Decorative Planter Happy;;;;;;http://product.okfn.org.s3.amazonaws.com/images/gtin/gtin-002/0021363003668.jpg;;;;;;;;;;0021363;0021363000018;Joseph Enterprises Inc.;US;San Francisco;94104;425 California St Ste 300;;CA;;0;1;;;;;;;;;GS1 US;US
0021363101203;Compact Mosquito Repellent 1 each;;;;;;http://product.okfn.org.s3.amazonaws.com/images/gtin/gtin-002/0021363101203.jpg;;;;;;;;;;0021363;0021363000018;Joseph Enterprises Inc.;US;San Francisco;94104;425 California St Ste 300;;CA;;0;1;;;;;;;;;GS1 US;US
0021363535008;All-purpose All-surface Household Cleaner With Sponge Jars;;;;;;http://product.okfn.org.s3.amazonaws.com/images/gtin/gtin-002/0021363535008.jpg;;;;;;;;;;0021363;0021363000018;Joseph Enterprises Inc.;US;San Francisco;94104;425 California St Ste 300;;CA;;0;1;;;;12.0;;;;;GS1 US;US
0021376678969;Dygestem Gum 12 Units;Beauty - Personal Care - Hygiene;53000000;;;;http://product.okfn.org.s3.amazonaws.com/images/gtin/gtin-002/0021376678969.jpg;4ZIVKZ;Peelu;http://product.okfn.org.s3.amazonaws.com/images/brand/4ZIVKZ.jpg;http://www.peelu.com;;;;;;0021376;0021376000005;Peelu Products, Ltd.;US;Fargo;58104;4075 40th Ave SW;;ND;;0;1;;;;;;;;;GS1 US;US
0021376688821;Toothpowder Spearmint;Beauty - Personal Care - Hygiene;53000000;;;;http://product.okfn.org.s3.amazonaws.com/images/gtin/gtin-002/0021376688821.jpg;4ZIVKZ;Peelu;http://product.okfn.org.s3.amazonaws.com/images/brand/4ZIVKZ.jpg;http://www.peelu.com;;;;;;0021376;0021376000005;Peelu Products, Ltd.;US;Fargo;58104;4075 40th Ave SW;;ND;;0;1;;;;0.53;;;;;GS1 US;US
0021376777730;Toothpaste Peppermint;Beauty - Personal Care - Hygiene;53000000;;;;http://product.okfn.org.s3.amazonaws.com/images/gtin/gtin-002/0021376777730.jpg;4ZIVKZ;Peelu;http://product.okfn.org.s3.amazonaws.com/images/brand/4ZIVKZ.jpg;http://www.peelu.com;;;;;;0021376;0021376000005;Peelu Products, Ltd.;US;Fargo;58104;4075 40th Ave SW;;ND;;0;1;;;;;;3.0;;;GS1 US;US
0021376777754;Toothpaste Cinnamon;Beauty - Personal Care - Hygiene;53000000;;;;http://product.okfn.org.s3.amazonaws.com/images/gtin/gtin-002/0021376777754.jpg;4ZIVKZ;Peelu;http://product.okfn.org.s3.amazonaws.com/images/brand/4ZIVKZ.jpg;http://www.peelu.com;;;;;;0021376;0021376000005;Peelu Products, Ltd.;US;Fargo;58104;4075 40th Ave SW;;ND;;0;1;;;;3.0;;;;;GS1 US;US
0021376890446;Toothpaste Peppermint;Beauty - Personal Care - Hygiene;53000000;;;;http://product.okfn.org.s3.amazonaws.com/images/gtin/gtin-002/0021376890446.jpg;4ZIVKZ;Peelu;http://product.okfn.org.s3.amazonaws.com/images/brand/4ZIVKZ.jpg;http://www.peelu.com;;;;;;0021376;0021376000005;Peelu Products, Ltd.;US;Fargo;58104;4075 40th Ave SW;;ND;;0;1;;;;7.0;;;;;GS1 US;US
0021376890866;Dental Chewing Gum 100 piece;Beauty - Personal Care - Hygiene;53000000;;;;http://product.okfn.org.s3.amazonaws.com/images/gtin/gtin-002/0021376890866.jpg;4ZIVKZ;Peelu;http://product.okfn.org.s3.amazonaws.com/images/brand/4ZIVKZ.jpg;http://www.peelu.com;;;;;;0021376;0021376000005;Peelu Products, Ltd.;US;Fargo;58104;4075 40th Ave SW;;ND;;0;1;;;;;;;;;GS1 US;US
0021376890965;Xylitol Dental Chewing Gum 1 case;Beauty - Personal Care - Hygiene;53000000;;;;http://product.okfn.org.s3.amazonaws.com/images/gtin/gtin-002/0021376890965.jpg;4ZIVKZ;Peelu;http://product.okfn.org.s3.amazonaws.com/images/brand/4ZIVKZ.jpg;http://www.peelu.com;;;;;;0021376;0021376000005;Peelu Products, Ltd.;US;Fargo;58104;4075 40th Ave SW;;ND;;0;1;;;;;;;;;GS1 US;US
0021376891092;Dental Chewing Gum 12 piece;Beauty - Personal Care - Hygiene;53000000;;;;http://product.okfn.org.s3.amazonaws.com/images/gtin/gtin-002/0021376891092.jpg;4ZIVKZ;Peelu;http://product.okfn.org.s3.amazonaws.com/images/brand/4ZIVKZ.jpg;http://www.peelu.com;;;;;;0021376;0021376000005;Peelu Products, Ltd.;US;Fargo;58104;4075 40th Ave SW;;ND;;0;1;;;;;;;;;GS1 US;US
0021376899005;Chewing Gum 20 piece;Beauty - Personal Care - Hygiene;53000000;;;;http://product.okfn.org.s3.amazonaws.com/images/gtin/gtin-002/0021376899005.jpg;4ZIVKZ;Peelu;http://product.okfn.org.s3.amazonaws.com/images/brand/4ZIVKZ.jpg;http://www.peelu.com;;;;;;0021376;0021376000005;Peelu Products, Ltd.;US;Fargo;58104;4075 40th Ave SW;;ND;;0;1;;;;;;;;;GS1 US;US
0021376900053;Oral Rinse Peppermint;Beauty - Personal Care - Hygiene;53000000;;;;http://product.okfn.org.s3.amazonaws.com/images/gtin/gtin-002/0021376900053.jpg;4ZIVKZ;Peelu;http://product.okfn.org.s3.amazonaws.com/images/brand/4ZIVKZ.jpg;http://www.peelu.com;;;;;;0021376;0021376000005;Peelu Products, Ltd.;US;Fargo;58104;4075 40th Ave SW;;ND;;0;1;;;;;;16.0;;;GS1 US;US
0021406030019;Bioadhesive Contraceptive Gel;;;;;;http://product.okfn.org.s3.amazonaws.com/images/gtin/gtin-002/0021406030019.jpg;;;;;;;;;;0021406;0021406000005;Columbia Laboratories, Inc.;US;Livingston;07039;Plaza One 2nd Fl;354 Eisenhower Pkwy;NJ;;0;1;;;30.0;1.06;;;;;GS1 US;US
0021406035014;Vaginal Moisturizer 1 tube;;;;;;http://product.okfn.org.s3.amazonaws.com/images/gtin/gtin-002/0021406035014.jpg;;;;;;;;;;0021406;0021406000005;Columbia Laboratories, Inc.;US;Livingston;07039;Plaza One 2nd Fl;354 Eisenhower Pkwy;NJ;;0;1;;;;;;;;;GS1 US;US
0021428951347;Brown Eggs 12 eggs;;;;;;http://product.okfn.org.s3.amazonaws.com/images/gtin/gtin-002/0021428951347.jpg;;;;;;;;;;0021428;0021428000007;John Carlsen Eggs;US;Petaluma;94952;357 McBrown Road;;CA;;0;1;;;;;;;;;GS1 US;US
0021451200641;Juice & Tea;;;;;;http://product.okfn.org.s3.amazonaws.com/images/gtin/gtin-002/0021451200641.jpg;;;;;;;;;;0021451;0023254100005;The Hain Celestial Group, Inc.;US;Lake Success;11042;1111 Marcus Avenue;;NY;;0;1;;;;;946.0;32.0;;;GS1 US;US
0021451209026;Organic Farms Wild Cranberry Nectar;;;;;;http://product.okfn.org.s3.amazonaws.com/images/gtin/gtin-002/0021451209026.jpg;;;;;;;;;;0021451;0023254100005;The Hain Celestial Group, Inc.;US;Lake Success;11042;1111 Marcus Avenue;;NY;;0;1;;;;32.0;;;;;GS1 US;US
0021451209071;100% Juice;;;;;;http://product.okfn.org.s3.amazonaws.com/images/gtin/gtin-002/0021451209071.jpg;;;;;;;;;;0021451;0023254100005;The Hain Celestial Group, Inc.;US;Lake Success;11042;1111 Marcus Avenue;;NY;;0;1;;;;;;32.0;;;GS1 US;US
0021451209088;100% Juice;;;;;;http://product.okfn.org.s3.amazonaws.com/images/gtin/gtin-002/0021451209088.jpg;;;;;;;;;;0021451;0023254100005;The Hain Celestial Group, Inc.;US;Lake Success;11042;1111 Marcus Avenue;;NY;;0;1;;;;32.0;;;;;GS1 US;US
0021451209125;Juice Beverage;;;;;;http://product.okfn.org.s3.amazonaws.com/images/gtin/gtin-002/0021451209125.jpg;;;;;;;;;;0021451;0023254100005;The Hain Celestial Group, Inc.;US;Lake Success;11042;1111 Marcus Avenue;;NY;;0;1;;;;;946.0;32.0;;;GS1 US;US
0021451209217;100% Juice;;;;;;http://product.okfn.org.s3.amazonaws.com/images/gtin/gtin-002/0021451209217.jpg;;;;;;;;;;0021451;0023254100005;The Hain Celestial Group, Inc.;US;Lake Success;11042;1111 Marcus Avenue;;NY;;0;1;;;;32.0;;;;;GS1 US;US
0021451209453;Juice Pure Blueberry;;;;;;http://product.okfn.org.s3.amazonaws.com/images/gtin/gtin-002/0021451209453.jpg;;;;;;;;;;0021451;0023254100005;The Hain Celestial Group, Inc.;US;Lake Success;11042;1111 Marcus Avenue;;NY;;0;1;;;;;946.0;32.0;;;GS1 US;US
0021451209644;Rooibos Tea;;;;;;http://product.okfn.org.s3.amazonaws.com/images/gtin/gtin-002/0021451209644.jpg;;;;;;;;;;0021451;0023254100005;The Hain Celestial Group, Inc.;US;Lake Success;11042;1111 Marcus Avenue;;NY;;0;1;;;;32.0;;;;;GS1 US;US
0021467078388;Fuel P.S.I. Tester Professionsl;;;;;;http://product.okfn.org.s3.amazonaws.com/images/gtin/gtin-002/0021467078388.jpg;;;;;;;;;;0021467;;;;;;;;;;2;1;;;;;;;;;GS1 US;US
0021475020935;Soda Jamaican Pineapple Flavored;;;;;;http://product.okfn.org.s3.amazonaws.com/images/gtin/gtin-002/0021475020935.jpg;;;;;;;;;;0021475;0021475000005;Cambria Master Recordings;US;Lomita;90717;Box 374;;CA;;0;1;;;;;;67.6;;;GS1 US;US
0021475214006;Soda Jamaican Kola Champagne;;;;;;http://product.okfn.org.s3.amazonaws.com/images/gtin/gtin-002/0021475214006.jpg;;;;;;;;;;0021475;0021475000005;Cambria Master Recordings;US;Lomita;90717;Box 374;;CA;;0;1;;;;;354.0;12.0;;;GS1 US;US
0021482499007;Rib Roast 1 roast;;;;;;http://product.okfn.org.s3.amazonaws.com/images/gtin/gtin-002/0021482499007.jpg;;;;;;;;;;0021482;0021482000005;David's Supermarkets, Inc.;US;Grandview;76050;103 E. Criner;P.O. Box 350;TX;;0;1;;;;;;;;;GS1 US;US
0021487762250;Wisconin Spice Uncle Phil's Spicy Brown Mustard;;;;;;http://product.okfn.org.s3.amazonaws.com/images/gtin/gtin-002/0021487762250.jpg;;;;;;;;;;0021487;0021487000000;Wisconsin Spice Inc.;US;Berlin;54923;478 Industrial Park Road;PO BOX 190;WI;;0;1;;;;10.0;;;;;GS1 US;US
0021487767958;Chipotle Mustard;;;;;;http://product.okfn.org.s3.amazonaws.com/images/gtin/gtin-002/0021487767958.jpg;;;;;;;;;;0021487;0021487000000;Wisconsin Spice Inc.;US;Berlin;54923;478 Industrial Park Road;PO BOX 190;WI;;0;1;;;;10.0;;;;;GS1 US;US
0021496372303;Hornet Wasp & Yellow Jacket Killer;;;;;;http://product.okfn.org.s3.amazonaws.com/images/gtin/gtin-002/0021496372303.jpg;;;;;;;;;;0021496;0021496000008;Pennington Seed, Inc.;US;Madison;30650;1280 Atlanta Highway;;GA;;0;1;;;;15.0;;;;;GS1 US;US
0021499144303;Bartenders Choice Fun Colors Round Serving Tray in Melon;;;;;;http://product.okfn.org.s3.amazonaws.com/images/gtin/gtin-002/0021499144303.jpg;;;;;;;;;;0021499;0021499000005;Kraftware Corporation;US;Roselle;07203;270 Cox Street;;NJ;;0;1;;;;;;;;;GS1 US;US
0041520872883;Msm And Glucosamine Complex 60 caplets;Healthcare;51000000;;;;http://product.okfn.org.s3.amazonaws.com/images/gtin/gtin-004/0041520872883.jpg;A2F4MN;CareOne;http://product.okfn.org.s3.amazonaws.com/images/brand/A2F4MN.jpg;http://www.care1.info;;;;;;0041520;0607986000002;Ahold Usa, Inc.;US;Greenville;29607;1200 Brookfield Blvd.;;SC;;0;1;;;;;;;;;GS1 US;US
0041520872890;Glucosamine Chondroitin Complex 120 caplets;Healthcare;51000000;;;;http://product.okfn.org.s3.amazonaws.com/images/gtin/gtin-004/0041520872890.jpg;A2F4MN;CareOne;http://product.okfn.org.s3.amazonaws.com/images/brand/A2F4MN.jpg;http://www.care1.info;;;;;;0041520;0607986000002;Ahold Usa, Inc.;US;Greenville;29607;1200 Brookfield Blvd.;;SC;;0;1;;;;;;;;;GS1 US;US
0041520872913;Glucosamine Chondroitin Complex 110 caplets;Healthcare;51000000;;;;http://product.okfn.org.s3.amazonaws.com/images/gtin/gtin-004/0041520872913.jpg;A2F4MN;CareOne;http://product.okfn.org.s3.amazonaws.com/images/brand/A2F4MN.jpg;http://www.care1.info;;;;;;0041520;0607986000002;Ahold Usa, Inc.;US;Greenville;29607;1200 Brookfield Blvd.;;SC;;0;1;;;;;;;;;GS1 US;US
0041520872944;Vitamin E 50 softgels;Healthcare;51000000;;;;http://product.okfn.org.s3.amazonaws.com/images/gtin/gtin-004/0041520872944.jpg;A2F4MN;CareOne;http://product.okfn.org.s3.amazonaws.com/images/brand/A2F4MN.jpg;http://www.care1.info;;;;;;0041520;0607986000002;Ahold Usa, Inc.;US;Greenville;29607;1200 Brookfield Blvd.;;SC;;0;1;;;;;;;;;GS1 US;US
0041520872982;Soy Lecithin 400 mg, 100 softgels,1 count;Healthcare;51000000;;;;http://product.okfn.org.s3.amazonaws.com/images/gtin/gtin-004/0041520872982.jpg;A2F4MN;CareOne;http://product.okfn.org.s3.amazonaws.com/images/brand/A2F4MN.jpg;http://www.care1.info;;;;;;0041520;0607986000002;Ahold Usa, Inc.;US;Greenville;29607;1200 Brookfield Blvd.;;SC;;0;1;;;;;;;;;GS1 US;US
0041520873002;Garlic Oil 3 mg, 100 softgels,1 count;Healthcare;51000000;;;;http://product.okfn.org.s3.amazonaws.com/images/gtin/gtin-004/0041520873002.jpg;A2F4MN;CareOne;http://product.okfn.org.s3.amazonaws.com/images/brand/A2F4MN.jpg;http://www.care1.info;;;;;;0041520;0607986000002;Ahold Usa, Inc.;US;Greenville;29607;1200 Brookfield Blvd.;;SC;;0;1;;;;;;;;;GS1 US;US
0041520873057;Coenzyme Q-10 50 mg, 30 softgels,1 count;Healthcare;51000000;;;;http://product.okfn.org.s3.amazonaws.com/images/gtin/gtin-004/0041520873057.jpg;A2F4MN;CareOne;http://product.okfn.org.s3.amazonaws.com/images/brand/A2F4MN.jpg;http://www.care1.info;;;;;;0041520;0607986000002;Ahold Usa, Inc.;US;Greenville;29607;1200 Brookfield Blvd.;;SC;;0;1;;;;;;;;;GS1 US;US
0041520873064;Vitamin E 100 softgels;Healthcare;51000000;;;;http://product.okfn.org.s3.amazonaws.com/images/gtin/gtin-004/0041520873064.jpg;A2F4MN;CareOne;http://product.okfn.org.s3.amazonaws.com/images/brand/A2F4MN.jpg;http://www.care1.info;;;;;;0041520;0607986000002;Ahold Usa, Inc.;US;Greenville;29607;1200 Brookfield Blvd.;;SC;;0;1;;;;;;;;;GS1 US;US
0041520873132;Coq-10 & Fish Oil 30 softgels;Healthcare;51000000;;;;http://product.okfn.org.s3.amazonaws.com/images/gtin/gtin-004/0041520873132.jpg;A2F4MN;CareOne;http://product.okfn.org.s3.amazonaws.com/images/brand/A2F4MN.jpg;http://www.care1.info;;;;;;0041520;0607986000002;Ahold Usa, Inc.;US;Greenville;29607;1200 Brookfield Blvd.;;SC;;0;1;;;;;;;;;GS1 US;US
0041520873187;Vitamin C 250 mg, 100 tablet,1 count;Healthcare;51000000;;;;http://product.okfn.org.s3.amazonaws.com/images/gtin/gtin-004/0041520873187.jpg;A2F4MN;CareOne;http://product.okfn.org.s3.amazonaws.com/images/brand/A2F4MN.jpg;http://www.care1.info;;;;;;0041520;0607986000002;Ahold Usa, Inc.;US;Greenville;29607;1200 Brookfield Blvd.;;SC;;0;1;;;;;;;;;GS1 US;US
0041520873248;Zinc Tablets 50 mg, 100 tablet,1 count;Healthcare;51000000;;;;http://product.okfn.org.s3.amazonaws.com/images/gtin/gtin-004/0041520873248.jpg;A2F4MN;CareOne;http://product.okfn.org.s3.amazonaws.com/images/brand/A2F4MN.jpg;http://www.care1.info;;;;;;0041520;0607986000002;Ahold Usa, Inc.;US;Greenville;29607;1200 Brookfield Blvd.;;SC;;0;1;;;;;;;;;GS1 US;US
0041520873262;Selenium 100 tablet;Healthcare;51000000;;;;http://product.okfn.org.s3.amazonaws.com/images/gtin/gtin-004/0041520873262.jpg;A2F4MN;CareOne;http://product.okfn.org.s3.amazonaws.com/images/brand/A2F4MN.jpg;http://www.care1.info;;;;;;0041520;0607986000002;Ahold Usa, Inc.;US;Greenville;29607;1200 Brookfield Blvd.;;SC;;0;1;;;;;;;;;GS1 US;US
0041520873293;Vitamin C 500 mg, 100 tablet,1 count;Healthcare;51000000;;;;http://product.okfn.org.s3.amazonaws.com/images/gtin/gtin-004/0041520873293.jpg;A2F4MN;CareOne;http://product.okfn.org.s3.amazonaws.com/images/brand/A2F4MN.jpg;http://www.care1.info;;;;;;0041520;0607986000002;Ahold Usa, Inc.;US;Greenville;29607;1200 Brookfield Blvd.;;SC;;0;1;;;;;;;;;GS1 US;US
0041520873309;Vitamin C 1000 mg, 60 tablet,1 count;Healthcare;51000000;;;;http://product.okfn.org.s3.amazonaws.com/images/gtin/gtin-004/0041520873309.jpg;A2F4MN;CareOne;http://product.okfn.org.s3.amazonaws.com/images/brand/A2F4MN.jpg;http://www.care1.info;;;;;;0041520;0607986000002;Ahold Usa, Inc.;US;Greenville;29607;1200 Brookfield Blvd.;;SC;;0;1;;;;;;;;;GS1 US;US
0041520873330;Vitamin C 500 mg, 500 caplets,1 count;Healthcare;51000000;;;;http://product.okfn.org.s3.amazonaws.com/images/gtin/gtin-004/0041520873330.jpg;A2F4MN;CareOne;http://product.okfn.org.s3.amazonaws.com/images/brand/A2F4MN.jpg;http://www.care1.info;;;;;;0041520;0607986000002;Ahold Usa, Inc.;US;Greenville;29607;1200 Brookfield Blvd.;;SC;;0;1;;;;;;;;;GS1 US;US
0041520873347;Echinacea Goldenseal 90 caplets;Healthcare;51000000;;;;http://product.okfn.org.s3.amazonaws.com/images/gtin/gtin-004/0041520873347.jpg;A2F4MN;CareOne;http://product.okfn.org.s3.amazonaws.com/images/brand/A2F4MN.jpg;http://www.care1.info;;;;;;0041520;0607986000002;Ahold Usa, Inc.;US;Greenville;29607;1200 Brookfield Blvd.;;SC;;0;1;;;;;;;;;GS1 US;US
0041520873378;Vitamin C 500 mg, 100 caplets,1 count;Healthcare;51000000;;;;http://product.okfn.org.s3.amazonaws.com/images/gtin/gtin-004/0041520873378.jpg;A2F4MN;CareOne;http://product.okfn.org.s3.amazonaws.com/images/brand/A2F4MN.jpg;http://www.care1.info;;;;;;0041520;0607986000002;Ahold Usa, Inc.;US;Greenville;29607;1200 Brookfield Blvd.;;SC;;0;1;;;;;;;;;GS1 US;US
0041520873385;Vitamin C 500 mg, 100 caplets,1 count;Healthcare;51000000;;;;http://product.okfn.org.s3.amazonaws.com/images/gtin/gtin-004/0041520873385.jpg;A2F4MN;CareOne;http://product.okfn.org.s3.amazonaws.com/images/brand/A2F4MN.jpg;http://www.care1.info;;;;;;0041520;0607986000002;Ahold Usa, Inc.;US;Greenville;29607;1200 Brookfield Blvd.;;SC;;0;1;;;;;;;;;GS1 US;US
0041520873415;Potassium 99 mg, 100 caplets,1 count;Healthcare;51000000;;;;http://product.okfn.org.s3.amazonaws.com/images/gtin/gtin-004/0041520873415.jpg;A2F4MN;CareOne;http://product.okfn.org.s3.amazonaws.com/images/brand/A2F4MN.jpg;http://www.care1.info;;;;;;0041520;0607986000002;Ahold Usa, Inc.;US;Greenville;29607;1200 Brookfield Blvd.;;SC;;0;1;;;;;;;;;GS1 US;US
0041520873460;B Complex Vitamins 100 tablet;Healthcare;51000000;;;;http://product.okfn.org.s3.amazonaws.com/images/gtin/gtin-004/0041520873460.jpg;A2F4MN;CareOne;http://product.okfn.org.s3.amazonaws.com/images/brand/A2F4MN.jpg;http://www.care1.info;;;;;;0041520;0607986000002;Ahold Usa, Inc.;US;Greenville;29607;1200 Brookfield Blvd.;;SC;;0;1;;;;;;;;;GS1 US;US
0041520873507;Beauty And Wellness Formula For Women 60 caplets;Healthcare;51000000;;;;http://product.okfn.org.s3.amazonaws.com/images/gtin/gtin-004/0041520873507.jpg;A2F4MN;CareOne;http://product.okfn.org.s3.amazonaws.com/images/brand/A2F4MN.jpg;http://www.care1.info;;;;;;0041520;0607986000002;Ahold Usa, Inc.;US;Greenville;29607;1200 Brookfield Blvd.;;SC;;0;1;;;;;;;;;GS1 US;US
0041520873514;Vitamin D 300 tablet;Healthcare;51000000;;;;http://product.okfn.org.s3.amazonaws.com/images/gtin/gtin-004/0041520873514.jpg;A2F4MN;CareOne;http://product.okfn.org.s3.amazonaws.com/images/brand/A2F4MN.jpg;http://www.care1.info;;;;;;0041520;0607986000002;Ahold Usa, Inc.;US;Greenville;29607;1200 Brookfield Blvd.;;SC;;0;1;;;;;;;;;GS1 US;US
0041520873552;Folic Acid 250 tablet;Healthcare;51000000;;;;http://product.okfn.org.s3.amazonaws.com/images/gtin/gtin-004/0041520873552.jpg;A2F4MN;CareOne;http://product.okfn.org.s3.amazonaws.com/images/brand/A2F4MN.jpg;http://www.care1.info;;;;;;0041520;0607986000002;Ahold Usa, Inc.;US;Greenville;29607;1200 Brookfield Blvd.;;SC;;0;1;;;;;;;;;GS1 US;US
0041520873613;Ginseng 100 mg, 30 softgels,1 count;Healthcare;51000000;;;;http://product.okfn.org.s3.amazonaws.com/images/gtin/gtin-004/0041520873613.jpg;A2F4MN;CareOne;http://product.okfn.org.s3.amazonaws.com/images/brand/A2F4MN.jpg;http://www.care1.info;;;;;;0041520;0607986000002;Ahold Usa, Inc.;US;Greenville;29607;1200 Brookfield Blvd.;;SC;;0;1;;;;;;;;;GS1 US;US
0041520873668;Panax Ginseng 300 mg, 50 caplets,1 count;Healthcare;51000000;;;;http://product.okfn.org.s3.amazonaws.com/images/gtin/gtin-004/0041520873668.jpg;A2F4MN;CareOne;http://product.okfn.org.s3.amazonaws.com/images/brand/A2F4MN.jpg;http://www.care1.info;;;;;;0041520;0607986000002;Ahold Usa, Inc.;US;Greenville;29607;1200 Brookfield Blvd.;;SC;;0;1;;;;;;;;;GS1 US;US
0041520873736;Shampoo Plus Conditioner;Healthcare;51000000;;;;http://product.okfn.org.s3.amazonaws.com/images/gtin/gtin-004/0041520873736.jpg;A2F4MN;CareOne;http://product.okfn.org.s3.amazonaws.com/images/brand/A2F4MN.jpg;http://www.care1.info;;;;;;0041520;0607986000002;Ahold Usa, Inc.;US;Greenville;29607;1200 Brookfield Blvd.;;SC;;0;1;;;;;375.0;12.6;;;GS1 US;US
0041520873859;Ginkgo Biloba 120 mg, 180 caplets,1 count;Healthcare;51000000;;;;http://product.okfn.org.s3.amazonaws.com/images/gtin/gtin-004/0041520873859.jpg;A2F4MN;CareOne;http://product.okfn.org.s3.amazonaws.com/images/brand/A2F4MN.jpg;http://www.care1.info;;;;;;0041520;0607986000002;Ahold Usa, Inc.;US;Greenville;29607;1200 Brookfield Blvd.;;SC;;0;1;;;;;;;;;GS1 US;US
0041520873903;Century Cardio Health Formula 70 tablet;Healthcare;51000000;;;;http://product.okfn.org.s3.amazonaws.com/images/gtin/gtin-004/0041520873903.jpg;A2F4MN;CareOne;http://product.okfn.org.s3.amazonaws.com/images/brand/A2F4MN.jpg;http://www.care1.info;;;;;;0041520;0607986000002;Ahold Usa, Inc.;US;Greenville;29607;1200 Brookfield Blvd.;;SC;;0;1;;;;;;;;;GS1 US;US
0041520873965;Red Yeast Rice 600 mg, 60 capsule,1 count;Healthcare;51000000;;;;http://product.okfn.org.s3.amazonaws.com/images/gtin/gtin-004/0041520873965.jpg;A2F4MN;CareOne;http://product.okfn.org.s3.amazonaws.com/images/brand/A2F4MN.jpg;http://www.care1.info;;;;;;0041520;0607986000002;Ahold Usa, Inc.;US;Greenville;29607;1200 Brookfield Blvd.;;SC;;0;1;;;;;;;;;GS1 US;US
0041520873972;Glucosamine Chondroitin Complex 110 caplets;Healthcare;51000000;;;;http://product.okfn.org.s3.amazonaws.com/images/gtin/gtin-004/0041520873972.jpg;A2F4MN;CareOne;http://product.okfn.org.s3.amazonaws.com/images/brand/A2F4MN.jpg;http://www.care1.info;;;;;;0041520;0607986000002;Ahold Usa, Inc.;US;Greenville;29607;1200 Brookfield Blvd.;;SC;;0;1;;;;;;;;;GS1 US;US
0041520874023;Zoo Chews;Healthcare;51000000;;;;http://product.okfn.org.s3.amazonaws.com/images/gtin/gtin-004/0041520874023.jpg;A2F4MN;CareOne;http://product.okfn.org.s3.amazonaws.com/images/brand/A2F4MN.jpg;http://www.care1.info;;;;;;0041520;0607986000002;Ahold Usa, Inc.;US;Greenville;29607;1200 Brookfield Blvd.;;SC;;0;1;;;60.0;;;;;;GS1 US;US
0041520874344;Corn Holders 8 corn holders;;;;;;http://product.okfn.org.s3.amazonaws.com/images/gtin/gtin-004/0041520874344.jpg;;;;;;;;;;0041520;0607986000002;Ahold Usa, Inc.;US;Greenville;29607;1200 Brookfield Blvd.;;SC;;0;1;;;;;;;;;GS1 US;US
0041520874474;Isopropyl Alcohol;;;;;;http://product.okfn.org.s3.amazonaws.com/images/gtin/gtin-004/0041520874474.jpg;NDF3YC;Guaranteed value;http://product.okfn.org.s3.amazonaws.com/images/brand/NDF3YC.jpg;http://www.giantfoodstores.com;;;;;;0041520;0607986000002;Ahold Usa, Inc.;US;Greenville;29607;1200 Brookfield Blvd.;;SC;;0;1;;;;;355.0;12.0;;;GS1 US;US
0041520874658;Toothbrushes 2 toothbrushes;Healthcare;51000000;;;;http://product.okfn.org.s3.amazonaws.com/images/gtin/gtin-004/0041520874658.jpg;A2F4MN;CareOne;http://product.okfn.org.s3.amazonaws.com/images/brand/A2F4MN.jpg;http://www.care1.info;;;;;;0041520;0607986000002;Ahold Usa, Inc.;US;Greenville;29607;1200 Brookfield Blvd.;;SC;;0;1;;;;;;;;;GS1 US;US
0041520875105;Ointment;Baby Care;54000000;;;;http://product.okfn.org.s3.amazonaws.com/images/gtin/gtin-004/0041520875105.jpg;ILXJID;Cottontails;http://product.okfn.org.s3.amazonaws.com/images/brand/ILXJID.jpg;http://www.giantfoodstores.com;;;;;;0041520;0607986000002;Ahold Usa, Inc.;US;Greenville;29607;1200 Brookfield Blvd.;;SC;;0;1;;;113.0;4.0;;;;;GS1 US;US
0041520875112;Foam Padding 2 strips;Healthcare;51000000;;;;http://product.okfn.org.s3.amazonaws.com/images/gtin/gtin-004/0041520875112.jpg;A2F4MN;CareOne;http://product.okfn.org.s3.amazonaws.com/images/brand/A2F4MN.jpg;http://www.care1.info;;;;;;0041520;0607986000002;Ahold Usa, Inc.;US;Greenville;29607;1200 Brookfield Blvd.;;SC;;0;1;;;;;;;;;GS1 US;US
0041520875648;Cushion Insoles 1 pair;Healthcare;51000000;;;;http://product.okfn.org.s3.amazonaws.com/images/gtin/gtin-004/0041520875648.jpg;A2F4MN;CareOne;http://product.okfn.org.s3.amazonaws.com/images/brand/A2F4MN.jpg;http://www.care1.info;;;;;;0041520;0607986000002;Ahold Usa, Inc.;US;Greenville;29607;1200 Brookfield Blvd.;;SC;;0;1;;;;;;;;;GS1 US;US
0041520875815;Dog Toy Ball 1 toy;Pet Care - Food;10000000;;;;http://product.okfn.org.s3.amazonaws.com/images/gtin/gtin-004/0041520875815.jpg;4L59XH;Companion;http://product.okfn.org.s3.amazonaws.com/images/brand/4L59XH.jpg;;;;;;;0041520;0607986000002;Ahold Usa, Inc.;US;Greenville;29607;1200 Brookfield Blvd.;;SC;;0;1;;;;;;;;;GS1 US;US
0041520876126;Waste Bag Dispenser Refills 48 bags;Pet Care - Food;10000000;;;;http://product.okfn.org.s3.amazonaws.com/images/gtin/gtin-004/0041520876126.jpg;4L59XH;Companion;http://product.okfn.org.s3.amazonaws.com/images/brand/4L59XH.jpg;;;;;;;0041520;0607986000002;Ahold Usa, Inc.;US;Greenville;29607;1200 Brookfield Blvd.;;SC;;0;1;;;;;;;;;GS1 US;US
0041520876256;Bandages 30 bandages;Healthcare;51000000;;;;http://product.okfn.org.s3.amazonaws.com/images/gtin/gtin-004/0041520876256.jpg;A2F4MN;CareOne;http://product.okfn.org.s3.amazonaws.com/images/brand/A2F4MN.jpg;http://www.care1.info;;;;;;0041520;0607986000002;Ahold Usa, Inc.;US;Greenville;29607;1200 Brookfield Blvd.;;SC;;0;1;;;;;;;;;GS1 US;US
0041520876355;Bone Compressed Variety Pack 4 bones;Pet Care - Food;10000000;;;;http://product.okfn.org.s3.amazonaws.com/images/gtin/gtin-004/0041520876355.jpg;4L59XH;Companion;http://product.okfn.org.s3.amazonaws.com/images/brand/4L59XH.jpg;;;;;;;0041520;0607986000002;Ahold Usa, Inc.;US;Greenville;29607;1200 Brookfield Blvd.;;SC;;0;1;;;;;;;;;GS1 US;US
0041520876799;One One Daily 50 tablet;;;;;;http://product.okfn.org.s3.amazonaws.com/images/gtin/gtin-004/0041520876799.jpg;;;;;;;;;;0041520;0607986000002;Ahold Usa, Inc.;US;Greenville;29607;1200 Brookfield Blvd.;;SC;;0;1;;;;;;;;;GS1 US;US
0041520876928;Cat Toy Flea 1 toy;Pet Care - Food;10000000;;;;http://product.okfn.org.s3.amazonaws.com/images/gtin/gtin-004/0041520876928.jpg;4L59XH;Companion;http://product.okfn.org.s3.amazonaws.com/images/brand/4L59XH.jpg;;;;;;;0041520;0607986000002;Ahold Usa, Inc.;US;Greenville;29607;1200 Brookfield Blvd.;;SC;;0;1;;;;;;;;;GS1 US;US
0041520877079;Adjustable Collar 1 collar;Pet Care - Food;10000000;;;;http://product.okfn.org.s3.amazonaws.com/images/gtin/gtin-004/0041520877079.jpg;4L59XH;Companion;http://product.okfn.org.s3.amazonaws.com/images/brand/4L59XH.jpg;;;;;;;0041520;0607986000002;Ahold Usa, Inc.;US;Greenville;29607;1200 Brookfield Blvd.;;SC;;0;1;;;;;;;;;GS1 US;US
0041520877147;Adjustable Collar 1 collar;Pet Care - Food;10000000;;;;http://product.okfn.org.s3.amazonaws.com/images/gtin/gtin-004/0041520877147.jpg;4L59XH;Companion;http://product.okfn.org.s3.amazonaws.com/images/brand/4L59XH.jpg;;;;;;;0041520;0607986000002;Ahold Usa, Inc.;US;Greenville;29607;1200 Brookfield Blvd.;;SC;;0;1;;;;;;;;;GS1 US;US
0041520877222;Leash Toy 1 leash;Pet Care - Food;10000000;;;;http://product.okfn.org.s3.amazonaws.com/images/gtin/gtin-004/0041520877222.jpg;4L59XH;Companion;http://product.okfn.org.s3.amazonaws.com/images/brand/4L59XH.jpg;;;;;;;0041520;0607986000002;Ahold Usa, Inc.;US;Greenville;29607;1200 Brookfield Blvd.;;SC;;0;1;;;;;;;;;GS1 US;US
0041520877338;Bristle Brush 1 brush;Pet Care - Food;10000000;;;;http://product.okfn.org.s3.amazonaws.com/images/gtin/gtin-004/0041520877338.jpg;4L59XH;Companion;http://product.okfn.org.s3.amazonaws.com/images/brand/4L59XH.jpg;;;;;;;0041520;0607986000002;Ahold Usa, Inc.;US;Greenville;29607;1200 Brookfield Blvd.;;SC;;0;1;;;;;;;;;GS1 US;US
0041520877383;Leash Medium 1 leash;Pet Care - Food;10000000;;;;http://product.okfn.org.s3.amazonaws.com/images/gtin/gtin-004/0041520877383.jpg;4L59XH;Companion;http://product.okfn.org.s3.amazonaws.com/images/brand/4L59XH.jpg;;;;;;;0041520;0607986000002;Ahold Usa, Inc.;US;Greenville;29607;1200 Brookfield Blvd.;;SC;;0;1;;;;;;;;;GS1 US;US
0041520877499;Safety Collar 1 collar;Pet Care - Food;10000000;;;;http://product.okfn.org.s3.amazonaws.com/images/gtin/gtin-004/0041520877499.jpg;4L59XH;Companion;http://product.okfn.org.s3.amazonaws.com/images/brand/4L59XH.jpg;;;;;;;0041520;0607986000002;Ahold Usa, Inc.;US;Greenville;29607;1200 Brookfield Blvd.;;SC;;0;1;;;;;;;;;GS1 US;US
0041520877703;Bandages 100 bandages;Healthcare;51000000;;;;http://product.okfn.org.s3.amazonaws.com/images/gtin/gtin-004/0041520877703.jpg;A2F4MN;CareOne;http://product.okfn.org.s3.amazonaws.com/images/brand/A2F4MN.jpg;http://www.care1.info;;;;;;0041520;0607986000002;Ahold Usa, Inc.;US;Greenville;29607;1200 Brookfield Blvd.;;SC;;0;1;;;;;;;;;GS1 US;US
0041520877895;Antiseptic;Healthcare;51000000;;;;http://product.okfn.org.s3.amazonaws.com/images/gtin/gtin-004/0041520877895.jpg;A2F4MN;CareOne;http://product.okfn.org.s3.amazonaws.com/images/brand/A2F4MN.jpg;http://www.care1.info;;;;;;0041520;0607986000002;Ahold Usa, Inc.;US;Greenville;29607;1200 Brookfield Blvd.;;SC;;0;1;;;;;;33.8;;;GS1 US;US
0041520877949;Magnum 5 Blade Razor Trimmer & Travel Case 1 set;Healthcare;51000000;;;;http://product.okfn.org.s3.amazonaws.com/images/gtin/gtin-004/0041520877949.jpg;A2F4MN;CareOne;http://product.okfn.org.s3.amazonaws.com/images/brand/A2F4MN.jpg;http://www.care1.info;;;;;;0041520;0607986000002;Ahold Usa, Inc.;US;Greenville;29607;1200 Brookfield Blvd.;;SC;;0;1;;;;;;;;;GS1 US;US
0041520878120;Travel Kit 1 kit;Healthcare;51000000;;;;http://product.okfn.org.s3.amazonaws.com/images/gtin/gtin-004/0041520878120.jpg;A2F4MN;CareOne;http://product.okfn.org.s3.amazonaws.com/images/brand/A2F4MN.jpg;http://www.care1.info;;;;;;0041520;0607986000002;Ahold Usa, Inc.;US;Greenville;29607;1200 Brookfield Blvd.;;SC;;0;1;;;;;;;;;GS1 US;US
0041520878137;Travel Kit 1 kit;Healthcare;51000000;;;;http://product.okfn.org.s3.amazonaws.com/images/gtin/gtin-004/0041520878137.jpg;A2F4MN;CareOne;http://product.okfn.org.s3.amazonaws.com/images/brand/A2F4MN.jpg;http://www.care1.info;;;;;;0041520;0607986000002;Ahold Usa, Inc.;US;Greenville;29607;1200 Brookfield Blvd.;;SC;;0;1;;;;;;;;;GS1 US;US
0041520878540;Hand Soap;Healthcare;51000000;;;;http://product.okfn.org.s3.amazonaws.com/images/gtin/gtin-004/0041520878540.jpg;A2F4MN;CareOne;http://product.okfn.org.s3.amazonaws.com/images/brand/A2F4MN.jpg;http://www.care1.info;;;;;;0041520;0607986000002;Ahold Usa, Inc.;US;Greenville;29607;1200 Brookfield Blvd.;;SC;;0;1;;;;;236.0;8.0;;;GS1 US;US
0041520879400;Bubble Bath;Healthcare;51000000;;;;http://product.okfn.org.s3.amazonaws.com/images/gtin/gtin-004/0041520879400.jpg;A2F4MN;CareOne;http://product.okfn.org.s3.amazonaws.com/images/brand/A2F4MN.jpg;http://www.care1.info;;;;;;0041520;0607986000002;Ahold Usa, Inc.;US;Greenville;29607;1200 Brookfield Blvd.;;SC;;0;1;;;;;591.0;20.0;;;GS1 US;US
0041520879660;Women's Bone Health 100 caplets;Healthcare;51000000;;;;http://product.okfn.org.s3.amazonaws.com/images/gtin/gtin-004/0041520879660.jpg;A2F4MN;CareOne;http://product.okfn.org.s3.amazonaws.com/images/brand/A2F4MN.jpg;http://www.care1.info;;;;;;0041520;0607986000002;Ahold Usa, Inc.;US;Greenville;29607;1200 Brookfield Blvd.;;SC;;0;1;;;;;;;;;GS1 US;US
0041520879707;Acne Gel;Healthcare;51000000;;;;http://product.okfn.org.s3.amazonaws.com/images/gtin/gtin-004/0041520879707.jpg;A2F4MN;CareOne;http://product.okfn.org.s3.amazonaws.com/images/brand/A2F4MN.jpg;http://www.care1.info;;;;;;0041520;0607986000002;Ahold Usa, Inc.;US;Greenville;29607;1200 Brookfield Blvd.;;SC;;0;1;;;28.0;1.0;;;;;GS1 US;US
0041520879738;Rawhide Chew 1 bone;Pet Care - Food;10000000;;;;http://product.okfn.org.s3.amazonaws.com/images/gtin/gtin-004/0041520879738.jpg;4L59XH;Companion;http://product.okfn.org.s3.amazonaws.com/images/brand/4L59XH.jpg;;;;;;;0041520;0607986000002;Ahold Usa, Inc.;US;Greenville;29607;1200 Brookfield Blvd.;;SC;;0;1;;;;;;;;;GS1 US;US
0041520879745;Toothbrush 1 toothbrush;Healthcare;51000000;;;;http://product.okfn.org.s3.amazonaws.com/images/gtin/gtin-004/0041520879745.jpg;A2F4MN;CareOne;http://product.okfn.org.s3.amazonaws.com/images/brand/A2F4MN.jpg;http://www.care1.info;;;;;;0041520;0607986000002;Ahold Usa, Inc.;US;Greenville;29607;1200 Brookfield Blvd.;;SC;;0;1;;;;;;;;;GS1 US;US
0041520879752;Toothbrush 1 toothbrush;Healthcare;51000000;;;;http://product.okfn.org.s3.amazonaws.com/images/gtin/gtin-004/0041520879752.jpg;A2F4MN;CareOne;http://product.okfn.org.s3.amazonaws.com/images/brand/A2F4MN.jpg;http://www.care1.info;;;;;;0041520;0607986000002;Ahold Usa, Inc.;US;Greenville;29607;1200 Brookfield Blvd.;;SC;;0;1;;;;;;;;;GS1 US;US
0041520879950;Nail Buffing Block 1 block;Healthcare;51000000;;;;http://product.okfn.org.s3.amazonaws.com/images/gtin/gtin-004/0041520879950.jpg;A2F4MN;CareOne;http://product.okfn.org.s3.amazonaws.com/images/brand/A2F4MN.jpg;http://www.care1.info;;;;;;0041520;0607986000002;Ahold Usa, Inc.;US;Greenville;29607;1200 Brookfield Blvd.;;SC;;0;1;;;;;;;;;GS1 US;US
0041520879998;Daily Regenerating Cleanser;Healthcare;51000000;;;;http://product.okfn.org.s3.amazonaws.com/images/gtin/gtin-004/0041520879998.jpg;A2F4MN;CareOne;http://product.okfn.org.s3.amazonaws.com/images/brand/A2F4MN.jpg;http://www.care1.info;;;;;;0041520;0607986000002;Ahold Usa, Inc.;US;Greenville;29607;1200 Brookfield Blvd.;;SC;;0;1;;;;;150.0;5.0;;;GS1 US;US
0041520880215;12 Ply Sterile Pads 25 pads;Healthcare;51000000;;;;http://product.okfn.org.s3.amazonaws.com/images/gtin/gtin-004/0041520880215.jpg;A2F4MN;CareOne;http://product.okfn.org.s3.amazonaws.com/images/brand/A2F4MN.jpg;http://www.care1.info;;;;;;0041520;0607986000002;Ahold Usa, Inc.;US;Greenville;29607;1200 Brookfield Blvd.;;SC;;0;1;;;;;;;;;GS1 US;US
0041520880246;Extra Healing Fast Acting Lotion;Healthcare;51000000;;;;http://product.okfn.org.s3.amazonaws.com/images/gtin/gtin-004/0041520880246.jpg;A2F4MN;CareOne;http://product.okfn.org.s3.amazonaws.com/images/brand/A2F4MN.jpg;http://www.care1.info;;;;;;0041520;0607986000002;Ahold Usa, Inc.;US;Greenville;29607;1200 Brookfield Blvd.;;SC;;0;1;;;;;621.0;21.0;;;GS1 US;US
0041520880277;Healing Ointment;Baby Care;54000000;;;;http://product.okfn.org.s3.amazonaws.com/images/gtin/gtin-004/0041520880277.jpg;ILXJID;Cottontails;http://product.okfn.org.s3.amazonaws.com/images/brand/ILXJID.jpg;http://www.giantfoodstores.com;;;;;;0041520;0607986000002;Ahold Usa, Inc.;US;Greenville;29607;1200 Brookfield Blvd.;;SC;;0;1;;;85.0;3.0;;;;;GS1 US;US
0041520880345;Vitamin D 90 softgels;Healthcare;51000000;;;;http://product.okfn.org.s3.amazonaws.com/images/gtin/gtin-004/0041520880345.jpg;A2F4MN;CareOne;http://product.okfn.org.s3.amazonaws.com/images/brand/A2F4MN.jpg;http://www.care1.info;;;;;;0041520;0607986000002;Ahold Usa, Inc.;US;Greenville;29607;1200 Brookfield Blvd.;;SC;;0;1;;;;;;;;;GS1 US;US
0041520880406;Baby Wash;Baby Care;54000000;;;;http://product.okfn.org.s3.amazonaws.com/images/gtin/gtin-004/0041520880406.jpg;ILXJID;Cottontails;http://product.okfn.org.s3.amazonaws.com/images/brand/ILXJID.jpg;http://www.giantfoodstores.com;;;;;;0041520;0607986000002;Ahold Usa, Inc.;US;Greenville;29607;1200 Brookfield Blvd.;;SC;;0;1;;;;;236.0;8.0;;;GS1 US;US
0041520880895;Hand Sanitizer;Healthcare;51000000;;;;http://product.okfn.org.s3.amazonaws.com/images/gtin/gtin-004/0041520880895.jpg;A2F4MN;CareOne;http://product.okfn.org.s3.amazonaws.com/images/brand/A2F4MN.jpg;http://www.care1.info;;;;;;0041520;0607986000002;Ahold Usa, Inc.;US;Greenville;29607;1200 Brookfield Blvd.;;SC;;0;1;;;;;443.0;15.0;;;GS1 US;US
0041520882011;Bandages 20 bandages;Healthcare;51000000;;;;http://product.okfn.org.s3.amazonaws.com/images/gtin/gtin-004/0041520882011.jpg;A2F4MN;CareOne;http://product.okfn.org.s3.amazonaws.com/images/brand/A2F4MN.jpg;http://www.care1.info;;;;;;0041520;0607986000002;Ahold Usa, Inc.;US;Greenville;29607;1200 Brookfield Blvd.;;SC;;0;1;;;;;;;;;GS1 US;US
0041520882059;Shampoo Plus Conditioner;Healthcare;51000000;;;;http://product.okfn.org.s3.amazonaws.com/images/gtin/gtin-004/0041520882059.jpg;A2F4MN;CareOne;http://product.okfn.org.s3.amazonaws.com/images/brand/A2F4MN.jpg;http://www.care1.info;;;;;;0041520;0607986000002;Ahold Usa, Inc.;US;Greenville;29607;1200 Brookfield Blvd.;;SC;;0;1;;;;;420.0;14.2;;;GS1 US;US
0041520884084;Patio Candle;;;;;;http://product.okfn.org.s3.amazonaws.com/images/gtin/gtin-004/0041520884084.jpg;;;;;;;;;;0041520;0607986000002;Ahold Usa, Inc.;US;Greenville;29607;1200 Brookfield Blvd.;;SC;;0;1;;;567.0;20.0;;;;;GS1 US;US
0041520885029;Fluoride Rinse;Healthcare;51000000;;;;http://product.okfn.org.s3.amazonaws.com/images/gtin/gtin-004/0041520885029.jpg;A2F4MN;CareOne;http://product.okfn.org.s3.amazonaws.com/images/brand/A2F4MN.jpg;http://www.care1.info;;;;;;0041520;0607986000002;Ahold Usa, Inc.;US;Greenville;29607;1200 Brookfield Blvd.;;SC;;0;1;;;;;500.0;16.9;;;GS1 US;US
0041520886385;Ultra-gentle Oil-free Sensitive Skin Moisturizer;Healthcare;51000000;;;;http://product.okfn.org.s3.amazonaws.com/images/gtin/gtin-004/0041520886385.jpg;A2F4MN;CareOne;http://product.okfn.org.s3.amazonaws.com/images/brand/A2F4MN.jpg;http://www.care1.info;;;;;;0041520;0607986000002;Ahold Usa, Inc.;US;Greenville;29607;1200 Brookfield Blvd.;;SC;;0;1;;;;;118.0;4.0;;;GS1 US;US
0041522063432;Dog Biscuits For Dogs 50 100 lb;;;;;;http://product.okfn.org.s3.amazonaws.com/images/gtin/gtin-004/0041522063432.jpg;;;;;;;;;;0041522;0041522000000;Star-Kist Foods Inc/Heinz Pet Products;US;Pittsburgh;15222-2530;357 6th Ave;;PA;;0;1;;;;;;;;;GS1 US;US
0041522108409;Dog Biscuits;;;;;;http://product.okfn.org.s3.amazonaws.com/images/gtin/gtin-004/0041522108409.jpg;;;;;;;;;;0041522;0041522000000;Star-Kist Foods Inc/Heinz Pet Products;US;Pittsburgh;15222-2530;357 6th Ave;;PA;;0;1;;;;;;;;;GS1 US;US
0041533245322;Microwave Activated Moist Heat-cold Carpal Cuff For Wrist Hand X;;;;;;http://product.okfn.org.s3.amazonaws.com/images/gtin/gtin-004/0041533245322.jpg;;;;;;;;;;0041533;0041533000006;Bruder Healthcare Company;US;Alpharetta;30004;3150 Engineering Pkwy;;GA;;0;1;;;;;;;;;GS1 US;US
0041533343257;Moist Heat Neck Wrap 1 wrap;;;;;;http://product.okfn.org.s3.amazonaws.com/images/gtin/gtin-004/0041533343257.jpg;;;;;;;;;;0041533;0041533000006;Bruder Healthcare Company;US;Alpharetta;30004;3150 Engineering Pkwy;;GA;;0;1;;;;;;;;;GS1 US;US
0041533345350;Moist Heat Joint Wrap 1 wrap;;;;;;http://product.okfn.org.s3.amazonaws.com/images/gtin/gtin-004/0041533345350.jpg;;;;;;;;;;0041533;0041533000006;Bruder Healthcare Company;US;Alpharetta;30004;3150 Engineering Pkwy;;GA;;0;1;;;;;;;;;GS1 US;US
0041533740209;Cold Compress 1 each;;;;;;http://product.okfn.org.s3.amazonaws.com/images/gtin/gtin-004/0041533740209.jpg;;;;;;;;;;0041533;0041533000006;Bruder Healthcare Company;US;Alpharetta;30004;3150 Engineering Pkwy;;GA;;0;1;;;;;;;;;GS1 US;US
0041534110025;Mints Ice;;;;;;http://product.okfn.org.s3.amazonaws.com/images/gtin/gtin-004/0041534110025.jpg;;;;;;;;;;0041534;0041534000005;K. C. Confectionery Ltd.;TT;Couva;;95-97 Southern Main Road;;;;0;1;;;;;;;;;GS1 US;US
0041534308026;Kc Creamy Toffee;;;;;;http://product.okfn.org.s3.amazonaws.com/images/gtin/gtin-004/0041534308026.jpg;;;;;;;;;;0041534;0041534000005;K. C. Confectionery Ltd.;TT;Couva;;95-97 Southern Main Road;;;;0;1;;;;;;;;;GS1 US;US
0041535056506;Protein Conditioning Shampoo;;;;;;http://product.okfn.org.s3.amazonaws.com/images/gtin/gtin-004/0041535056506.jpg;;;;;;;;;;0041535;0041535000004;Vaporette Chemical Co. Div.;US;Dallas;75234;12200 Denton Drive;;TX;;0;1;;;;;;12.0;;;GS1 US;US
0041535280000;Z-120 Carpet Flea And Tick Powder;Pet Care - Food;10000000;;;;http://product.okfn.org.s3.amazonaws.com/images/gtin/gtin-004/0041535280000.jpg;UXSMK5;Farnam;http://product.okfn.org.s3.amazonaws.com/images/brand/UXSMK5.jpg;http://www.farnam.com;;;;;;0041535;0041535000004;Vaporette Chemical Co. Div.;US;Dallas;75234;12200 Denton Drive;;TX;;0;1;;;;16.0;;;;;GS1 US;US
0041535374709;Mosquito Repellent;;;;;;http://product.okfn.org.s3.amazonaws.com/images/gtin/gtin-004/0041535374709.jpg;;;;;;;;;;0041535;0041535000004;Vaporette Chemical Co. Div.;US;Dallas;75234;12200 Denton Drive;;TX;;0;1;;;;;236.0;8.0;;;GS1 US;US
0041535442309;4 Month Flea And Tick Collar For Small Dogs 1 ct;;;;;;http://product.okfn.org.s3.amazonaws.com/images/gtin/gtin-004/0041535442309.jpg;;;;;;;;;;0041535;0041535000004;Vaporette Chemical Co. Div.;US;Dallas;75234;12200 Denton Drive;;TX;;0;1;;;;;;;;;GS1 US;US
0041535604608;Siphotrol Plus Fogger;;;;;;http://product.okfn.org.s3.amazonaws.com/images/gtin/gtin-004/0041535604608.jpg;;;;;;;;;;0041535;0041535000004;Vaporette Chemical Co. Div.;US;Dallas;75234;12200 Denton Drive;;TX;;0;1;;;;6.0;;;;;GS1 US;US
0041535609108;Fleatrol Carpet Spray;Pet Care - Food;10000000;;;;http://product.okfn.org.s3.amazonaws.com/images/gtin/gtin-004/0041535609108.jpg;UXSMK5;Farnam;http://product.okfn.org.s3.amazonaws.com/images/brand/UXSMK5.jpg;http://www.farnam.com;;;;;;0041535;0041535000004;Vaporette Chemical Co. Div.;US;Dallas;75234;12200 Denton Drive;;TX;;0;1;;;;8.0;;;;;GS1 US;US
0041535611606;Single Fogger;Pet Care - Food;10000000;;;;http://product.okfn.org.s3.amazonaws.com/images/gtin/gtin-004/0041535611606.jpg;UXSMK5;Farnam;http://product.okfn.org.s3.amazonaws.com/images/brand/UXSMK5.jpg;http://www.farnam.com;;;;;;0041535;0041535000004;Vaporette Chemical Co. Div.;US;Dallas;75234;12200 Denton Drive;;TX;;0;1;;;;6.0;;;;;GS1 US;US
0041535622503;Fleatrol Flea & Tick Spray For Cats & Kittens;;;;;;http://product.okfn.org.s3.amazonaws.com/images/gtin/gtin-004/0041535622503.jpg;;;;;;;;;;0041535;0041535000004;Vaporette Chemical Co. Div.;US;Dallas;75234;12200 Denton Drive;;TX;;0;1;;;;;;8.0;;;GS1 US;US
0041535632304;Carpet And Upholstry Pump;;;;;;http://product.okfn.org.s3.amazonaws.com/images/gtin/gtin-004/0041535632304.jpg;;;;;;;;;;0041535;0041535000004;Vaporette Chemical Co. Div.;US;Dallas;75234;12200 Denton Drive;;TX;;0;1;;;;24.0;;;;;GS1 US;US
0041535770006;Spot On Flea & Tick Control For Dogs Size Medium Dog;Pet Care - Food;10000000;;;;http://product.okfn.org.s3.amazonaws.com/images/gtin/gtin-004/0041535770006.jpg;UXSMK5;Farnam;http://product.okfn.org.s3.amazonaws.com/images/brand/UXSMK5.jpg;http://www.farnam.com;;;;;;0041535;0041535000004;Vaporette Chemical Co. Div.;US;Dallas;75234;12200 Denton Drive;;TX;;0;1;;;;;;4.0;;;GS1 US;US
0041535775506;Zodiac Spot On Flea Control For Cats And Kittens 1 cc 4 pk;;;;;;http://product.okfn.org.s3.amazonaws.com/images/gtin/gtin-004/0041535775506.jpg;;;;;;;;;;0041535;0041535000004;Vaporette Chemical Co. Div.;US;Dallas;75234;12200 Denton Drive;;TX;;0;1;;;;;;;;;GS1 US;US
0041543010019;Horseradish Cream Style;;;;;;http://product.okfn.org.s3.amazonaws.com/images/gtin/gtin-004/0041543010019.jpg;;;;;;;;;;0041543;0041543000003;Silver Spring Foods, Inc.;US;Eau Claire;54703;2424 Alpine Rd;;WI;;0;1;;;;5.0;;;;;GS1 US;US
0041543070082;Horseradish Pineapple Apricot;;;;;;http://product.okfn.org.s3.amazonaws.com/images/gtin/gtin-004/0041543070082.jpg;;;;;;;;;;0041543;0041543000003;Silver Spring Foods, Inc.;US;Eau Claire;54703;2424 Alpine Rd;;WI;;0;1;;;241.0;8.5;;;;;GS1 US;US
0041543150197;Mustard Beer'n Brat Horseradish 9.5 Fo;;;;;;http://product.okfn.org.s3.amazonaws.com/images/gtin/gtin-004/0041543150197.jpg;;;;;;;;;;0041543;0041543000003;Silver Spring Foods, Inc.;US;Eau Claire;54703;2424 Alpine Rd;;WI;;0;1;;;;9.5;;;;;GS1 US;US
0041543160523;Dill Mustard;;;;;;http://product.okfn.org.s3.amazonaws.com/images/gtin/gtin-004/0041543160523.jpg;;;;;;;;;;0041543;0041543000003;Silver Spring Foods, Inc.;US;Eau Claire;54703;2424 Alpine Rd;;WI;;0;1;;;;9.5;;;;;GS1 US;US
0041545002029;Energy Drink;;;;;;http://product.okfn.org.s3.amazonaws.com/images/gtin/gtin-004/0041545002029.jpg;;;;;;;;;;0041545;0041545000001;The Monarch Company, Inc.;US;Atlanta;30306;1123 Zonolite Road NE, Ste 10;;GA;;0;1;;;;;473.0;16.0;;;GS1 US;US
0041545031784;Root Beer;;;;;;http://product.okfn.org.s3.amazonaws.com/images/gtin/gtin-004/0041545031784.jpg;;;;;;;;;;0041545;0041545000001;The Monarch Company, Inc.;US;Atlanta;30306;1123 Zonolite Road NE, Ste 10;;GA;;0;1;;;;;591.0;20.0;;;GS1 US;US
0041545081789;Fruit Punch;;;;;;http://product.okfn.org.s3.amazonaws.com/images/gtin/gtin-004/0041545081789.jpg;;;;;;;;;;0041545;0041545000001;The Monarch Company, Inc.;US;Atlanta;30306;1123 Zonolite Road NE, Ste 10;;GA;;0;1;;;;;591.0;20.0;;;GS1 US;US
